<?xml version="1.0" encoding="UTF-8"?>
<gpx version="1.1" creator="trajectory-viz demo" xmlns="http://www.topografix.com/GPX/1/1">
  <trk>
    <name>courier-09</name>
    <trkseg>
      <trkpt lat="35.707041" lon="139.563863">
        <time>2024-03-01T06:44:00+09:00</time>
      </trkpt>
      <trkpt lat="35.707232" lon="139.562976">
        <time>2024-03-01T06:44:45+09:00</time>
      </trkpt>
      <trkpt lat="35.708288" lon="139.562665">
        <time>2024-03-01T06:45:30+09:00</time>
      </trkpt>
      <trkpt lat="35.708450" lon="139.561774">
        <time>2024-03-01T06:46:15+09:00</time>
      </trkpt>
      <trkpt lat="35.709497" lon="139.561444">
        <time>2024-03-01T06:47:00+09:00</time>
      </trkpt>
      <trkpt lat="35.709900" lon="139.560663">
        <time>2024-03-01T06:47:45+09:00</time>
      </trkpt>
      <trkpt lat="35.709900" lon="139.559768">
        <time>2024-03-01T06:48:30+09:00</time>
      </trkpt>
      <trkpt lat="35.708860" lon="139.559425">
        <time>2024-03-01T06:49:15+09:00</time>
      </trkpt>
      <trkpt lat="35.708763" lon="139.558528">
        <time>2024-03-01T06:50:00+09:00</time>
      </trkpt>
      <trkpt lat="35.709752" lon="139.558099">
        <time>2024-03-01T06:50:45+09:00</time>
      </trkpt>
      <trkpt lat="35.709900" lon="139.558096">
        <time>2024-03-01T06:51:30+09:00</time>
      </trkpt>
      <trkpt lat="35.709231" lon="139.558819">
        <time>2024-03-01T06:52:15+09:00</time>
      </trkpt>
      <trkpt lat="35.708393" lon="139.559419">
        <time>2024-03-01T06:53:00+09:00</time>
      </trkpt>
      <trkpt lat="35.707268" lon="139.559441">
        <time>2024-03-01T06:53:45+09:00</time>
      </trkpt>
      <trkpt lat="35.706340" lon="139.559950">
        <time>2024-03-01T06:54:30+09:00</time>
      </trkpt>
      <trkpt lat="35.705500" lon="139.560548">
        <time>2024-03-01T06:55:15+09:00</time>
      </trkpt>
      <trkpt lat="35.704434" lon="139.560261">
        <time>2024-03-01T06:56:00+09:00</time>
      </trkpt>
      <trkpt lat="35.703352" lon="139.560506">
        <time>2024-03-01T06:56:45+09:00</time>
      </trkpt>
      <trkpt lat="35.702516" lon="139.559903">
        <time>2024-03-01T06:57:30+09:00</time>
      </trkpt>
      <trkpt lat="35.701392" lon="139.559937">
        <time>2024-03-01T06:58:15+09:00</time>
      </trkpt>
      <trkpt lat="35.700997" lon="139.560780">
        <time>2024-03-01T06:59:00+09:00</time>
      </trkpt>
      <trkpt lat="35.700393" lon="139.561539">
        <time>2024-03-01T06:59:45+09:00</time>
      </trkpt>
      <trkpt lat="35.700539" lon="139.562431">
        <time>2024-03-01T07:00:30+09:00</time>
      </trkpt>
      <trkpt lat="35.699587" lon="139.562910">
        <time>2024-03-01T07:01:15+09:00</time>
      </trkpt>
      <trkpt lat="35.698475" lon="139.563049">
        <time>2024-03-01T07:02:00+09:00</time>
      </trkpt>
      <trkpt lat="35.697511" lon="139.562585">
        <time>2024-03-01T07:02:45+09:00</time>
      </trkpt>
      <trkpt lat="35.696555" lon="139.562111">
        <time>2024-03-01T07:03:30+09:00</time>
      </trkpt>
      <trkpt lat="35.696012" lon="139.561323">
        <time>2024-03-01T07:04:15+09:00</time>
      </trkpt>
      <trkpt lat="35.695253" lon="139.560659">
        <time>2024-03-01T07:05:00+09:00</time>
      </trkpt>
      <trkpt lat="35.694991" lon="139.559784">
        <time>2024-03-01T07:05:45+09:00</time>
      </trkpt>
      <trkpt lat="35.695166" lon="139.558895">
        <time>2024-03-01T07:06:30+09:00</time>
      </trkpt>
      <trkpt lat="35.694915" lon="139.558017">
        <time>2024-03-01T07:07:15+09:00</time>
      </trkpt>
      <trkpt lat="35.694155" lon="139.557354">
        <time>2024-03-01T07:08:00+09:00</time>
      </trkpt>
      <trkpt lat="35.693459" lon="139.556646">
        <time>2024-03-01T07:08:45+09:00</time>
      </trkpt>
      <trkpt lat="35.693216" lon="139.555768">
        <time>2024-03-01T07:09:30+09:00</time>
      </trkpt>
      <trkpt lat="35.692764" lon="139.554944">
        <time>2024-03-01T07:10:15+09:00</time>
      </trkpt>
      <trkpt lat="35.691641" lon="139.555001">
        <time>2024-03-01T07:11:00+09:00</time>
      </trkpt>
      <trkpt lat="35.690543" lon="139.554805">
        <time>2024-03-01T07:11:45+09:00</time>
      </trkpt>
      <trkpt lat="35.690100" lon="139.554065">
        <time>2024-03-01T07:12:30+09:00</time>
      </trkpt>
      <trkpt lat="35.691049" lon="139.553582">
        <time>2024-03-01T07:13:15+09:00</time>
      </trkpt>
      <trkpt lat="35.691532" lon="139.552769">
        <time>2024-03-01T07:14:00+09:00</time>
      </trkpt>
      <trkpt lat="35.692656" lon="139.552805">
        <time>2024-03-01T07:14:45+09:00</time>
      </trkpt>
      <trkpt lat="35.693511" lon="139.553390">
        <time>2024-03-01T07:15:30+09:00</time>
      </trkpt>
      <trkpt lat="35.693189" lon="139.554252">
        <time>2024-03-01T07:16:15+09:00</time>
      </trkpt>
      <trkpt lat="35.694085" lon="139.554797">
        <time>2024-03-01T07:17:00+09:00</time>
      </trkpt>
      <trkpt lat="35.695142" lon="139.555105">
        <time>2024-03-01T07:17:45+09:00</time>
      </trkpt>
      <trkpt lat="35.695417" lon="139.555978">
        <time>2024-03-01T07:18:30+09:00</time>
      </trkpt>
      <trkpt lat="35.695362" lon="139.556877">
        <time>2024-03-01T07:19:15+09:00</time>
      </trkpt>
      <trkpt lat="35.695969" lon="139.557635">
        <time>2024-03-01T07:20:00+09:00</time>
      </trkpt>
      <trkpt lat="35.696517" lon="139.558421">
        <time>2024-03-01T07:20:45+09:00</time>
      </trkpt>
      <trkpt lat="35.697569" lon="139.558740">
        <time>2024-03-01T07:21:30+09:00</time>
      </trkpt>
      <trkpt lat="35.698473" lon="139.559275">
        <time>2024-03-01T07:22:15+09:00</time>
      </trkpt>
      <trkpt lat="35.699518" lon="139.558942">
        <time>2024-03-01T07:23:00+09:00</time>
      </trkpt>
      <trkpt lat="35.700561" lon="139.558604">
        <time>2024-03-01T07:23:45+09:00</time>
      </trkpt>
      <trkpt lat="35.701564" lon="139.558196">
        <time>2024-03-01T07:24:30+09:00</time>
      </trkpt>
      <trkpt lat="35.702689" lon="139.558207">
        <time>2024-03-01T07:25:15+09:00</time>
      </trkpt>
      <trkpt lat="35.703613" lon="139.558719">
        <time>2024-03-01T07:26:00+09:00</time>
      </trkpt>
      <trkpt lat="35.704211" lon="139.559481">
        <time>2024-03-01T07:26:45+09:00</time>
      </trkpt>
      <trkpt lat="35.704850" lon="139.560222">
        <time>2024-03-01T07:27:30+09:00</time>
      </trkpt>
      <trkpt lat="35.705150" lon="139.561090">
        <time>2024-03-01T07:28:15+09:00</time>
      </trkpt>
      <trkpt lat="35.705216" lon="139.561988">
        <time>2024-03-01T07:29:00+09:00</time>
      </trkpt>
      <trkpt lat="35.705154" lon="139.562887">
        <time>2024-03-01T07:29:45+09:00</time>
      </trkpt>
      <trkpt lat="35.705737" lon="139.563656">
        <time>2024-03-01T07:30:30+09:00</time>
      </trkpt>
      <trkpt lat="35.706810" lon="139.563926">
        <time>2024-03-01T07:31:15+09:00</time>
      </trkpt>
      <trkpt lat="35.707774" lon="139.563463">
        <time>2024-03-01T07:32:00+09:00</time>
      </trkpt>
      <trkpt lat="35.708853" lon="139.563719">
        <time>2024-03-01T07:32:45+09:00</time>
      </trkpt>
      <trkpt lat="35.709796" lon="139.563229">
        <time>2024-03-01T07:33:30+09:00</time>
      </trkpt>
      <trkpt lat="35.709900" lon="139.563581">
        <time>2024-03-01T07:34:15+09:00</time>
      </trkpt>
      <trkpt lat="35.708814" lon="139.563346">
        <time>2024-03-01T07:35:00+09:00</time>
      </trkpt>
      <trkpt lat="35.707790" lon="139.563718">
        <time>2024-03-01T07:35:45+09:00</time>
      </trkpt>
      <trkpt lat="35.706728" lon="139.563421">
        <time>2024-03-01T07:36:30+09:00</time>
      </trkpt>
      <trkpt lat="35.706148" lon="139.562650">
        <time>2024-03-01T07:37:15+09:00</time>
      </trkpt>
      <trkpt lat="35.705030" lon="139.562547">
        <time>2024-03-01T07:38:00+09:00</time>
      </trkpt>
      <trkpt lat="35.704123" lon="139.562015">
        <time>2024-03-01T07:38:45+09:00</time>
      </trkpt>
      <trkpt lat="35.703282" lon="139.561417">
        <time>2024-03-01T07:39:30+09:00</time>
      </trkpt>
      <trkpt lat="35.702588" lon="139.560709">
        <time>2024-03-01T07:40:15+09:00</time>
      </trkpt>
      <trkpt lat="35.702599" lon="139.559809">
        <time>2024-03-01T07:41:00+09:00</time>
      </trkpt>
      <trkpt lat="35.703365" lon="139.559150">
        <time>2024-03-01T07:41:45+09:00</time>
      </trkpt>
      <trkpt lat="35.704232" lon="139.558576">
        <time>2024-03-01T07:42:30+09:00</time>
      </trkpt>
      <trkpt lat="35.703882" lon="139.557721">
        <time>2024-03-01T07:43:15+09:00</time>
      </trkpt>
      <trkpt lat="35.703529" lon="139.556866">
        <time>2024-03-01T07:44:00+09:00</time>
      </trkpt>
      <trkpt lat="35.703077" lon="139.556042">
        <time>2024-03-01T07:44:45+09:00</time>
      </trkpt>
      <trkpt lat="35.702035" lon="139.555702">
        <time>2024-03-01T07:45:30+09:00</time>
      </trkpt>
      <trkpt lat="35.701699" lon="139.554844">
        <time>2024-03-01T07:46:15+09:00</time>
      </trkpt>
      <trkpt lat="35.701869" lon="139.553954">
        <time>2024-03-01T07:47:00+09:00</time>
      </trkpt>
      <trkpt lat="35.701635" lon="139.553073">
        <time>2024-03-01T07:47:45+09:00</time>
      </trkpt>
      <trkpt lat="35.701381" lon="139.552197">
        <time>2024-03-01T07:48:30+09:00</time>
      </trkpt>
      <trkpt lat="35.700305" lon="139.551932">
        <time>2024-03-01T07:49:15+09:00</time>
      </trkpt>
      <trkpt lat="35.700101" lon="139.551047">
        <time>2024-03-01T07:50:00+09:00</time>
      </trkpt>
      <trkpt lat="35.700185" lon="139.550150">
        <time>2024-03-01T07:50:45+09:00</time>
      </trkpt>
      <trkpt lat="35.700436" lon="139.550100">
        <time>2024-03-01T07:51:30+09:00</time>
      </trkpt>
      <trkpt lat="35.700975" lon="139.550890">
        <time>2024-03-01T07:52:15+09:00</time>
      </trkpt>
      <trkpt lat="35.702099" lon="139.550923">
        <time>2024-03-01T07:53:00+09:00</time>
      </trkpt>
      <trkpt lat="35.703174" lon="139.550656">
        <time>2024-03-01T07:53:45+09:00</time>
      </trkpt>
      <trkpt lat="35.704295" lon="139.550725">
        <time>2024-03-01T07:54:30+09:00</time>
      </trkpt>
      <trkpt lat="35.705395" lon="139.550915">
        <time>2024-03-01T07:55:15+09:00</time>
      </trkpt>
      <trkpt lat="35.706020" lon="139.551663">
        <time>2024-03-01T07:56:00+09:00</time>
      </trkpt>
      <trkpt lat="35.707145" lon="139.551682">
        <time>2024-03-01T07:56:45+09:00</time>
      </trkpt>
      <trkpt lat="35.707680" lon="139.550890">
        <time>2024-03-01T07:57:30+09:00</time>
      </trkpt>
      <trkpt lat="35.708784" lon="139.550718">
        <time>2024-03-01T07:58:15+09:00</time>
      </trkpt>
      <trkpt lat="35.709896" lon="139.550584">
        <time>2024-03-01T07:59:00+09:00</time>
      </trkpt>
      <trkpt lat="35.709900" lon="139.550100">
        <time>2024-03-01T07:59:45+09:00</time>
      </trkpt>
      <trkpt lat="35.709900" lon="139.550670">
        <time>2024-03-01T08:44:30+09:00</time>
      </trkpt>
      <trkpt lat="35.709752" lon="139.551562">
        <time>2024-03-01T08:45:15+09:00</time>
      </trkpt>
      <trkpt lat="35.709979" lon="139.552444">
        <time>2024-03-01T08:46:00+09:00</time>
      </trkpt>
      <trkpt lat="35.709252" lon="139.553131">
        <time>2024-03-01T08:46:45+09:00</time>
      </trkpt>
      <trkpt lat="35.708840" lon="139.553969">
        <time>2024-03-01T08:47:30+09:00</time>
      </trkpt>
      <trkpt lat="35.708969" lon="139.554863">
        <time>2024-03-01T08:48:15+09:00</time>
      </trkpt>
      <trkpt lat="35.708499" lon="139.555680">
        <time>2024-03-01T08:49:00+09:00</time>
      </trkpt>
      <trkpt lat="35.707540" lon="139.556151">
        <time>2024-03-01T08:49:45+09:00</time>
      </trkpt>
      <trkpt lat="35.706415" lon="139.556156">
        <time>2024-03-01T08:50:30+09:00</time>
      </trkpt>
      <trkpt lat="35.705358" lon="139.555847">
        <time>2024-03-01T08:51:15+09:00</time>
      </trkpt>
      <trkpt lat="35.705204" lon="139.554956">
        <time>2024-03-01T08:52:00+09:00</time>
      </trkpt>
      <trkpt lat="35.705819" lon="139.554202">
        <time>2024-03-01T08:52:45+09:00</time>
      </trkpt>
      <trkpt lat="35.706924" lon="139.554033">
        <time>2024-03-01T08:53:30+09:00</time>
      </trkpt>
      <trkpt lat="35.707861" lon="139.554531">
        <time>2024-03-01T08:54:15+09:00</time>
      </trkpt>
      <trkpt lat="35.708246" lon="139.555377">
        <time>2024-03-01T08:55:00+09:00</time>
      </trkpt>
      <trkpt lat="35.709205" lon="139.555847">
        <time>2024-03-01T08:55:45+09:00</time>
      </trkpt>
      <trkpt lat="35.709900" lon="139.556370">
        <time>2024-03-01T08:56:30+09:00</time>
      </trkpt>
      <trkpt lat="35.708776" lon="139.556400">
        <time>2024-03-01T08:57:15+09:00</time>
      </trkpt>
      <trkpt lat="35.708190" lon="139.557169">
        <time>2024-03-01T08:58:00+09:00</time>
      </trkpt>
      <trkpt lat="35.708579" lon="139.558013">
        <time>2024-03-01T08:58:45+09:00</time>
      </trkpt>
      <trkpt lat="35.708817" lon="139.558893">
        <time>2024-03-01T08:59:30+09:00</time>
      </trkpt>
      <trkpt lat="35.709919" lon="139.559072">
        <time>2024-03-01T09:00:15+09:00</time>
      </trkpt>
      <trkpt lat="35.709900" lon="139.558826">
        <time>2024-03-01T09:01:00+09:00</time>
      </trkpt>
      <trkpt lat="35.709120" lon="139.559474">
        <time>2024-03-01T09:01:45+09:00</time>
      </trkpt>
      <trkpt lat="35.709592" lon="139.560291">
        <time>2024-03-01T09:02:30+09:00</time>
      </trkpt>
      <trkpt lat="35.709277" lon="139.561155">
        <time>2024-03-01T09:03:15+09:00</time>
      </trkpt>
      <trkpt lat="35.708261" lon="139.561542">
        <time>2024-03-01T09:04:00+09:00</time>
      </trkpt>
      <trkpt lat="35.707829" lon="139.562373">
        <time>2024-03-01T09:04:45+09:00</time>
      </trkpt>
      <trkpt lat="35.707759" lon="139.563271">
        <time>2024-03-01T09:05:30+09:00</time>
      </trkpt>
      <trkpt lat="35.707555" lon="139.564157">
        <time>2024-03-01T09:06:15+09:00</time>
      </trkpt>
      <trkpt lat="35.706511" lon="139.564491">
        <time>2024-03-01T09:07:00+09:00</time>
      </trkpt>
      <trkpt lat="35.705396" lon="139.564371">
        <time>2024-03-01T09:07:45+09:00</time>
      </trkpt>
      <trkpt lat="35.704278" lon="139.564270">
        <time>2024-03-01T09:08:30+09:00</time>
      </trkpt>
      <trkpt lat="35.703154" lon="139.564235">
        <time>2024-03-01T09:09:15+09:00</time>
      </trkpt>
      <trkpt lat="35.702060" lon="139.564022">
        <time>2024-03-01T09:10:00+09:00</time>
      </trkpt>
      <trkpt lat="35.700989" lon="139.563748">
        <time>2024-03-01T09:10:45+09:00</time>
      </trkpt>
      <trkpt lat="35.700233" lon="139.564415">
        <time>2024-03-01T09:11:30+09:00</time>
      </trkpt>
      <trkpt lat="35.700221" lon="139.565315">
        <time>2024-03-01T09:12:15+09:00</time>
      </trkpt>
      <trkpt lat="35.700394" lon="139.566205">
        <time>2024-03-01T09:13:00+09:00</time>
      </trkpt>
      <trkpt lat="35.699694" lon="139.566909">
        <time>2024-03-01T09:13:45+09:00</time>
      </trkpt>
      <trkpt lat="35.699220" lon="139.567725">
        <time>2024-03-01T09:14:30+09:00</time>
      </trkpt>
      <trkpt lat="35.698386" lon="139.568330">
        <time>2024-03-01T09:15:15+09:00</time>
      </trkpt>
      <trkpt lat="35.698203" lon="139.569218">
        <time>2024-03-01T09:16:00+09:00</time>
      </trkpt>
      <trkpt lat="35.698855" lon="139.569951">
        <time>2024-03-01T09:16:45+09:00</time>
      </trkpt>
      <trkpt lat="35.698281" lon="139.570724">
        <time>2024-03-01T09:17:30+09:00</time>
      </trkpt>
      <trkpt lat="35.698625" lon="139.571581">
        <time>2024-03-01T09:18:15+09:00</time>
      </trkpt>
      <trkpt lat="35.699429" lon="139.572211">
        <time>2024-03-01T09:19:00+09:00</time>
      </trkpt>
      <trkpt lat="35.700549" lon="139.572294">
        <time>2024-03-01T09:19:45+09:00</time>
      </trkpt>
      <trkpt lat="35.701162" lon="139.573049">
        <time>2024-03-01T09:20:30+09:00</time>
      </trkpt>
      <trkpt lat="35.700952" lon="139.573933">
        <time>2024-03-01T09:21:15+09:00</time>
      </trkpt>
      <trkpt lat="35.701527" lon="139.574706">
        <time>2024-03-01T09:22:00+09:00</time>
      </trkpt>
      <trkpt lat="35.701344" lon="139.575594">
        <time>2024-03-01T09:22:45+09:00</time>
      </trkpt>
      <trkpt lat="35.700679" lon="139.576321">
        <time>2024-03-01T09:23:30+09:00</time>
      </trkpt>
      <trkpt lat="35.700560" lon="139.577216">
        <time>2024-03-01T09:24:15+09:00</time>
      </trkpt>
      <trkpt lat="35.700806" lon="139.578094">
        <time>2024-03-01T09:25:00+09:00</time>
      </trkpt>
      <trkpt lat="35.701539" lon="139.578776">
        <time>2024-03-01T09:25:45+09:00</time>
      </trkpt>
      <trkpt lat="35.701996" lon="139.579599">
        <time>2024-03-01T09:26:30+09:00</time>
      </trkpt>
      <trkpt lat="35.702053" lon="139.580498">
        <time>2024-03-01T09:27:15+09:00</time>
      </trkpt>
      <trkpt lat="35.701621" lon="139.581328">
        <time>2024-03-01T09:28:00+09:00</time>
      </trkpt>
      <trkpt lat="35.701019" lon="139.582089">
        <time>2024-03-01T09:28:45+09:00</time>
      </trkpt>
      <trkpt lat="35.701154" lon="139.582982">
        <time>2024-03-01T09:29:30+09:00</time>
      </trkpt>
      <trkpt lat="35.701604" lon="139.583807">
        <time>2024-03-01T09:30:15+09:00</time>
      </trkpt>
      <trkpt lat="35.702725" lon="139.583883">
        <time>2024-03-01T09:31:00+09:00</time>
      </trkpt>
      <trkpt lat="35.703590" lon="139.583307">
        <time>2024-03-01T09:31:45+09:00</time>
      </trkpt>
      <trkpt lat="35.703315" lon="139.582434">
        <time>2024-03-01T09:32:30+09:00</time>
      </trkpt>
      <trkpt lat="35.702836" lon="139.581620">
        <time>2024-03-01T09:33:15+09:00</time>
      </trkpt>
      <trkpt lat="35.701711" lon="139.581615">
        <time>2024-03-01T09:34:00+09:00</time>
      </trkpt>
      <trkpt lat="35.700984" lon="139.580928">
        <time>2024-03-01T09:34:45+09:00</time>
      </trkpt>
      <trkpt lat="35.700280" lon="139.580226">
        <time>2024-03-01T09:35:30+09:00</time>
      </trkpt>
      <trkpt lat="35.699182" lon="139.580032">
        <time>2024-03-01T09:36:15+09:00</time>
      </trkpt>
      <trkpt lat="35.698072" lon="139.580178">
        <time>2024-03-01T09:37:00+09:00</time>
      </trkpt>
      <trkpt lat="35.697484" lon="139.579411">
        <time>2024-03-01T09:37:45+09:00</time>
      </trkpt>
      <trkpt lat="35.697400" lon="139.578514">
        <time>2024-03-01T09:38:30+09:00</time>
      </trkpt>
      <trkpt lat="35.696424" lon="139.578066">
        <time>2024-03-01T09:39:15+09:00</time>
      </trkpt>
      <trkpt lat="35.695368" lon="139.578376">
        <time>2024-03-01T09:40:00+09:00</time>
      </trkpt>
      <trkpt lat="35.694248" lon="139.578287">
        <time>2024-03-01T09:40:45+09:00</time>
      </trkpt>
      <trkpt lat="35.693460" lon="139.578928">
        <time>2024-03-01T09:41:30+09:00</time>
      </trkpt>
      <trkpt lat="35.693602" lon="139.579821">
        <time>2024-03-01T09:42:15+09:00</time>
      </trkpt>
      <trkpt lat="35.694429" lon="139.580432">
        <time>2024-03-01T09:43:00+09:00</time>
      </trkpt>
      <trkpt lat="35.695547" lon="139.580331">
        <time>2024-03-01T09:43:45+09:00</time>
      </trkpt>
      <trkpt lat="35.696664" lon="139.580436">
        <time>2024-03-01T09:44:30+09:00</time>
      </trkpt>
      <trkpt lat="35.697186" lon="139.581233">
        <time>2024-03-01T09:45:15+09:00</time>
      </trkpt>
      <trkpt lat="35.697737" lon="139.582017">
        <time>2024-03-01T09:46:00+09:00</time>
      </trkpt>
      <trkpt lat="35.698377" lon="139.582758">
        <time>2024-03-01T09:46:45+09:00</time>
      </trkpt>
      <trkpt lat="35.699500" lon="139.582819">
        <time>2024-03-01T09:47:30+09:00</time>
      </trkpt>
      <trkpt lat="35.700481" lon="139.583258">
        <time>2024-03-01T09:48:15+09:00</time>
      </trkpt>
      <trkpt lat="35.700383" lon="139.584155">
        <time>2024-03-01T09:49:00+09:00</time>
      </trkpt>
      <trkpt lat="35.700686" lon="139.585022">
        <time>2024-03-01T09:49:45+09:00</time>
      </trkpt>
      <trkpt lat="35.701645" lon="139.585492">
        <time>2024-03-01T09:50:30+09:00</time>
      </trkpt>
      <trkpt lat="35.702606" lon="139.585960">
        <time>2024-03-01T09:51:15+09:00</time>
      </trkpt>
      <trkpt lat="35.703730" lon="139.585998">
        <time>2024-03-01T09:52:00+09:00</time>
      </trkpt>
      <trkpt lat="35.704843" lon="139.586131">
        <time>2024-03-01T09:52:45+09:00</time>
      </trkpt>
      <trkpt lat="35.705913" lon="139.586408">
        <time>2024-03-01T09:53:30+09:00</time>
      </trkpt>
      <trkpt lat="35.707021" lon="139.586567">
        <time>2024-03-01T09:54:15+09:00</time>
      </trkpt>
      <trkpt lat="35.707942" lon="139.586050">
        <time>2024-03-01T09:55:00+09:00</time>
      </trkpt>
      <trkpt lat="35.708980" lon="139.586397">
        <time>2024-03-01T09:55:45+09:00</time>
      </trkpt>
      <trkpt lat="35.709900" lon="139.586136">
        <time>2024-03-01T09:56:30+09:00</time>
      </trkpt>
      <trkpt lat="35.708779" lon="139.586059">
        <time>2024-03-01T09:57:15+09:00</time>
      </trkpt>
      <trkpt lat="35.707662" lon="139.586163">
        <time>2024-03-01T09:58:00+09:00</time>
      </trkpt>
      <trkpt lat="35.706680" lon="139.586602">
        <time>2024-03-01T09:58:45+09:00</time>
      </trkpt>
      <trkpt lat="35.705558" lon="139.586673">
        <time>2024-03-01T09:59:30+09:00</time>
      </trkpt>
      <trkpt lat="35.704473" lon="139.586436">
        <time>2024-03-01T10:00:15+09:00</time>
      </trkpt>
      <trkpt lat="35.703769" lon="139.587138">
        <time>2024-03-01T10:01:00+09:00</time>
      </trkpt>
      <trkpt lat="35.703509" lon="139.588014">
        <time>2024-03-01T10:01:45+09:00</time>
      </trkpt>
      <trkpt lat="35.703390" lon="139.588909">
        <time>2024-03-01T10:02:30+09:00</time>
      </trkpt>
      <trkpt lat="35.704089" lon="139.589615">
        <time>2024-03-01T10:03:15+09:00</time>
      </trkpt>
      <trkpt lat="35.705198" lon="139.589766">
        <time>2024-03-01T10:04:00+09:00</time>
      </trkpt>
      <trkpt lat="35.705873" lon="139.590486">
        <time>2024-03-01T10:04:45+09:00</time>
      </trkpt>
    </trkseg>
  </trk>
</gpx>
