<?xml version="1.0" encoding="UTF-8"?>
<gpx version="1.1" creator="trajectory-viz demo" xmlns="http://www.topografix.com/GPX/1/1">
  <trk>
    <name>courier-03</name>
    <trkseg>
      <trkpt lat="35.709125" lon="139.594714">
        <time>2024-03-01T07:33:00+09:00</time>
      </trkpt>
      <trkpt lat="35.709545" lon="139.593879">
        <time>2024-03-01T07:34:00+09:00</time>
      </trkpt>
      <trkpt lat="35.709900" lon="139.593100">
        <time>2024-03-01T07:35:00+09:00</time>
      </trkpt>
      <trkpt lat="35.708781" lon="139.593195">
        <time>2024-03-01T07:36:00+09:00</time>
      </trkpt>
      <trkpt lat="35.707886" lon="139.593740">
        <time>2024-03-01T07:37:00+09:00</time>
      </trkpt>
      <trkpt lat="35.707299" lon="139.594508">
        <time>2024-03-01T07:38:00+09:00</time>
      </trkpt>
      <trkpt lat="35.706335" lon="139.594971">
        <time>2024-03-01T07:39:00+09:00</time>
      </trkpt>
      <trkpt lat="35.705218" lon="139.595083">
        <time>2024-03-01T07:40:00+09:00</time>
      </trkpt>
      <trkpt lat="35.704105" lon="139.595210">
        <time>2024-03-01T07:41:00+09:00</time>
      </trkpt>
      <trkpt lat="35.703316" lon="139.595852">
        <time>2024-03-01T07:42:00+09:00</time>
      </trkpt>
      <trkpt lat="35.702741" lon="139.596626">
        <time>2024-03-01T07:43:00+09:00</time>
      </trkpt>
      <trkpt lat="35.701635" lon="139.596460">
        <time>2024-03-01T07:44:00+09:00</time>
      </trkpt>
      <trkpt lat="35.700510" lon="139.596453">
        <time>2024-03-01T07:45:00+09:00</time>
      </trkpt>
      <trkpt lat="35.699643" lon="139.597026">
        <time>2024-03-01T07:46:00+09:00</time>
      </trkpt>
      <trkpt lat="35.698765" lon="139.597589">
        <time>2024-03-01T07:47:00+09:00</time>
      </trkpt>
      <trkpt lat="35.697655" lon="139.597734">
        <time>2024-03-01T07:48:00+09:00</time>
      </trkpt>
      <trkpt lat="35.696577" lon="139.597994">
        <time>2024-03-01T07:49:00+09:00</time>
      </trkpt>
      <trkpt lat="35.696498" lon="139.598892">
        <time>2024-03-01T07:50:00+09:00</time>
      </trkpt>
      <trkpt lat="35.697086" lon="139.599659">
        <time>2024-03-01T07:51:00+09:00</time>
      </trkpt>
      <trkpt lat="35.697606" lon="139.599900">
        <time>2024-03-01T07:52:00+09:00</time>
      </trkpt>
      <trkpt lat="35.698178" lon="139.599125">
        <time>2024-03-01T07:53:00+09:00</time>
      </trkpt>
      <trkpt lat="35.699271" lon="139.598910">
        <time>2024-03-01T07:54:00+09:00</time>
      </trkpt>
      <trkpt lat="35.700336" lon="139.599199">
        <time>2024-03-01T07:55:00+09:00</time>
      </trkpt>
      <trkpt lat="35.701373" lon="139.599549">
        <time>2024-03-01T07:56:00+09:00</time>
      </trkpt>
      <trkpt lat="35.702372" lon="139.599962">
        <time>2024-03-01T07:57:00+09:00</time>
      </trkpt>
      <trkpt lat="35.702761" lon="139.599900">
        <time>2024-03-01T07:58:00+09:00</time>
      </trkpt>
      <trkpt lat="35.702990" lon="139.599019">
        <time>2024-03-01T07:59:00+09:00</time>
      </trkpt>
      <trkpt lat="35.704048" lon="139.598713">
        <time>2024-03-01T08:00:00+09:00</time>
      </trkpt>
      <trkpt lat="35.704437" lon="139.597869">
        <time>2024-03-01T08:01:00+09:00</time>
      </trkpt>
      <trkpt lat="35.703597" lon="139.597269">
        <time>2024-03-01T08:02:00+09:00</time>
      </trkpt>
      <trkpt lat="35.703439" lon="139.596378">
        <time>2024-03-01T08:03:00+09:00</time>
      </trkpt>
      <trkpt lat="35.702360" lon="139.596123">
        <time>2024-03-01T08:04:00+09:00</time>
      </trkpt>
      <trkpt lat="35.701261" lon="139.595933">
        <time>2024-03-01T08:05:00+09:00</time>
      </trkpt>
      <trkpt lat="35.700398" lon="139.596511">
        <time>2024-03-01T08:06:00+09:00</time>
      </trkpt>
      <trkpt lat="35.699557" lon="139.597108">
        <time>2024-03-01T08:07:00+09:00</time>
      </trkpt>
      <trkpt lat="35.698769" lon="139.597751">
        <time>2024-03-01T08:08:00+09:00</time>
      </trkpt>
      <trkpt lat="35.698880" lon="139.598646">
        <time>2024-03-01T08:09:00+09:00</time>
      </trkpt>
      <trkpt lat="35.698876" lon="139.599546">
        <time>2024-03-01T08:10:00+09:00</time>
      </trkpt>
      <trkpt lat="35.697825" lon="139.599867">
        <time>2024-03-01T08:11:00+09:00</time>
      </trkpt>
      <trkpt lat="35.696707" lon="139.599768">
        <time>2024-03-01T08:12:00+09:00</time>
      </trkpt>
      <trkpt lat="35.695600" lon="139.599926">
        <time>2024-03-01T08:13:00+09:00</time>
      </trkpt>
      <trkpt lat="35.694478" lon="139.600000">
        <time>2024-03-01T08:14:00+09:00</time>
      </trkpt>
      <trkpt lat="35.693713" lon="139.599900">
        <time>2024-03-01T08:15:00+09:00</time>
      </trkpt>
      <trkpt lat="35.693051" lon="139.599172">
        <time>2024-03-01T08:16:00+09:00</time>
      </trkpt>
      <trkpt lat="35.692533" lon="139.598373">
        <time>2024-03-01T08:17:00+09:00</time>
      </trkpt>
      <trkpt lat="35.691610" lon="139.597859">
        <time>2024-03-01T08:18:00+09:00</time>
      </trkpt>
      <trkpt lat="35.691716" lon="139.596963">
        <time>2024-03-01T08:19:00+09:00</time>
      </trkpt>
      <trkpt lat="35.691010" lon="139.596262">
        <time>2024-03-01T08:20:00+09:00</time>
      </trkpt>
      <trkpt lat="35.690100" lon="139.596170">
        <time>2024-03-01T08:21:00+09:00</time>
      </trkpt>
      <trkpt lat="35.691128" lon="139.595804">
        <time>2024-03-01T08:22:00+09:00</time>
      </trkpt>
      <trkpt lat="35.692215" lon="139.595572">
        <time>2024-03-01T08:23:00+09:00</time>
      </trkpt>
      <trkpt lat="35.693317" lon="139.595391">
        <time>2024-03-01T08:24:00+09:00</time>
      </trkpt>
      <trkpt lat="35.694276" lon="139.594920">
        <time>2024-03-01T08:25:00+09:00</time>
      </trkpt>
      <trkpt lat="35.694530" lon="139.594043">
        <time>2024-03-01T08:26:00+09:00</time>
      </trkpt>
      <trkpt lat="35.695465" lon="139.593543">
        <time>2024-03-01T08:27:00+09:00</time>
      </trkpt>
      <trkpt lat="35.696590" lon="139.593509">
        <time>2024-03-01T08:28:00+09:00</time>
      </trkpt>
      <trkpt lat="35.697124" lon="139.594301">
        <time>2024-03-01T08:29:00+09:00</time>
      </trkpt>
      <trkpt lat="35.696476" lon="139.595037">
        <time>2024-03-01T08:30:00+09:00</time>
      </trkpt>
      <trkpt lat="35.695389" lon="139.595268">
        <time>2024-03-01T08:31:00+09:00</time>
      </trkpt>
      <trkpt lat="35.694395" lon="139.594845">
        <time>2024-03-01T08:32:00+09:00</time>
      </trkpt>
      <trkpt lat="35.693270" lon="139.594853">
        <time>2024-03-01T08:33:00+09:00</time>
      </trkpt>
      <trkpt lat="35.692159" lon="139.594712">
        <time>2024-03-01T08:34:00+09:00</time>
      </trkpt>
      <trkpt lat="35.691116" lon="139.595049">
        <time>2024-03-01T08:35:00+09:00</time>
      </trkpt>
      <trkpt lat="35.690585" lon="139.595842">
        <time>2024-03-01T08:36:00+09:00</time>
      </trkpt>
      <trkpt lat="35.691228" lon="139.596581">
        <time>2024-03-01T08:37:00+09:00</time>
      </trkpt>
      <trkpt lat="35.692348" lon="139.596500">
        <time>2024-03-01T08:38:00+09:00</time>
      </trkpt>
      <trkpt lat="35.692961" lon="139.597254">
        <time>2024-03-01T08:39:00+09:00</time>
      </trkpt>
      <trkpt lat="35.692469" lon="139.598064">
        <time>2024-03-01T08:40:00+09:00</time>
      </trkpt>
      <trkpt lat="35.692033" lon="139.598893">
        <time>2024-03-01T08:41:00+09:00</time>
      </trkpt>
      <trkpt lat="35.692694" lon="139.599621">
        <time>2024-03-01T08:42:00+09:00</time>
      </trkpt>
      <trkpt lat="35.693753" lon="139.599925">
        <time>2024-03-01T08:43:00+09:00</time>
      </trkpt>
      <trkpt lat="35.694665" lon="139.599398">
        <time>2024-03-01T08:44:00+09:00</time>
      </trkpt>
      <trkpt lat="35.695586" lon="139.598881">
        <time>2024-03-01T08:45:00+09:00</time>
      </trkpt>
      <trkpt lat="35.696235" lon="139.598146">
        <time>2024-03-01T08:46:00+09:00</time>
      </trkpt>
      <trkpt lat="35.697306" lon="139.597870">
        <time>2024-03-01T08:47:00+09:00</time>
      </trkpt>
      <trkpt lat="35.698394" lon="139.598100">
        <time>2024-03-01T08:48:00+09:00</time>
      </trkpt>
      <trkpt lat="35.699516" lon="139.598163">
        <time>2024-03-01T08:49:00+09:00</time>
      </trkpt>
      <trkpt lat="35.700639" lon="139.598217">
        <time>2024-03-01T08:50:00+09:00</time>
      </trkpt>
      <trkpt lat="35.701748" lon="139.598367">
        <time>2024-03-01T08:51:00+09:00</time>
      </trkpt>
      <trkpt lat="35.702828" lon="139.598620">
        <time>2024-03-01T08:52:00+09:00</time>
      </trkpt>
      <trkpt lat="35.703827" lon="139.598206">
        <time>2024-03-01T08:53:00+09:00</time>
      </trkpt>
      <trkpt lat="35.704815" lon="139.598635">
        <time>2024-03-01T08:54:00+09:00</time>
      </trkpt>
      <trkpt lat="35.704980" lon="139.599525">
        <time>2024-03-01T08:55:00+09:00</time>
      </trkpt>
      <trkpt lat="35.705061" lon="139.599900">
        <time>2024-03-01T08:56:00+09:00</time>
      </trkpt>
      <trkpt lat="35.706080" lon="139.599520">
        <time>2024-03-01T08:57:00+09:00</time>
      </trkpt>
      <trkpt lat="35.707119" lon="139.599867">
        <time>2024-03-01T08:58:00+09:00</time>
      </trkpt>
      <trkpt lat="35.708152" lon="139.599900">
        <time>2024-03-01T08:59:00+09:00</time>
      </trkpt>
      <trkpt lat="35.708207" lon="139.599001">
        <time>2024-03-01T09:00:00+09:00</time>
      </trkpt>
      <trkpt lat="35.709247" lon="139.598658">
        <time>2024-03-01T09:01:00+09:00</time>
      </trkpt>
      <trkpt lat="35.709900" lon="139.598038">
        <time>2024-03-01T09:02:00+09:00</time>
      </trkpt>
      <trkpt lat="35.708924" lon="139.597590">
        <time>2024-03-01T09:03:00+09:00</time>
      </trkpt>
      <trkpt lat="35.707850" lon="139.597322">
        <time>2024-03-01T09:04:00+09:00</time>
      </trkpt>
      <trkpt lat="35.706797" lon="139.597638">
        <time>2024-03-01T09:05:00+09:00</time>
      </trkpt>
      <trkpt lat="35.705942" lon="139.597053">
        <time>2024-03-01T09:06:00+09:00</time>
      </trkpt>
      <trkpt lat="35.705938" lon="139.596153">
        <time>2024-03-01T09:07:00+09:00</time>
      </trkpt>
      <trkpt lat="35.706303" lon="139.595302">
        <time>2024-03-01T09:08:00+09:00</time>
      </trkpt>
      <trkpt lat="35.707422" lon="139.595206">
        <time>2024-03-01T09:09:00+09:00</time>
      </trkpt>
      <trkpt lat="35.708537" lon="139.595084">
        <time>2024-03-01T09:10:00+09:00</time>
      </trkpt>
      <trkpt lat="35.709322" lon="139.594439">
        <time>2024-03-01T09:11:00+09:00</time>
      </trkpt>
      <trkpt lat="35.709900" lon="139.594196">
        <time>2024-03-01T09:12:00+09:00</time>
      </trkpt>
      <trkpt lat="35.708789" lon="139.594057">
        <time>2024-03-01T09:13:00+09:00</time>
      </trkpt>
      <trkpt lat="35.707746" lon="139.594395">
        <time>2024-03-01T09:14:00+09:00</time>
      </trkpt>
      <trkpt lat="35.706743" lon="139.594802">
        <time>2024-03-01T09:15:00+09:00</time>
      </trkpt>
      <trkpt lat="35.706636" lon="139.595698">
        <time>2024-03-01T09:16:00+09:00</time>
      </trkpt>
      <trkpt lat="35.706496" lon="139.596591">
        <time>2024-03-01T09:53:00+09:00</time>
      </trkpt>
      <trkpt lat="35.706363" lon="139.597485">
        <time>2024-03-01T09:54:00+09:00</time>
      </trkpt>
      <trkpt lat="35.707343" lon="139.597926">
        <time>2024-03-01T09:55:00+09:00</time>
      </trkpt>
      <trkpt lat="35.708378" lon="139.598279">
        <time>2024-03-01T09:56:00+09:00</time>
      </trkpt>
      <trkpt lat="35.708761" lon="139.599125">
        <time>2024-03-01T09:57:00+09:00</time>
      </trkpt>
      <trkpt lat="35.709826" lon="139.599415">
        <time>2024-03-01T09:58:00+09:00</time>
      </trkpt>
      <trkpt lat="35.709900" lon="139.598872">
        <time>2024-03-01T09:59:00+09:00</time>
      </trkpt>
      <trkpt lat="35.708918" lon="139.598433">
        <time>2024-03-01T10:00:00+09:00</time>
      </trkpt>
      <trkpt lat="35.707915" lon="139.598840">
        <time>2024-03-01T10:01:00+09:00</time>
      </trkpt>
      <trkpt lat="35.707533" lon="139.599686">
        <time>2024-03-01T10:02:00+09:00</time>
      </trkpt>
      <trkpt lat="35.707525" lon="139.599900">
        <time>2024-03-01T10:03:00+09:00</time>
      </trkpt>
      <trkpt lat="35.708205" lon="139.599183">
        <time>2024-03-01T10:04:00+09:00</time>
      </trkpt>
      <trkpt lat="35.708413" lon="139.598298">
        <time>2024-03-01T10:05:00+09:00</time>
      </trkpt>
      <trkpt lat="35.708805" lon="139.597454">
        <time>2024-03-01T10:06:00+09:00</time>
      </trkpt>
      <trkpt lat="35.709270" lon="139.596635">
        <time>2024-03-01T10:07:00+09:00</time>
      </trkpt>
      <trkpt lat="35.708858" lon="139.595798">
        <time>2024-03-01T10:08:00+09:00</time>
      </trkpt>
      <trkpt lat="35.708515" lon="139.594941">
        <time>2024-03-01T10:09:00+09:00</time>
      </trkpt>
      <trkpt lat="35.707436" lon="139.594686">
        <time>2024-03-01T10:10:00+09:00</time>
      </trkpt>
      <trkpt lat="35.706318" lon="139.594789">
        <time>2024-03-01T10:11:00+09:00</time>
      </trkpt>
      <trkpt lat="35.705431" lon="139.594235">
        <time>2024-03-01T10:12:00+09:00</time>
      </trkpt>
      <trkpt lat="35.704984" lon="139.593410">
        <time>2024-03-01T10:13:00+09:00</time>
      </trkpt>
      <trkpt lat="35.705457" lon="139.592593">
        <time>2024-03-01T10:14:00+09:00</time>
      </trkpt>
      <trkpt lat="35.704826" lon="139.591847">
        <time>2024-03-01T10:15:00+09:00</time>
      </trkpt>
      <trkpt lat="35.703752" lon="139.591581">
        <time>2024-03-01T10:16:00+09:00</time>
      </trkpt>
      <trkpt lat="35.702709" lon="139.591244">
        <time>2024-03-01T10:17:00+09:00</time>
      </trkpt>
      <trkpt lat="35.701634" lon="139.591511">
        <time>2024-03-01T10:18:00+09:00</time>
      </trkpt>
      <trkpt lat="35.701385" lon="139.592388">
        <time>2024-03-01T10:19:00+09:00</time>
      </trkpt>
      <trkpt lat="35.701374" lon="139.593288">
        <time>2024-03-01T10:20:00+09:00</time>
      </trkpt>
      <trkpt lat="35.700632" lon="139.593965">
        <time>2024-03-01T10:21:00+09:00</time>
      </trkpt>
      <trkpt lat="35.700764" lon="139.594858">
        <time>2024-03-01T10:22:00+09:00</time>
      </trkpt>
      <trkpt lat="35.700832" lon="139.595757">
        <time>2024-03-01T10:23:00+09:00</time>
      </trkpt>
      <trkpt lat="35.701621" lon="139.596399">
        <time>2024-03-01T10:24:00+09:00</time>
      </trkpt>
      <trkpt lat="35.701259" lon="139.597251">
        <time>2024-03-01T10:25:00+09:00</time>
      </trkpt>
      <trkpt lat="35.700425" lon="139.597855">
        <time>2024-03-01T10:26:00+09:00</time>
      </trkpt>
      <trkpt lat="35.699301" lon="139.597887">
        <time>2024-03-01T10:27:00+09:00</time>
      </trkpt>
      <trkpt lat="35.698375" lon="139.597376">
        <time>2024-03-01T10:28:00+09:00</time>
      </trkpt>
      <trkpt lat="35.698107" lon="139.596502">
        <time>2024-03-01T10:29:00+09:00</time>
      </trkpt>
      <trkpt lat="35.698412" lon="139.595636">
        <time>2024-03-01T10:30:00+09:00</time>
      </trkpt>
      <trkpt lat="35.698776" lon="139.594784">
        <time>2024-03-01T10:31:00+09:00</time>
      </trkpt>
      <trkpt lat="35.699754" lon="139.594340">
        <time>2024-03-01T10:32:00+09:00</time>
      </trkpt>
      <trkpt lat="35.700837" lon="139.594585">
        <time>2024-03-01T10:33:00+09:00</time>
      </trkpt>
      <trkpt lat="35.701961" lon="139.594561">
        <time>2024-03-01T10:34:00+09:00</time>
      </trkpt>
      <trkpt lat="35.702928" lon="139.595021">
        <time>2024-03-01T10:35:00+09:00</time>
      </trkpt>
      <trkpt lat="35.703980" lon="139.595341">
        <time>2024-03-01T10:36:00+09:00</time>
      </trkpt>
      <trkpt lat="35.704292" lon="139.596205">
        <time>2024-03-01T10:37:00+09:00</time>
      </trkpt>
      <trkpt lat="35.703733" lon="139.596986">
        <time>2024-03-01T10:38:00+09:00</time>
      </trkpt>
      <trkpt lat="35.704103" lon="139.597836">
        <time>2024-03-01T10:39:00+09:00</time>
      </trkpt>
      <trkpt lat="35.703323" lon="139.598485">
        <time>2024-03-01T10:40:00+09:00</time>
      </trkpt>
      <trkpt lat="35.702714" lon="139.599242">
        <time>2024-03-01T10:41:00+09:00</time>
      </trkpt>
      <trkpt lat="35.702369" lon="139.599900">
        <time>2024-03-01T10:42:00+09:00</time>
      </trkpt>
      <trkpt lat="35.702885" lon="139.599100">
        <time>2024-03-01T10:43:00+09:00</time>
      </trkpt>
      <trkpt lat="35.702347" lon="139.598310">
        <time>2024-03-01T10:44:00+09:00</time>
      </trkpt>
      <trkpt lat="35.702009" lon="139.597451">
        <time>2024-03-01T10:45:00+09:00</time>
      </trkpt>
      <trkpt lat="35.701328" lon="139.596735">
        <time>2024-03-01T10:46:00+09:00</time>
      </trkpt>
      <trkpt lat="35.701535" lon="139.595850">
        <time>2024-03-01T10:47:00+09:00</time>
      </trkpt>
      <trkpt lat="35.701130" lon="139.595010">
        <time>2024-03-01T10:48:00+09:00</time>
      </trkpt>
      <trkpt lat="35.701230" lon="139.594114">
        <time>2024-03-01T10:49:00+09:00</time>
      </trkpt>
      <trkpt lat="35.701066" lon="139.593224">
        <time>2024-03-01T10:50:00+09:00</time>
      </trkpt>
      <trkpt lat="35.701913" lon="139.592631">
        <time>2024-03-01T10:51:00+09:00</time>
      </trkpt>
      <trkpt lat="35.703029" lon="139.592517">
        <time>2024-03-01T10:52:00+09:00</time>
      </trkpt>
      <trkpt lat="35.704153" lon="139.592497">
        <time>2024-03-01T10:53:00+09:00</time>
      </trkpt>
      <trkpt lat="35.705028" lon="139.593063">
        <time>2024-03-01T10:54:00+09:00</time>
      </trkpt>
      <trkpt lat="35.706128" lon="139.593252">
        <time>2024-03-01T10:55:00+09:00</time>
      </trkpt>
      <trkpt lat="35.707131" lon="139.593659">
        <time>2024-03-01T10:56:00+09:00</time>
      </trkpt>
      <trkpt lat="35.707856" lon="139.594347">
        <time>2024-03-01T10:57:00+09:00</time>
      </trkpt>
      <trkpt lat="35.707439" lon="139.595183">
        <time>2024-03-01T10:58:00+09:00</time>
      </trkpt>
      <trkpt lat="35.708178" lon="139.595861">
        <time>2024-03-01T10:59:00+09:00</time>
      </trkpt>
      <trkpt lat="35.707990" lon="139.596748">
        <time>2024-03-01T11:00:00+09:00</time>
      </trkpt>
      <trkpt lat="35.708855" lon="139.597324">
        <time>2024-03-01T11:01:00+09:00</time>
      </trkpt>
      <trkpt lat="35.709951" lon="139.597119">
        <time>2024-03-01T11:02:00+09:00</time>
      </trkpt>
      <trkpt lat="35.709900" lon="139.596362">
        <time>2024-03-01T11:03:00+09:00</time>
      </trkpt>
      <trkpt lat="35.709088" lon="139.595739">
        <time>2024-03-01T11:04:00+09:00</time>
      </trkpt>
      <trkpt lat="35.709278" lon="139.594851">
        <time>2024-03-01T11:05:00+09:00</time>
      </trkpt>
      <trkpt lat="35.709176" lon="139.593955">
        <time>2024-03-01T11:06:00+09:00</time>
      </trkpt>
      <trkpt lat="35.709290" lon="139.593060">
        <time>2024-03-01T11:07:00+09:00</time>
      </trkpt>
      <trkpt lat="35.709900" lon="139.592747">
        <time>2024-03-01T11:08:00+09:00</time>
      </trkpt>
      <trkpt lat="35.709218" lon="139.592031">
        <time>2024-03-01T11:09:00+09:00</time>
      </trkpt>
      <trkpt lat="35.708103" lon="139.591910">
        <time>2024-03-01T11:10:00+09:00</time>
      </trkpt>
      <trkpt lat="35.707321" lon="139.591263">
        <time>2024-03-01T11:11:00+09:00</time>
      </trkpt>
      <trkpt lat="35.707212" lon="139.590367">
        <time>2024-03-01T11:12:00+09:00</time>
      </trkpt>
      <trkpt lat="35.706846" lon="139.589516">
        <time>2024-03-01T11:13:00+09:00</time>
      </trkpt>
      <trkpt lat="35.707714" lon="139.588943">
        <time>2024-03-01T11:14:00+09:00</time>
      </trkpt>
      <trkpt lat="35.708210" lon="139.588135">
        <time>2024-03-01T11:15:00+09:00</time>
      </trkpt>
      <trkpt lat="35.707637" lon="139.587360">
        <time>2024-03-01T11:16:00+09:00</time>
      </trkpt>
      <trkpt lat="35.706662" lon="139.586912">
        <time>2024-03-01T11:17:00+09:00</time>
      </trkpt>
      <trkpt lat="35.706320" lon="139.586055">
        <time>2024-03-01T11:18:00+09:00</time>
      </trkpt>
      <trkpt lat="35.705602" lon="139.585362">
        <time>2024-03-01T11:19:00+09:00</time>
      </trkpt>
      <trkpt lat="35.705097" lon="139.584558">
        <time>2024-03-01T11:20:00+09:00</time>
      </trkpt>
      <trkpt lat="35.705609" lon="139.583757">
        <time>2024-03-01T11:21:00+09:00</time>
      </trkpt>
      <trkpt lat="35.706700" lon="139.583537">
        <time>2024-03-01T11:22:00+09:00</time>
      </trkpt>
      <trkpt lat="35.707536" lon="139.582935">
        <time>2024-03-01T11:23:00+09:00</time>
      </trkpt>
      <trkpt lat="35.707874" lon="139.582077">
        <time>2024-03-01T11:24:00+09:00</time>
      </trkpt>
      <trkpt lat="35.708981" lon="139.581915">
        <time>2024-03-01T11:25:00+09:00</time>
      </trkpt>
      <trkpt lat="35.709900" lon="139.581538">
        <time>2024-03-01T11:26:00+09:00</time>
      </trkpt>
      <trkpt lat="35.708986" lon="139.581013">
        <time>2024-03-01T11:27:00+09:00</time>
      </trkpt>
      <trkpt lat="35.707862" lon="139.581044">
        <time>2024-03-01T11:28:00+09:00</time>
      </trkpt>
      <trkpt lat="35.706859" lon="139.581453">
        <time>2024-03-01T11:29:00+09:00</time>
      </trkpt>
      <trkpt lat="35.705741" lon="139.581553">
        <time>2024-03-01T11:30:00+09:00</time>
      </trkpt>
      <trkpt lat="35.704616" lon="139.581546">
        <time>2024-03-01T11:31:00+09:00</time>
      </trkpt>
      <trkpt lat="35.703828" lon="139.582187">
        <time>2024-03-01T11:32:00+09:00</time>
      </trkpt>
      <trkpt lat="35.702878" lon="139.582671">
        <time>2024-03-01T11:33:00+09:00</time>
      </trkpt>
      <trkpt lat="35.701863" lon="139.583059">
        <time>2024-03-01T11:34:00+09:00</time>
      </trkpt>
      <trkpt lat="35.700946" lon="139.582537">
        <time>2024-03-01T11:35:00+09:00</time>
      </trkpt>
      <trkpt lat="35.699993" lon="139.582059">
        <time>2024-03-01T11:36:00+09:00</time>
      </trkpt>
      <trkpt lat="35.700030" lon="139.581160">
        <time>2024-03-01T11:37:00+09:00</time>
      </trkpt>
      <trkpt lat="35.699019" lon="139.580765">
        <time>2024-03-01T11:38:00+09:00</time>
      </trkpt>
      <trkpt lat="35.697901" lon="139.580862">
        <time>2024-03-01T11:39:00+09:00</time>
      </trkpt>
    </trkseg>
  </trk>
</gpx>
