<?xml version="1.0" encoding="UTF-8"?>
<gpx version="1.1" creator="trajectory-viz demo" xmlns="http://www.topografix.com/GPX/1/1">
  <trk>
    <name>courier-08</name>
    <trkseg>
      <trkpt lat="35.691118" lon="139.595752">
        <time>2024-02-29T21:50:00Z</time>
      </trkpt>
      <trkpt lat="35.690501" lon="139.596505">
        <time>2024-02-29T21:50:45Z</time>
      </trkpt>
      <trkpt lat="35.690100" lon="139.596604">
        <time>2024-02-29T21:51:30Z</time>
      </trkpt>
      <trkpt lat="35.691169" lon="139.596885">
        <time>2024-02-29T21:52:15Z</time>
      </trkpt>
      <trkpt lat="35.692265" lon="139.596681">
        <time>2024-02-29T21:53:00Z</time>
      </trkpt>
      <trkpt lat="35.693378" lon="139.596552">
        <time>2024-02-29T21:53:45Z</time>
      </trkpt>
      <trkpt lat="35.694450" lon="139.596826">
        <time>2024-02-29T21:54:30Z</time>
      </trkpt>
      <trkpt lat="35.695191" lon="139.597503">
        <time>2024-02-29T21:55:15Z</time>
      </trkpt>
      <trkpt lat="35.696171" lon="139.597945">
        <time>2024-02-29T21:56:00Z</time>
      </trkpt>
      <trkpt lat="35.697294" lon="139.597899">
        <time>2024-02-29T21:56:45Z</time>
      </trkpt>
      <trkpt lat="35.697934" lon="139.597159">
        <time>2024-02-29T21:57:30Z</time>
      </trkpt>
      <trkpt lat="35.698964" lon="139.596796">
        <time>2024-02-29T21:58:15Z</time>
      </trkpt>
      <trkpt lat="35.699497" lon="139.596004">
        <time>2024-02-29T21:59:00Z</time>
      </trkpt>
      <trkpt lat="35.698814" lon="139.595288">
        <time>2024-02-29T21:59:45Z</time>
      </trkpt>
      <trkpt lat="35.699064" lon="139.594411">
        <time>2024-02-29T22:00:30Z</time>
      </trkpt>
      <trkpt lat="35.699420" lon="139.593557">
        <time>2024-02-29T22:01:15Z</time>
      </trkpt>
      <trkpt lat="35.699465" lon="139.592658">
        <time>2024-02-29T22:02:00Z</time>
      </trkpt>
      <trkpt lat="35.700256" lon="139.592018">
        <time>2024-02-29T22:02:45Z</time>
      </trkpt>
      <trkpt lat="35.699996" lon="139.591143">
        <time>2024-02-29T22:03:30Z</time>
      </trkpt>
      <trkpt lat="35.700170" lon="139.590253">
        <time>2024-02-29T22:04:15Z</time>
      </trkpt>
      <trkpt lat="35.700599" lon="139.589421">
        <time>2024-02-29T22:05:00Z</time>
      </trkpt>
      <trkpt lat="35.700037" lon="139.588642">
        <time>2024-02-29T22:05:45Z</time>
      </trkpt>
      <trkpt lat="35.699001" lon="139.588291">
        <time>2024-02-29T22:06:30Z</time>
      </trkpt>
      <trkpt lat="35.697999" lon="139.587882">
        <time>2024-02-29T22:07:15Z</time>
      </trkpt>
      <trkpt lat="35.697243" lon="139.587215">
        <time>2024-02-29T22:08:00Z</time>
      </trkpt>
      <trkpt lat="35.697589" lon="139.586359">
        <time>2024-02-29T22:08:45Z</time>
      </trkpt>
      <trkpt lat="35.698613" lon="139.585987">
        <time>2024-02-29T22:09:30Z</time>
      </trkpt>
      <trkpt lat="35.699106" lon="139.585177">
        <time>2024-02-29T22:10:15Z</time>
      </trkpt>
      <trkpt lat="35.700113" lon="139.584777">
        <time>2024-02-29T22:11:00Z</time>
      </trkpt>
      <trkpt lat="35.700045" lon="139.583879">
        <time>2024-02-29T22:11:45Z</time>
      </trkpt>
      <trkpt lat="35.701001" lon="139.583404">
        <time>2024-02-29T22:12:30Z</time>
      </trkpt>
      <trkpt lat="35.701729" lon="139.582717">
        <time>2024-02-29T22:13:15Z</time>
      </trkpt>
      <trkpt lat="35.702121" lon="139.581874">
        <time>2024-02-29T22:14:00Z</time>
      </trkpt>
      <trkpt lat="35.703016" lon="139.581329">
        <time>2024-02-29T22:14:45Z</time>
      </trkpt>
      <trkpt lat="35.704098" lon="139.581576">
        <time>2024-02-29T22:15:30Z</time>
      </trkpt>
      <trkpt lat="35.704969" lon="139.582146">
        <time>2024-02-29T22:16:15Z</time>
      </trkpt>
      <trkpt lat="35.706053" lon="139.582386">
        <time>2024-02-29T22:17:00Z</time>
      </trkpt>
      <trkpt lat="35.707175" lon="139.582323">
        <time>2024-02-29T22:17:45Z</time>
      </trkpt>
      <trkpt lat="35.708181" lon="139.581920">
        <time>2024-02-29T22:18:30Z</time>
      </trkpt>
      <trkpt lat="35.709305" lon="139.581878">
        <time>2024-02-29T22:19:15Z</time>
      </trkpt>
      <trkpt lat="35.709900" lon="139.582254">
        <time>2024-02-29T22:20:00Z</time>
      </trkpt>
      <trkpt lat="35.708835" lon="139.581964">
        <time>2024-02-29T22:20:45Z</time>
      </trkpt>
      <trkpt lat="35.708490" lon="139.581107">
        <time>2024-02-29T22:21:30Z</time>
      </trkpt>
      <trkpt lat="35.708130" lon="139.580255">
        <time>2024-02-29T22:22:15Z</time>
      </trkpt>
      <trkpt lat="35.707285" lon="139.579661">
        <time>2024-02-29T22:23:00Z</time>
      </trkpt>
      <trkpt lat="35.707113" lon="139.578772">
        <time>2024-02-29T22:23:45Z</time>
      </trkpt>
      <trkpt lat="35.706291" lon="139.578157">
        <time>2024-02-29T22:24:30Z</time>
      </trkpt>
      <trkpt lat="35.706054" lon="139.577277">
        <time>2024-02-29T22:25:15Z</time>
      </trkpt>
      <trkpt lat="35.706552" lon="139.576470">
        <time>2024-02-29T22:26:00Z</time>
      </trkpt>
      <trkpt lat="35.707673" lon="139.576546">
        <time>2024-02-29T22:26:45Z</time>
      </trkpt>
      <trkpt lat="35.708775" lon="139.576366">
        <time>2024-02-29T22:27:30Z</time>
      </trkpt>
      <trkpt lat="35.709381" lon="139.577125">
        <time>2024-02-29T22:28:15Z</time>
      </trkpt>
      <trkpt lat="35.709128" lon="139.578002">
        <time>2024-02-29T22:29:00Z</time>
      </trkpt>
      <trkpt lat="35.708906" lon="139.578884">
        <time>2024-02-29T22:29:45Z</time>
      </trkpt>
      <trkpt lat="35.709516" lon="139.579640">
        <time>2024-02-29T22:30:30Z</time>
      </trkpt>
      <trkpt lat="35.709938" lon="139.580474">
        <time>2024-02-29T22:31:15Z</time>
      </trkpt>
      <trkpt lat="35.709900" lon="139.580600">
        <time>2024-02-29T22:32:00Z</time>
      </trkpt>
      <trkpt lat="35.708824" lon="139.580862">
        <time>2024-02-29T22:32:45Z</time>
      </trkpt>
      <trkpt lat="35.707702" lon="139.580931">
        <time>2024-02-29T22:33:30Z</time>
      </trkpt>
      <trkpt lat="35.706698" lon="139.580525">
        <time>2024-02-29T22:34:15Z</time>
      </trkpt>
      <trkpt lat="35.705725" lon="139.580977">
        <time>2024-02-29T22:35:00Z</time>
      </trkpt>
      <trkpt lat="35.704703" lon="139.580601">
        <time>2024-02-29T22:35:45Z</time>
      </trkpt>
      <trkpt lat="35.703833" lon="139.580031">
        <time>2024-02-29T22:36:30Z</time>
      </trkpt>
      <trkpt lat="35.702940" lon="139.579483">
        <time>2024-02-29T22:37:15Z</time>
      </trkpt>
      <trkpt lat="35.701867" lon="139.579214">
        <time>2024-02-29T22:38:00Z</time>
      </trkpt>
      <trkpt lat="35.701378" lon="139.578403">
        <time>2024-02-29T22:38:45Z</time>
      </trkpt>
      <trkpt lat="35.700441" lon="139.577905">
        <time>2024-02-29T22:39:30Z</time>
      </trkpt>
      <trkpt lat="35.699480" lon="139.578372">
        <time>2024-02-29T22:40:15Z</time>
      </trkpt>
      <trkpt lat="35.698596" lon="139.578930">
        <time>2024-02-29T22:41:00Z</time>
      </trkpt>
      <trkpt lat="35.698478" lon="139.579825">
        <time>2024-02-29T22:41:45Z</time>
      </trkpt>
      <trkpt lat="35.698816" lon="139.580683">
        <time>2024-02-29T22:42:30Z</time>
      </trkpt>
      <trkpt lat="35.699142" lon="139.581545">
        <time>2024-02-29T22:43:15Z</time>
      </trkpt>
      <trkpt lat="35.698530" lon="139.582300">
        <time>2024-02-29T22:44:00Z</time>
      </trkpt>
      <trkpt lat="35.698740" lon="139.583184">
        <time>2024-02-29T22:44:45Z</time>
      </trkpt>
      <trkpt lat="35.699072" lon="139.584044">
        <time>2024-02-29T22:45:30Z</time>
      </trkpt>
      <trkpt lat="35.699397" lon="139.584906">
        <time>2024-02-29T22:46:15Z</time>
      </trkpt>
      <trkpt lat="35.700420" lon="139.585280">
        <time>2024-02-29T22:47:00Z</time>
      </trkpt>
      <trkpt lat="35.700798" lon="139.586128">
        <time>2024-02-29T22:47:45Z</time>
      </trkpt>
      <trkpt lat="35.701902" lon="139.586301">
        <time>2024-02-29T22:48:30Z</time>
      </trkpt>
      <trkpt lat="35.702862" lon="139.586769">
        <time>2024-02-29T22:49:15Z</time>
      </trkpt>
      <trkpt lat="35.702835" lon="139.587669">
        <time>2024-02-29T22:50:00Z</time>
      </trkpt>
      <trkpt lat="35.702333" lon="139.588474">
        <time>2024-02-29T22:50:45Z</time>
      </trkpt>
      <trkpt lat="35.701216" lon="139.588580">
        <time>2024-02-29T22:51:30Z</time>
      </trkpt>
      <trkpt lat="35.700426" lon="139.587939">
        <time>2024-02-29T22:52:15Z</time>
      </trkpt>
      <trkpt lat="35.700280" lon="139.587047">
        <time>2024-02-29T22:53:00Z</time>
      </trkpt>
      <trkpt lat="35.699567" lon="139.586351">
        <time>2024-02-29T22:53:45Z</time>
      </trkpt>
      <trkpt lat="35.698552" lon="139.585961">
        <time>2024-02-29T22:54:30Z</time>
      </trkpt>
      <trkpt lat="35.697551" lon="139.585551">
        <time>2024-02-29T22:55:15Z</time>
      </trkpt>
      <trkpt lat="35.697457" lon="139.584654">
        <time>2024-02-29T22:56:00Z</time>
      </trkpt>
      <trkpt lat="35.697999" lon="139.583866">
        <time>2024-02-29T22:56:45Z</time>
      </trkpt>
      <trkpt lat="35.698312" lon="139.583001">
        <time>2024-02-29T22:57:30Z</time>
      </trkpt>
      <trkpt lat="35.697729" lon="139.582231">
        <time>2024-02-29T22:58:15Z</time>
      </trkpt>
      <trkpt lat="35.696994" lon="139.581550">
        <time>2024-02-29T22:59:00Z</time>
      </trkpt>
      <trkpt lat="35.696659" lon="139.580691">
        <time>2024-02-29T22:59:45Z</time>
      </trkpt>
      <trkpt lat="35.695809" lon="139.580102">
        <time>2024-02-29T23:00:30Z</time>
      </trkpt>
      <trkpt lat="35.695946" lon="139.579208">
        <time>2024-02-29T23:01:15Z</time>
      </trkpt>
      <trkpt lat="35.696923" lon="139.578761">
        <time>2024-02-29T23:02:00Z</time>
      </trkpt>
      <trkpt lat="35.697805" lon="139.578202">
        <time>2024-02-29T23:02:45Z</time>
      </trkpt>
      <trkpt lat="35.697556" lon="139.577325">
        <time>2024-02-29T23:03:30Z</time>
      </trkpt>
      <trkpt lat="35.697461" lon="139.576428">
        <time>2024-02-29T23:04:15Z</time>
      </trkpt>
      <trkpt lat="35.696457" lon="139.576023">
        <time>2024-02-29T23:05:00Z</time>
      </trkpt>
      <trkpt lat="35.695336" lon="139.575942">
        <time>2024-02-29T23:05:45Z</time>
      </trkpt>
      <trkpt lat="35.694218" lon="139.576040">
        <time>2024-02-29T23:06:30Z</time>
      </trkpt>
      <trkpt lat="35.693583" lon="139.575297">
        <time>2024-02-29T23:07:15Z</time>
      </trkpt>
      <trkpt lat="35.693630" lon="139.574398">
        <time>2024-02-29T23:08:00Z</time>
      </trkpt>
      <trkpt lat="35.694471" lon="139.573800">
        <time>2024-02-29T23:08:45Z</time>
      </trkpt>
      <trkpt lat="35.695554" lon="139.573557">
        <time>2024-02-29T23:09:30Z</time>
      </trkpt>
      <trkpt lat="35.696603" lon="139.573882">
        <time>2024-02-29T23:10:15Z</time>
      </trkpt>
      <trkpt lat="35.697705" lon="139.573700">
        <time>2024-02-29T23:11:00Z</time>
      </trkpt>
      <trkpt lat="35.698484" lon="139.574349">
        <time>2024-02-29T23:11:45Z</time>
      </trkpt>
      <trkpt lat="35.699555" lon="139.574074">
        <time>2024-02-29T23:12:30Z</time>
      </trkpt>
      <trkpt lat="35.698437" lon="139.573974">
        <time>2024-02-29T23:54:15Z</time>
      </trkpt>
      <trkpt lat="35.698093" lon="139.573117">
        <time>2024-02-29T23:55:00Z</time>
      </trkpt>
      <trkpt lat="35.698590" lon="139.572309">
        <time>2024-02-29T23:55:45Z</time>
      </trkpt>
      <trkpt lat="35.698909" lon="139.571446">
        <time>2024-02-29T23:56:30Z</time>
      </trkpt>
      <trkpt lat="35.698712" lon="139.570560">
        <time>2024-02-29T23:57:15Z</time>
      </trkpt>
      <trkpt lat="35.698647" lon="139.569661">
        <time>2024-02-29T23:58:00Z</time>
      </trkpt>
      <trkpt lat="35.697956" lon="139.568951">
        <time>2024-02-29T23:58:45Z</time>
      </trkpt>
      <trkpt lat="35.698429" lon="139.568134">
        <time>2024-02-29T23:59:30Z</time>
      </trkpt>
      <trkpt lat="35.699185" lon="139.567468">
        <time>2024-03-01T00:00:15Z</time>
      </trkpt>
      <trkpt lat="35.700275" lon="139.567689">
        <time>2024-03-01T00:01:00Z</time>
      </trkpt>
      <trkpt lat="35.700892" lon="139.568442">
        <time>2024-03-01T00:01:45Z</time>
      </trkpt>
      <trkpt lat="35.701992" lon="139.568255">
        <time>2024-03-01T00:02:30Z</time>
      </trkpt>
      <trkpt lat="35.702174" lon="139.567366">
        <time>2024-03-01T00:03:15Z</time>
      </trkpt>
      <trkpt lat="35.703192" lon="139.566984">
        <time>2024-03-01T00:04:00Z</time>
      </trkpt>
      <trkpt lat="35.703166" lon="139.566084">
        <time>2024-03-01T00:04:45Z</time>
      </trkpt>
      <trkpt lat="35.704186" lon="139.565704">
        <time>2024-03-01T00:05:30Z</time>
      </trkpt>
      <trkpt lat="35.705262" lon="139.565443">
        <time>2024-03-01T00:06:15Z</time>
      </trkpt>
      <trkpt lat="35.705413" lon="139.564551">
        <time>2024-03-01T00:07:00Z</time>
      </trkpt>
      <trkpt lat="35.705370" lon="139.563652">
        <time>2024-03-01T00:07:45Z</time>
      </trkpt>
      <trkpt lat="35.704574" lon="139.563016">
        <time>2024-03-01T00:08:30Z</time>
      </trkpt>
      <trkpt lat="35.704243" lon="139.562156">
        <time>2024-03-01T00:09:15Z</time>
      </trkpt>
      <trkpt lat="35.704910" lon="139.561431">
        <time>2024-03-01T00:10:00Z</time>
      </trkpt>
      <trkpt lat="35.704337" lon="139.560657">
        <time>2024-03-01T00:10:45Z</time>
      </trkpt>
      <trkpt lat="35.703221" lon="139.560544">
        <time>2024-03-01T00:11:30Z</time>
      </trkpt>
      <trkpt lat="35.702578" lon="139.559805">
        <time>2024-03-01T00:12:15Z</time>
      </trkpt>
      <trkpt lat="35.702839" lon="139.558930">
        <time>2024-03-01T00:13:00Z</time>
      </trkpt>
      <trkpt lat="35.703947" lon="139.558776">
        <time>2024-03-01T00:13:45Z</time>
      </trkpt>
      <trkpt lat="35.704222" lon="139.557903">
        <time>2024-03-01T00:14:30Z</time>
      </trkpt>
      <trkpt lat="35.704516" lon="139.557035">
        <time>2024-03-01T00:15:15Z</time>
      </trkpt>
      <trkpt lat="35.703675" lon="139.556437">
        <time>2024-03-01T00:16:00Z</time>
      </trkpt>
      <trkpt lat="35.703862" lon="139.555550">
        <time>2024-03-01T00:16:45Z</time>
      </trkpt>
      <trkpt lat="35.703860" lon="139.554650">
        <time>2024-03-01T00:17:30Z</time>
      </trkpt>
      <trkpt lat="35.704830" lon="139.554195">
        <time>2024-03-01T00:18:15Z</time>
      </trkpt>
      <trkpt lat="35.705452" lon="139.553445">
        <time>2024-03-01T00:19:00Z</time>
      </trkpt>
      <trkpt lat="35.705061" lon="139.552601">
        <time>2024-03-01T00:19:45Z</time>
      </trkpt>
      <trkpt lat="35.704404" lon="139.551870">
        <time>2024-03-01T00:20:30Z</time>
      </trkpt>
      <trkpt lat="35.703481" lon="139.551356">
        <time>2024-03-01T00:21:15Z</time>
      </trkpt>
      <trkpt lat="35.702395" lon="139.551122">
        <time>2024-03-01T00:22:00Z</time>
      </trkpt>
      <trkpt lat="35.701272" lon="139.551181">
        <time>2024-03-01T00:22:45Z</time>
      </trkpt>
      <trkpt lat="35.700615" lon="139.550451">
        <time>2024-03-01T00:23:30Z</time>
      </trkpt>
      <trkpt lat="35.700241" lon="139.550100">
        <time>2024-03-01T00:24:15Z</time>
      </trkpt>
      <trkpt lat="35.699738" lon="139.550905">
        <time>2024-03-01T00:25:00Z</time>
      </trkpt>
      <trkpt lat="35.700383" lon="139.551643">
        <time>2024-03-01T00:25:45Z</time>
      </trkpt>
      <trkpt lat="35.701493" lon="139.551501">
        <time>2024-03-01T00:26:30Z</time>
      </trkpt>
      <trkpt lat="35.702294" lon="139.552134">
        <time>2024-03-01T00:27:15Z</time>
      </trkpt>
      <trkpt lat="35.702815" lon="139.552931">
        <time>2024-03-01T00:28:00Z</time>
      </trkpt>
      <trkpt lat="35.703254" lon="139.553760">
        <time>2024-03-01T00:28:45Z</time>
      </trkpt>
      <trkpt lat="35.703785" lon="139.554553">
        <time>2024-03-01T00:29:30Z</time>
      </trkpt>
      <trkpt lat="35.704392" lon="139.555311">
        <time>2024-03-01T00:30:15Z</time>
      </trkpt>
      <trkpt lat="35.704896" lon="139.556116">
        <time>2024-03-01T00:31:00Z</time>
      </trkpt>
      <trkpt lat="35.704126" lon="139.556772">
        <time>2024-03-01T00:31:45Z</time>
      </trkpt>
      <trkpt lat="35.704253" lon="139.557666">
        <time>2024-03-01T00:32:30Z</time>
      </trkpt>
      <trkpt lat="35.705145" lon="139.558215">
        <time>2024-03-01T00:33:15Z</time>
      </trkpt>
      <trkpt lat="35.706075" lon="139.558721">
        <time>2024-03-01T00:34:00Z</time>
      </trkpt>
      <trkpt lat="35.706631" lon="139.559504">
        <time>2024-03-01T00:34:45Z</time>
      </trkpt>
      <trkpt lat="35.706198" lon="139.560334">
        <time>2024-03-01T00:35:30Z</time>
      </trkpt>
      <trkpt lat="35.706920" lon="139.561024">
        <time>2024-03-01T00:36:15Z</time>
      </trkpt>
      <trkpt lat="35.706647" lon="139.561897">
        <time>2024-03-01T00:37:00Z</time>
      </trkpt>
      <trkpt lat="35.706006" lon="139.562637">
        <time>2024-03-01T00:37:45Z</time>
      </trkpt>
      <trkpt lat="35.706376" lon="139.563487">
        <time>2024-03-01T00:38:30Z</time>
      </trkpt>
      <trkpt lat="35.707501" lon="139.563521">
        <time>2024-03-01T00:39:15Z</time>
      </trkpt>
      <trkpt lat="35.708617" lon="139.563633">
        <time>2024-03-01T00:40:00Z</time>
      </trkpt>
      <trkpt lat="35.709553" lon="139.564133">
        <time>2024-03-01T00:40:45Z</time>
      </trkpt>
      <trkpt lat="35.709900" lon="139.563952">
        <time>2024-03-01T00:41:30Z</time>
      </trkpt>
      <trkpt lat="35.709210" lon="139.564663">
        <time>2024-03-01T00:42:15Z</time>
      </trkpt>
      <trkpt lat="35.709530" lon="139.565526">
        <time>2024-03-01T00:43:00Z</time>
      </trkpt>
      <trkpt lat="35.709058" lon="139.566343">
        <time>2024-03-01T00:43:45Z</time>
      </trkpt>
      <trkpt lat="35.708512" lon="139.567130">
        <time>2024-03-01T00:44:30Z</time>
      </trkpt>
      <trkpt lat="35.707389" lon="139.567075">
        <time>2024-03-01T00:45:15Z</time>
      </trkpt>
      <trkpt lat="35.706708" lon="139.566359">
        <time>2024-03-01T00:46:00Z</time>
      </trkpt>
      <trkpt lat="35.705643" lon="139.566067">
        <time>2024-03-01T00:46:45Z</time>
      </trkpt>
      <trkpt lat="35.704844" lon="139.565434">
        <time>2024-03-01T00:47:30Z</time>
      </trkpt>
      <trkpt lat="35.705062" lon="139.564551">
        <time>2024-03-01T00:48:15Z</time>
      </trkpt>
      <trkpt lat="35.706078" lon="139.564164">
        <time>2024-03-01T00:49:00Z</time>
      </trkpt>
      <trkpt lat="35.706627" lon="139.563379">
        <time>2024-03-01T00:49:45Z</time>
      </trkpt>
      <trkpt lat="35.706812" lon="139.562491">
        <time>2024-03-01T00:50:30Z</time>
      </trkpt>
      <trkpt lat="35.707914" lon="139.562312">
        <time>2024-03-01T00:51:15Z</time>
      </trkpt>
      <trkpt lat="35.708278" lon="139.561460">
        <time>2024-03-01T00:52:00Z</time>
      </trkpt>
      <trkpt lat="35.707941" lon="139.560602">
        <time>2024-03-01T00:52:45Z</time>
      </trkpt>
      <trkpt lat="35.707973" lon="139.559702">
        <time>2024-03-01T00:53:30Z</time>
      </trkpt>
      <trkpt lat="35.708414" lon="139.558874">
        <time>2024-03-01T00:54:15Z</time>
      </trkpt>
      <trkpt lat="35.709471" lon="139.558565">
        <time>2024-03-01T00:55:00Z</time>
      </trkpt>
      <trkpt lat="35.709900" lon="139.558816">
        <time>2024-03-01T00:55:45Z</time>
      </trkpt>
      <trkpt lat="35.709425" lon="139.559632">
        <time>2024-03-01T00:56:30Z</time>
      </trkpt>
      <trkpt lat="35.708623" lon="139.560263">
        <time>2024-03-01T00:57:15Z</time>
      </trkpt>
      <trkpt lat="35.707502" lon="139.560194">
        <time>2024-03-01T00:58:00Z</time>
      </trkpt>
      <trkpt lat="35.706377" lon="139.560210">
        <time>2024-03-01T00:58:45Z</time>
      </trkpt>
      <trkpt lat="35.705254" lon="139.560266">
        <time>2024-03-01T00:59:30Z</time>
      </trkpt>
      <trkpt lat="35.704136" lon="139.560167">
        <time>2024-03-01T01:00:15Z</time>
      </trkpt>
      <trkpt lat="35.703034" lon="139.560350">
        <time>2024-03-01T01:01:00Z</time>
      </trkpt>
      <trkpt lat="35.702020" lon="139.560740">
        <time>2024-03-01T01:01:45Z</time>
      </trkpt>
      <trkpt lat="35.700916" lon="139.560568">
        <time>2024-03-01T01:02:30Z</time>
      </trkpt>
      <trkpt lat="35.699890" lon="139.560939">
        <time>2024-03-01T01:03:15Z</time>
      </trkpt>
      <trkpt lat="35.698891" lon="139.560525">
        <time>2024-03-01T01:04:00Z</time>
      </trkpt>
      <trkpt lat="35.698821" lon="139.559627">
        <time>2024-03-01T01:04:45Z</time>
      </trkpt>
      <trkpt lat="35.699389" lon="139.558850">
        <time>2024-03-01T01:05:30Z</time>
      </trkpt>
      <trkpt lat="35.699773" lon="139.558004">
        <time>2024-03-01T01:06:15Z</time>
      </trkpt>
      <trkpt lat="35.700204" lon="139.557173">
        <time>2024-03-01T01:07:00Z</time>
      </trkpt>
      <trkpt lat="35.700179" lon="139.556273">
        <time>2024-03-01T01:07:45Z</time>
      </trkpt>
      <trkpt lat="35.700147" lon="139.555373">
        <time>2024-03-01T01:08:30Z</time>
      </trkpt>
      <trkpt lat="35.699577" lon="139.554598">
        <time>2024-03-01T01:09:15Z</time>
      </trkpt>
      <trkpt lat="35.699803" lon="139.553716">
        <time>2024-03-01T01:10:00Z</time>
      </trkpt>
      <trkpt lat="35.699668" lon="139.552823">
        <time>2024-03-01T01:10:45Z</time>
      </trkpt>
      <trkpt lat="35.699082" lon="139.552054">
        <time>2024-03-01T01:11:30Z</time>
      </trkpt>
      <trkpt lat="35.697962" lon="139.552141">
        <time>2024-03-01T01:12:15Z</time>
      </trkpt>
      <trkpt lat="35.696935" lon="139.551773">
        <time>2024-03-01T01:13:00Z</time>
      </trkpt>
      <trkpt lat="35.696942" lon="139.550873">
        <time>2024-03-01T01:13:45Z</time>
      </trkpt>
      <trkpt lat="35.696733" lon="139.550100">
        <time>2024-03-01T01:14:30Z</time>
      </trkpt>
      <trkpt lat="35.697499" lon="139.550759">
        <time>2024-03-01T01:15:15Z</time>
      </trkpt>
      <trkpt lat="35.698256" lon="139.551425">
        <time>2024-03-01T01:16:00Z</time>
      </trkpt>
      <trkpt lat="35.699339" lon="139.551182">
        <time>2024-03-01T01:16:45Z</time>
      </trkpt>
      <trkpt lat="35.700138" lon="139.550549">
        <time>2024-03-01T01:17:30Z</time>
      </trkpt>
      <trkpt lat="35.700815" lon="139.550100">
        <time>2024-03-01T01:18:15Z</time>
      </trkpt>
      <trkpt lat="35.701900" lon="139.550100">
        <time>2024-03-01T01:19:00Z</time>
      </trkpt>
      <trkpt lat="35.702973" lon="139.550369">
        <time>2024-03-01T01:19:45Z</time>
      </trkpt>
      <trkpt lat="35.703933" lon="139.550838">
        <time>2024-03-01T01:20:30Z</time>
      </trkpt>
      <trkpt lat="35.705032" lon="139.550645">
        <time>2024-03-01T01:21:15Z</time>
      </trkpt>
      <trkpt lat="35.705959" lon="139.551155">
        <time>2024-03-01T01:22:00Z</time>
      </trkpt>
      <trkpt lat="35.706673" lon="139.551851">
        <time>2024-03-01T01:22:45Z</time>
      </trkpt>
      <trkpt lat="35.707797" lon="139.551891">
        <time>2024-03-01T01:23:30Z</time>
      </trkpt>
      <trkpt lat="35.708764" lon="139.552351">
        <time>2024-03-01T01:24:15Z</time>
      </trkpt>
      <trkpt lat="35.709548" lon="139.552996">
        <time>2024-03-01T01:25:00Z</time>
      </trkpt>
      <trkpt lat="35.709900" lon="139.553767">
        <time>2024-03-01T01:25:45Z</time>
      </trkpt>
      <trkpt lat="35.708775" lon="139.553765">
        <time>2024-03-01T01:26:30Z</time>
      </trkpt>
      <trkpt lat="35.708255" lon="139.554564">
        <time>2024-03-01T01:27:15Z</time>
      </trkpt>
      <trkpt lat="35.707130" lon="139.554567">
        <time>2024-03-01T01:28:00Z</time>
      </trkpt>
      <trkpt lat="35.706283" lon="139.553975">
        <time>2024-03-01T01:28:45Z</time>
      </trkpt>
    </trkseg>
  </trk>
</gpx>
