<?xml version="1.0" encoding="UTF-8"?>
<gpx version="1.1" creator="trajectory-viz demo" xmlns="http://www.topografix.com/GPX/1/1">
  <trk>
    <name>courier-10</name>
    <trkseg>
      <trkpt lat="35.707984" lon="139.587286">
        <time>2024-02-29T22:56:00Z</time>
      </trkpt>
      <trkpt lat="35.706923" lon="139.586987">
        <time>2024-02-29T22:56:50Z</time>
      </trkpt>
      <trkpt lat="35.706008" lon="139.587510">
        <time>2024-02-29T22:57:40Z</time>
      </trkpt>
      <trkpt lat="35.705050" lon="139.587037">
        <time>2024-02-29T22:58:30Z</time>
      </trkpt>
      <trkpt lat="35.703967" lon="139.586793">
        <time>2024-02-29T22:59:20Z</time>
      </trkpt>
      <trkpt lat="35.702867" lon="139.586606">
        <time>2024-02-29T23:00:10Z</time>
      </trkpt>
      <trkpt lat="35.701809" lon="139.586299">
        <time>2024-02-29T23:01:00Z</time>
      </trkpt>
      <trkpt lat="35.700887" lon="139.585783">
        <time>2024-02-29T23:01:50Z</time>
      </trkpt>
      <trkpt lat="35.699817" lon="139.586060">
        <time>2024-02-29T23:02:40Z</time>
      </trkpt>
      <trkpt lat="35.698812" lon="139.585655">
        <time>2024-02-29T23:03:30Z</time>
      </trkpt>
      <trkpt lat="35.697725" lon="139.585887">
        <time>2024-02-29T23:04:20Z</time>
      </trkpt>
      <trkpt lat="35.697108" lon="139.586639">
        <time>2024-02-29T23:05:10Z</time>
      </trkpt>
      <trkpt lat="35.696082" lon="139.587009">
        <time>2024-02-29T23:06:00Z</time>
      </trkpt>
      <trkpt lat="35.695182" lon="139.586470">
        <time>2024-02-29T23:06:50Z</time>
      </trkpt>
      <trkpt lat="35.695198" lon="139.585570">
        <time>2024-02-29T23:07:40Z</time>
      </trkpt>
      <trkpt lat="35.695559" lon="139.584717">
        <time>2024-02-29T23:08:30Z</time>
      </trkpt>
      <trkpt lat="35.696660" lon="139.584533">
        <time>2024-02-29T23:09:20Z</time>
      </trkpt>
      <trkpt lat="35.697703" lon="139.584196">
        <time>2024-02-29T23:10:10Z</time>
      </trkpt>
      <trkpt lat="35.698768" lon="139.584487">
        <time>2024-02-29T23:11:00Z</time>
      </trkpt>
      <trkpt lat="35.699245" lon="139.585302">
        <time>2024-02-29T23:11:50Z</time>
      </trkpt>
      <trkpt lat="35.700063" lon="139.585919">
        <time>2024-02-29T23:12:40Z</time>
      </trkpt>
      <trkpt lat="35.700590" lon="139.586715">
        <time>2024-02-29T23:13:30Z</time>
      </trkpt>
      <trkpt lat="35.701063" lon="139.587531">
        <time>2024-02-29T23:14:20Z</time>
      </trkpt>
      <trkpt lat="35.700307" lon="139.588198">
        <time>2024-02-29T23:15:10Z</time>
      </trkpt>
      <trkpt lat="35.700699" lon="139.589042">
        <time>2024-02-29T23:16:00Z</time>
      </trkpt>
      <trkpt lat="35.700288" lon="139.589880">
        <time>2024-02-29T23:16:50Z</time>
      </trkpt>
      <trkpt lat="35.700159" lon="139.590774">
        <time>2024-02-29T23:17:40Z</time>
      </trkpt>
      <trkpt lat="35.700456" lon="139.591642">
        <time>2024-02-29T23:18:30Z</time>
      </trkpt>
      <trkpt lat="35.700630" lon="139.592531">
        <time>2024-02-29T23:19:20Z</time>
      </trkpt>
      <trkpt lat="35.699887" lon="139.593207">
        <time>2024-02-29T23:20:10Z</time>
      </trkpt>
      <trkpt lat="35.698946" lon="139.593700">
        <time>2024-02-29T23:21:00Z</time>
      </trkpt>
      <trkpt lat="35.698408" lon="139.594491">
        <time>2024-02-29T23:21:50Z</time>
      </trkpt>
      <trkpt lat="35.697295" lon="139.594623">
        <time>2024-02-29T23:22:40Z</time>
      </trkpt>
      <trkpt lat="35.696530" lon="139.593964">
        <time>2024-02-29T23:23:30Z</time>
      </trkpt>
      <trkpt lat="35.696957" lon="139.593131">
        <time>2024-02-29T23:24:20Z</time>
      </trkpt>
      <trkpt lat="35.697682" lon="139.592443">
        <time>2024-02-29T23:25:10Z</time>
      </trkpt>
      <trkpt lat="35.698271" lon="139.591676">
        <time>2024-02-29T23:26:00Z</time>
      </trkpt>
      <trkpt lat="35.698793" lon="139.590879">
        <time>2024-02-29T23:26:50Z</time>
      </trkpt>
      <trkpt lat="35.699896" lon="139.590701">
        <time>2024-02-29T23:27:40Z</time>
      </trkpt>
      <trkpt lat="35.700215" lon="139.589838">
        <time>2024-02-29T23:28:30Z</time>
      </trkpt>
      <trkpt lat="35.700011" lon="139.588953">
        <time>2024-02-29T23:29:20Z</time>
      </trkpt>
      <trkpt lat="35.700407" lon="139.588111">
        <time>2024-02-29T23:30:10Z</time>
      </trkpt>
      <trkpt lat="35.700644" lon="139.587231">
        <time>2024-02-29T23:31:00Z</time>
      </trkpt>
      <trkpt lat="35.701386" lon="139.586555">
        <time>2024-02-29T23:31:50Z</time>
      </trkpt>
      <trkpt lat="35.701560" lon="139.585665">
        <time>2024-02-29T23:32:40Z</time>
      </trkpt>
      <trkpt lat="35.701326" lon="139.584785">
        <time>2024-02-29T23:33:30Z</time>
      </trkpt>
      <trkpt lat="35.700557" lon="139.584128">
        <time>2024-02-29T23:34:20Z</time>
      </trkpt>
      <trkpt lat="35.701057" lon="139.583322">
        <time>2024-02-29T23:35:10Z</time>
      </trkpt>
      <trkpt lat="35.700335" lon="139.582631">
        <time>2024-02-29T23:36:00Z</time>
      </trkpt>
      <trkpt lat="35.700519" lon="139.581744">
        <time>2024-02-29T23:36:50Z</time>
      </trkpt>
      <trkpt lat="35.700058" lon="139.580923">
        <time>2024-02-29T23:37:40Z</time>
      </trkpt>
      <trkpt lat="35.700764" lon="139.580222">
        <time>2024-02-29T23:38:30Z</time>
      </trkpt>
      <trkpt lat="35.701889" lon="139.580236">
        <time>2024-02-29T23:39:20Z</time>
      </trkpt>
      <trkpt lat="35.702287" lon="139.581078">
        <time>2024-02-29T23:40:10Z</time>
      </trkpt>
      <trkpt lat="35.702739" lon="139.581902">
        <time>2024-02-29T23:41:00Z</time>
      </trkpt>
      <trkpt lat="35.702155" lon="139.582671">
        <time>2024-02-29T23:41:50Z</time>
      </trkpt>
      <trkpt lat="35.701034" lon="139.582591">
        <time>2024-02-29T23:42:40Z</time>
      </trkpt>
      <trkpt lat="35.700146" lon="139.582039">
        <time>2024-02-29T23:43:30Z</time>
      </trkpt>
      <trkpt lat="35.699841" lon="139.581172">
        <time>2024-02-29T23:44:20Z</time>
      </trkpt>
      <trkpt lat="35.698762" lon="139.580920">
        <time>2024-02-29T23:45:10Z</time>
      </trkpt>
      <trkpt lat="35.698459" lon="139.580053">
        <time>2024-02-29T23:46:00Z</time>
      </trkpt>
      <trkpt lat="35.699321" lon="139.579475">
        <time>2024-02-29T23:46:50Z</time>
      </trkpt>
      <trkpt lat="35.700445" lon="139.579525">
        <time>2024-02-29T23:47:40Z</time>
      </trkpt>
      <trkpt lat="35.701399" lon="139.580002">
        <time>2024-02-29T23:48:30Z</time>
      </trkpt>
      <trkpt lat="35.701457" lon="139.580901">
        <time>2024-02-29T23:49:20Z</time>
      </trkpt>
      <trkpt lat="35.702006" lon="139.581686">
        <time>2024-02-29T23:50:10Z</time>
      </trkpt>
      <trkpt lat="35.701715" lon="139.582555">
        <time>2024-02-29T23:51:00Z</time>
      </trkpt>
      <trkpt lat="35.700607" lon="139.582710">
        <time>2024-02-29T23:51:50Z</time>
      </trkpt>
      <trkpt lat="35.700006" lon="139.583471">
        <time>2024-02-29T23:52:40Z</time>
      </trkpt>
      <trkpt lat="35.699665" lon="139.584329">
        <time>2024-02-29T23:53:30Z</time>
      </trkpt>
      <trkpt lat="35.700145" lon="139.585143">
        <time>2024-02-29T23:54:20Z</time>
      </trkpt>
      <trkpt lat="35.701008" lon="139.585720">
        <time>2024-02-29T23:55:10Z</time>
      </trkpt>
      <trkpt lat="35.702132" lon="139.585750">
        <time>2024-02-29T23:56:00Z</time>
      </trkpt>
      <trkpt lat="35.702595" lon="139.586570">
        <time>2024-02-29T23:56:50Z</time>
      </trkpt>
      <trkpt lat="35.703595" lon="139.586983">
        <time>2024-02-29T23:57:40Z</time>
      </trkpt>
      <trkpt lat="35.703504" lon="139.587880">
        <time>2024-02-29T23:58:30Z</time>
      </trkpt>
      <trkpt lat="35.702583" lon="139.588396">
        <time>2024-02-29T23:59:20Z</time>
      </trkpt>
      <trkpt lat="35.701532" lon="139.588719">
        <time>2024-03-01T00:00:10Z</time>
      </trkpt>
      <trkpt lat="35.700408" lon="139.588747">
        <time>2024-03-01T00:01:00Z</time>
      </trkpt>
      <trkpt lat="35.699886" lon="139.589544">
        <time>2024-03-01T00:01:50Z</time>
      </trkpt>
      <trkpt lat="35.699048" lon="139.590144">
        <time>2024-03-01T00:02:40Z</time>
      </trkpt>
      <trkpt lat="35.699321" lon="139.591018">
        <time>2024-03-01T00:03:30Z</time>
      </trkpt>
      <trkpt lat="35.698653" lon="139.591742">
        <time>2024-03-01T00:04:20Z</time>
      </trkpt>
      <trkpt lat="35.697631" lon="139.592118">
        <time>2024-03-01T00:05:10Z</time>
      </trkpt>
      <trkpt lat="35.696536" lon="139.592324">
        <time>2024-03-01T00:06:00Z</time>
      </trkpt>
      <trkpt lat="35.695621" lon="139.591800">
        <time>2024-03-01T00:06:50Z</time>
      </trkpt>
      <trkpt lat="35.695061" lon="139.591019">
        <time>2024-03-01T00:07:40Z</time>
      </trkpt>
      <trkpt lat="35.694228" lon="139.590414">
        <time>2024-03-01T00:08:30Z</time>
      </trkpt>
      <trkpt lat="35.693512" lon="139.589720">
        <time>2024-03-01T00:09:20Z</time>
      </trkpt>
      <trkpt lat="35.693940" lon="139.588887">
        <time>2024-03-01T00:10:10Z</time>
      </trkpt>
      <trkpt lat="35.693321" lon="139.588136">
        <time>2024-03-01T00:11:00Z</time>
      </trkpt>
      <trkpt lat="35.692398" lon="139.587622">
        <time>2024-03-01T00:11:50Z</time>
      </trkpt>
      <trkpt lat="35.691460" lon="139.587124">
        <time>2024-03-01T00:12:40Z</time>
      </trkpt>
      <trkpt lat="35.690337" lon="139.587170">
        <time>2024-03-01T00:13:30Z</time>
      </trkpt>
      <trkpt lat="35.690100" lon="139.586693">
        <time>2024-03-01T00:14:20Z</time>
      </trkpt>
      <trkpt lat="35.691208" lon="139.586536">
        <time>2024-03-01T00:15:10Z</time>
      </trkpt>
      <trkpt lat="35.692333" lon="139.586538">
        <time>2024-03-01T00:16:00Z</time>
      </trkpt>
      <trkpt lat="35.692768" lon="139.587368">
        <time>2024-03-01T00:16:50Z</time>
      </trkpt>
      <trkpt lat="35.692914" lon="139.588260">
        <time>2024-03-01T00:17:40Z</time>
      </trkpt>
      <trkpt lat="35.692380" lon="139.589052">
        <time>2024-03-01T00:18:30Z</time>
      </trkpt>
      <trkpt lat="35.691857" lon="139.588255">
        <time>2024-03-01T01:04:20Z</time>
      </trkpt>
      <trkpt lat="35.690938" lon="139.587736">
        <time>2024-03-01T01:05:10Z</time>
      </trkpt>
      <trkpt lat="35.690108" lon="139.587129">
        <time>2024-03-01T01:06:00Z</time>
      </trkpt>
      <trkpt lat="35.690502" lon="139.586286">
        <time>2024-03-01T01:06:50Z</time>
      </trkpt>
      <trkpt lat="35.691163" lon="139.585558">
        <time>2024-03-01T01:07:40Z</time>
      </trkpt>
      <trkpt lat="35.692071" lon="139.585026">
        <time>2024-03-01T01:08:30Z</time>
      </trkpt>
      <trkpt lat="35.692730" lon="139.584297">
        <time>2024-03-01T01:09:20Z</time>
      </trkpt>
      <trkpt lat="35.693852" lon="139.584235">
        <time>2024-03-01T01:10:10Z</time>
      </trkpt>
      <trkpt lat="35.694591" lon="139.584914">
        <time>2024-03-01T01:11:00Z</time>
      </trkpt>
      <trkpt lat="35.694278" lon="139.585778">
        <time>2024-03-01T01:11:50Z</time>
      </trkpt>
      <trkpt lat="35.694584" lon="139.586645">
        <time>2024-03-01T01:12:40Z</time>
      </trkpt>
      <trkpt lat="35.695686" lon="139.586824">
        <time>2024-03-01T01:13:30Z</time>
      </trkpt>
      <trkpt lat="35.696811" lon="139.586853">
        <time>2024-03-01T01:14:20Z</time>
      </trkpt>
      <trkpt lat="35.697241" lon="139.586022">
        <time>2024-03-01T01:15:10Z</time>
      </trkpt>
      <trkpt lat="35.697889" lon="139.585286">
        <time>2024-03-01T01:16:00Z</time>
      </trkpt>
      <trkpt lat="35.698679" lon="139.584645">
        <time>2024-03-01T01:16:50Z</time>
      </trkpt>
      <trkpt lat="35.698264" lon="139.583808">
        <time>2024-03-01T01:17:40Z</time>
      </trkpt>
      <trkpt lat="35.697194" lon="139.583532">
        <time>2024-03-01T01:18:30Z</time>
      </trkpt>
      <trkpt lat="35.696092" lon="139.583350">
        <time>2024-03-01T01:19:20Z</time>
      </trkpt>
      <trkpt lat="35.694992" lon="139.583537">
        <time>2024-03-01T01:20:10Z</time>
      </trkpt>
      <trkpt lat="35.693914" lon="139.583279">
        <time>2024-03-01T01:21:00Z</time>
      </trkpt>
      <trkpt lat="35.693314" lon="139.582518">
        <time>2024-03-01T01:21:50Z</time>
      </trkpt>
      <trkpt lat="35.692325" lon="139.582090">
        <time>2024-03-01T01:22:40Z</time>
      </trkpt>
      <trkpt lat="35.691913" lon="139.581252">
        <time>2024-03-01T01:23:30Z</time>
      </trkpt>
      <trkpt lat="35.691783" lon="139.580358">
        <time>2024-03-01T01:24:20Z</time>
      </trkpt>
      <trkpt lat="35.691002" lon="139.579710">
        <time>2024-03-01T01:25:10Z</time>
      </trkpt>
      <trkpt lat="35.690100" lon="139.579726">
        <time>2024-03-01T01:26:00Z</time>
      </trkpt>
      <trkpt lat="35.690623" lon="139.578930">
        <time>2024-03-01T01:26:50Z</time>
      </trkpt>
      <trkpt lat="35.691708" lon="139.578691">
        <time>2024-03-01T01:27:40Z</time>
      </trkpt>
      <trkpt lat="35.692557" lon="139.578101">
        <time>2024-03-01T01:28:30Z</time>
      </trkpt>
      <trkpt lat="35.693681" lon="139.578147">
        <time>2024-03-01T01:29:20Z</time>
      </trkpt>
      <trkpt lat="35.694731" lon="139.577823">
        <time>2024-03-01T01:30:10Z</time>
      </trkpt>
      <trkpt lat="35.695803" lon="139.578094">
        <time>2024-03-01T01:31:00Z</time>
      </trkpt>
      <trkpt lat="35.696819" lon="139.577707">
        <time>2024-03-01T01:31:50Z</time>
      </trkpt>
      <trkpt lat="35.697830" lon="139.577313">
        <time>2024-03-01T01:32:40Z</time>
      </trkpt>
      <trkpt lat="35.698837" lon="139.577714">
        <time>2024-03-01T01:33:30Z</time>
      </trkpt>
      <trkpt lat="35.699770" lon="139.578218">
        <time>2024-03-01T01:34:20Z</time>
      </trkpt>
      <trkpt lat="35.700877" lon="139.578056">
        <time>2024-03-01T01:35:10Z</time>
      </trkpt>
      <trkpt lat="35.701606" lon="139.577371">
        <time>2024-03-01T01:36:00Z</time>
      </trkpt>
      <trkpt lat="35.702709" lon="139.577550">
        <time>2024-03-01T01:36:50Z</time>
      </trkpt>
      <trkpt lat="35.703642" lon="139.577047">
        <time>2024-03-01T01:37:40Z</time>
      </trkpt>
      <trkpt lat="35.704734" lon="139.577265">
        <time>2024-03-01T01:38:30Z</time>
      </trkpt>
      <trkpt lat="35.705835" lon="139.577081">
        <time>2024-03-01T01:39:20Z</time>
      </trkpt>
      <trkpt lat="35.706813" lon="139.577526">
        <time>2024-03-01T01:40:10Z</time>
      </trkpt>
      <trkpt lat="35.707898" lon="139.577764">
        <time>2024-03-01T01:41:00Z</time>
      </trkpt>
      <trkpt lat="35.708372" lon="139.578580">
        <time>2024-03-01T01:41:50Z</time>
      </trkpt>
      <trkpt lat="35.708712" lon="139.579438">
        <time>2024-03-01T01:42:40Z</time>
      </trkpt>
      <trkpt lat="35.709811" lon="139.579629">
        <time>2024-03-01T01:43:30Z</time>
      </trkpt>
      <trkpt lat="35.709988" lon="139.580518">
        <time>2024-03-01T01:44:20Z</time>
      </trkpt>
      <trkpt lat="35.709900" lon="139.581197">
        <time>2024-03-01T01:45:10Z</time>
      </trkpt>
      <trkpt lat="35.708789" lon="139.581341">
        <time>2024-03-01T01:46:00Z</time>
      </trkpt>
      <trkpt lat="35.708544" lon="139.582219">
        <time>2024-03-01T01:46:50Z</time>
      </trkpt>
      <trkpt lat="35.708360" lon="139.583107">
        <time>2024-03-01T01:47:40Z</time>
      </trkpt>
      <trkpt lat="35.708789" lon="139.583939">
        <time>2024-03-01T01:48:30Z</time>
      </trkpt>
      <trkpt lat="35.709743" lon="139.584416">
        <time>2024-03-01T01:49:20Z</time>
      </trkpt>
      <trkpt lat="35.709900" lon="139.583899">
        <time>2024-03-01T01:50:10Z</time>
      </trkpt>
      <trkpt lat="35.709420" lon="139.583085">
        <time>2024-03-01T01:51:00Z</time>
      </trkpt>
      <trkpt lat="35.708712" lon="139.582386">
        <time>2024-03-01T01:51:50Z</time>
      </trkpt>
      <trkpt lat="35.707778" lon="139.581884">
        <time>2024-03-01T01:52:40Z</time>
      </trkpt>
      <trkpt lat="35.706696" lon="139.581639">
        <time>2024-03-01T01:53:30Z</time>
      </trkpt>
      <trkpt lat="35.705741" lon="139.582115">
        <time>2024-03-01T01:54:20Z</time>
      </trkpt>
      <trkpt lat="35.704956" lon="139.582760">
        <time>2024-03-01T01:55:10Z</time>
      </trkpt>
      <trkpt lat="35.703957" lon="139.583174">
        <time>2024-03-01T01:56:00Z</time>
      </trkpt>
      <trkpt lat="35.703064" lon="139.583721">
        <time>2024-03-01T01:56:50Z</time>
      </trkpt>
      <trkpt lat="35.703083" lon="139.584621">
        <time>2024-03-01T01:57:40Z</time>
      </trkpt>
      <trkpt lat="35.702619" lon="139.585441">
        <time>2024-03-01T01:58:30Z</time>
      </trkpt>
      <trkpt lat="35.701509" lon="139.585584">
        <time>2024-03-01T01:59:20Z</time>
      </trkpt>
      <trkpt lat="35.700866" lon="139.584846">
        <time>2024-03-01T02:00:10Z</time>
      </trkpt>
      <trkpt lat="35.699779" lon="139.584612">
        <time>2024-03-01T02:01:00Z</time>
      </trkpt>
      <trkpt lat="35.699409" lon="139.583763">
        <time>2024-03-01T02:01:50Z</time>
      </trkpt>
      <trkpt lat="35.698324" lon="139.583526">
        <time>2024-03-01T02:02:40Z</time>
      </trkpt>
      <trkpt lat="35.697362" lon="139.583994">
        <time>2024-03-01T02:03:30Z</time>
      </trkpt>
      <trkpt lat="35.696243" lon="139.583905">
        <time>2024-03-01T02:04:20Z</time>
      </trkpt>
      <trkpt lat="35.695118" lon="139.583914">
        <time>2024-03-01T02:05:10Z</time>
      </trkpt>
      <trkpt lat="35.694399" lon="139.583222">
        <time>2024-03-01T02:06:00Z</time>
      </trkpt>
      <trkpt lat="35.693333" lon="139.582933">
        <time>2024-03-01T02:06:50Z</time>
      </trkpt>
      <trkpt lat="35.692689" lon="139.582195">
        <time>2024-03-01T02:07:40Z</time>
      </trkpt>
      <trkpt lat="35.691646" lon="139.581857">
        <time>2024-03-01T02:08:30Z</time>
      </trkpt>
      <trkpt lat="35.690611" lon="139.581505">
        <time>2024-03-01T02:09:20Z</time>
      </trkpt>
      <trkpt lat="35.690100" lon="139.581544">
        <time>2024-03-01T02:10:10Z</time>
      </trkpt>
      <trkpt lat="35.691219" lon="139.581453">
        <time>2024-03-01T02:11:00Z</time>
      </trkpt>
      <trkpt lat="35.692327" lon="139.581297">
        <time>2024-03-01T02:11:50Z</time>
      </trkpt>
      <trkpt lat="35.692945" lon="139.580545">
        <time>2024-03-01T02:12:40Z</time>
      </trkpt>
      <trkpt lat="35.692658" lon="139.579675">
        <time>2024-03-01T02:13:30Z</time>
      </trkpt>
      <trkpt lat="35.693443" lon="139.579030">
        <time>2024-03-01T02:14:20Z</time>
      </trkpt>
      <trkpt lat="35.693814" lon="139.578180">
        <time>2024-03-01T02:15:10Z</time>
      </trkpt>
      <trkpt lat="35.694870" lon="139.577870">
        <time>2024-03-01T02:16:00Z</time>
      </trkpt>
      <trkpt lat="35.695987" lon="139.577972">
        <time>2024-03-01T02:16:50Z</time>
      </trkpt>
      <trkpt lat="35.696432" lon="139.578799">
        <time>2024-03-01T02:17:40Z</time>
      </trkpt>
      <trkpt lat="35.697068" lon="139.579541">
        <time>2024-03-01T02:18:30Z</time>
      </trkpt>
      <trkpt lat="35.698189" lon="139.579623">
        <time>2024-03-01T02:19:20Z</time>
      </trkpt>
      <trkpt lat="35.698963" lon="139.580277">
        <time>2024-03-01T02:20:10Z</time>
      </trkpt>
      <trkpt lat="35.700066" lon="139.580099">
        <time>2024-03-01T02:21:00Z</time>
      </trkpt>
      <trkpt lat="35.700417" lon="139.579244">
        <time>2024-03-01T02:21:50Z</time>
      </trkpt>
      <trkpt lat="35.701102" lon="139.578530">
        <time>2024-03-01T02:22:40Z</time>
      </trkpt>
      <trkpt lat="35.702079" lon="139.578084">
        <time>2024-03-01T02:23:30Z</time>
      </trkpt>
      <trkpt lat="35.702413" lon="139.577225">
        <time>2024-03-01T02:24:20Z</time>
      </trkpt>
      <trkpt lat="35.703530" lon="139.577115">
        <time>2024-03-01T02:25:10Z</time>
      </trkpt>
      <trkpt lat="35.704554" lon="139.576743">
        <time>2024-03-01T02:26:00Z</time>
      </trkpt>
      <trkpt lat="35.705670" lon="139.576625">
        <time>2024-03-01T02:26:50Z</time>
      </trkpt>
      <trkpt lat="35.706707" lon="139.576972">
        <time>2024-03-01T02:27:40Z</time>
      </trkpt>
      <trkpt lat="35.707657" lon="139.576489">
        <time>2024-03-01T02:28:30Z</time>
      </trkpt>
      <trkpt lat="35.708686" lon="139.576853">
        <time>2024-03-01T02:29:20Z</time>
      </trkpt>
      <trkpt lat="35.708914" lon="139.577734">
        <time>2024-03-01T02:30:10Z</time>
      </trkpt>
      <trkpt lat="35.708665" lon="139.578612">
        <time>2024-03-01T02:31:00Z</time>
      </trkpt>
      <trkpt lat="35.709060" lon="139.579454">
        <time>2024-03-01T02:31:50Z</time>
      </trkpt>
      <trkpt lat="35.709643" lon="139.580224">
        <time>2024-03-01T02:32:40Z</time>
      </trkpt>
      <trkpt lat="35.709900" lon="139.580408">
        <time>2024-03-01T02:33:30Z</time>
      </trkpt>
      <trkpt lat="35.708790" lon="139.580263">
        <time>2024-03-01T02:34:20Z</time>
      </trkpt>
      <trkpt lat="35.708026" lon="139.579602">
        <time>2024-03-01T02:35:10Z</time>
      </trkpt>
      <trkpt lat="35.708170" lon="139.578710">
        <time>2024-03-01T02:36:00Z</time>
      </trkpt>
      <trkpt lat="35.708112" lon="139.577811">
        <time>2024-03-01T02:36:50Z</time>
      </trkpt>
      <trkpt lat="35.708908" lon="139.577175">
        <time>2024-03-01T02:37:40Z</time>
      </trkpt>
    </trkseg>
  </trk>
</gpx>
