<?xml version="1.0" encoding="UTF-8"?>
<gpx version="1.1" creator="trajectory-viz demo" xmlns="http://www.topografix.com/GPX/1/1">
  <trk>
    <name>courier-12</name>
    <trkseg>
      <trkpt lat="35.691959" lon="139.560489">
        <time>2024-02-29T22:00:00Z</time>
      </trkpt>
      <trkpt lat="35.691902" lon="139.559590">
        <time>2024-02-29T22:00:45Z</time>
      </trkpt>
      <trkpt lat="35.692871" lon="139.559133">
        <time>2024-02-29T22:01:30Z</time>
      </trkpt>
      <trkpt lat="35.693993" lon="139.559068">
        <time>2024-02-29T22:02:15Z</time>
      </trkpt>
      <trkpt lat="35.694858" lon="139.559644">
        <time>2024-02-29T22:03:00Z</time>
      </trkpt>
      <trkpt lat="35.695569" lon="139.560342">
        <time>2024-02-29T22:03:45Z</time>
      </trkpt>
      <trkpt lat="35.696677" lon="139.560189">
        <time>2024-02-29T22:04:30Z</time>
      </trkpt>
      <trkpt lat="35.697593" lon="139.559667">
        <time>2024-02-29T22:05:15Z</time>
      </trkpt>
      <trkpt lat="35.698545" lon="139.559187">
        <time>2024-02-29T22:06:00Z</time>
      </trkpt>
      <trkpt lat="35.699413" lon="139.558615">
        <time>2024-02-29T22:06:45Z</time>
      </trkpt>
      <trkpt lat="35.699428" lon="139.557715">
        <time>2024-02-29T22:07:30Z</time>
      </trkpt>
      <trkpt lat="35.699458" lon="139.556815">
        <time>2024-02-29T22:08:15Z</time>
      </trkpt>
      <trkpt lat="35.698534" lon="139.556302">
        <time>2024-02-29T22:09:00Z</time>
      </trkpt>
      <trkpt lat="35.697872" lon="139.555574">
        <time>2024-02-29T22:09:45Z</time>
      </trkpt>
      <trkpt lat="35.697471" lon="139.554733">
        <time>2024-02-29T22:10:30Z</time>
      </trkpt>
      <trkpt lat="35.696347" lon="139.554691">
        <time>2024-02-29T22:11:15Z</time>
      </trkpt>
      <trkpt lat="35.695814" lon="139.555484">
        <time>2024-02-29T22:12:00Z</time>
      </trkpt>
      <trkpt lat="35.696083" lon="139.556358">
        <time>2024-02-29T22:12:45Z</time>
      </trkpt>
      <trkpt lat="35.697133" lon="139.556680">
        <time>2024-02-29T22:13:30Z</time>
      </trkpt>
      <trkpt lat="35.698258" lon="139.556713">
        <time>2024-02-29T22:14:15Z</time>
      </trkpt>
      <trkpt lat="35.699357" lon="139.556903">
        <time>2024-02-29T22:15:00Z</time>
      </trkpt>
      <trkpt lat="35.700436" lon="139.557159">
        <time>2024-02-29T22:15:45Z</time>
      </trkpt>
      <trkpt lat="35.701527" lon="139.556939">
        <time>2024-02-29T22:16:30Z</time>
      </trkpt>
      <trkpt lat="35.702619" lon="139.556723">
        <time>2024-02-29T22:17:15Z</time>
      </trkpt>
      <trkpt lat="35.703733" lon="139.556845">
        <time>2024-02-29T22:18:00Z</time>
      </trkpt>
      <trkpt lat="35.704438" lon="139.557547">
        <time>2024-02-29T22:18:45Z</time>
      </trkpt>
      <trkpt lat="35.704748" lon="139.558412">
        <time>2024-02-29T22:19:30Z</time>
      </trkpt>
      <trkpt lat="35.704377" lon="139.559262">
        <time>2024-02-29T22:20:15Z</time>
      </trkpt>
      <trkpt lat="35.704813" lon="139.560091">
        <time>2024-02-29T22:21:00Z</time>
      </trkpt>
      <trkpt lat="35.704154" lon="139.560821">
        <time>2024-02-29T22:21:45Z</time>
      </trkpt>
      <trkpt lat="35.703033" lon="139.560752">
        <time>2024-02-29T22:22:30Z</time>
      </trkpt>
      <trkpt lat="35.701908" lon="139.560779">
        <time>2024-02-29T22:23:15Z</time>
      </trkpt>
      <trkpt lat="35.700868" lon="139.561123">
        <time>2024-02-29T22:24:00Z</time>
      </trkpt>
      <trkpt lat="35.699902" lon="139.561583">
        <time>2024-02-29T22:24:45Z</time>
      </trkpt>
      <trkpt lat="35.700093" lon="139.562470">
        <time>2024-02-29T22:25:30Z</time>
      </trkpt>
      <trkpt lat="35.700667" lon="139.563244">
        <time>2024-02-29T22:26:15Z</time>
      </trkpt>
      <trkpt lat="35.700157" lon="139.564046">
        <time>2024-02-29T22:27:00Z</time>
      </trkpt>
      <trkpt lat="35.699032" lon="139.564049">
        <time>2024-02-29T22:27:45Z</time>
      </trkpt>
      <trkpt lat="35.697916" lon="139.564159">
        <time>2024-02-29T22:28:30Z</time>
      </trkpt>
      <trkpt lat="35.696801" lon="139.564036">
        <time>2024-02-29T22:29:15Z</time>
      </trkpt>
      <trkpt lat="35.695689" lon="139.563899">
        <time>2024-02-29T22:30:00Z</time>
      </trkpt>
      <trkpt lat="35.694746" lon="139.563408">
        <time>2024-02-29T22:30:45Z</time>
      </trkpt>
      <trkpt lat="35.693623" lon="139.563451">
        <time>2024-02-29T22:31:30Z</time>
      </trkpt>
      <trkpt lat="35.692520" lon="139.563272">
        <time>2024-02-29T22:32:15Z</time>
      </trkpt>
      <trkpt lat="35.691415" lon="139.563103">
        <time>2024-02-29T22:33:00Z</time>
      </trkpt>
      <trkpt lat="35.690350" lon="139.562813">
        <time>2024-02-29T22:33:45Z</time>
      </trkpt>
      <trkpt lat="35.690100" lon="139.562217">
        <time>2024-02-29T22:34:30Z</time>
      </trkpt>
      <trkpt lat="35.690310" lon="139.561333">
        <time>2024-02-29T22:35:15Z</time>
      </trkpt>
      <trkpt lat="35.690100" lon="139.560616">
        <time>2024-02-29T22:36:00Z</time>
      </trkpt>
      <trkpt lat="35.690283" lon="139.559728">
        <time>2024-02-29T22:36:45Z</time>
      </trkpt>
      <trkpt lat="35.690874" lon="139.558962">
        <time>2024-02-29T22:37:30Z</time>
      </trkpt>
      <trkpt lat="35.691969" lon="139.558757">
        <time>2024-02-29T22:38:15Z</time>
      </trkpt>
      <trkpt lat="35.692121" lon="139.557865">
        <time>2024-02-29T22:39:00Z</time>
      </trkpt>
      <trkpt lat="35.691171" lon="139.557382">
        <time>2024-02-29T22:39:45Z</time>
      </trkpt>
      <trkpt lat="35.690161" lon="139.557780">
        <time>2024-02-29T22:40:30Z</time>
      </trkpt>
      <trkpt lat="35.690100" lon="139.557792">
        <time>2024-02-29T22:41:15Z</time>
      </trkpt>
      <trkpt lat="35.690538" lon="139.556963">
        <time>2024-02-29T22:42:00Z</time>
      </trkpt>
      <trkpt lat="35.690352" lon="139.556075">
        <time>2024-02-29T22:42:45Z</time>
      </trkpt>
      <trkpt lat="35.691009" lon="139.555345">
        <time>2024-02-29T22:43:30Z</time>
      </trkpt>
      <trkpt lat="35.691312" lon="139.554478">
        <time>2024-02-29T22:44:15Z</time>
      </trkpt>
      <trkpt lat="35.690420" lon="139.553930">
        <time>2024-02-29T22:45:00Z</time>
      </trkpt>
      <trkpt lat="35.690100" lon="139.553169">
        <time>2024-02-29T22:45:45Z</time>
      </trkpt>
      <trkpt lat="35.691173" lon="139.552899">
        <time>2024-02-29T22:46:30Z</time>
      </trkpt>
      <trkpt lat="35.691984" lon="139.553523">
        <time>2024-02-29T22:47:15Z</time>
      </trkpt>
      <trkpt lat="35.693011" lon="139.553157">
        <time>2024-02-29T22:48:00Z</time>
      </trkpt>
      <trkpt lat="35.694125" lon="139.553280">
        <time>2024-02-29T22:48:45Z</time>
      </trkpt>
      <trkpt lat="35.695171" lon="139.553612">
        <time>2024-02-29T22:49:30Z</time>
      </trkpt>
      <trkpt lat="35.695622" lon="139.554437">
        <time>2024-02-29T22:50:15Z</time>
      </trkpt>
      <trkpt lat="35.696347" lon="139.555125">
        <time>2024-02-29T22:51:00Z</time>
      </trkpt>
      <trkpt lat="35.696136" lon="139.556009">
        <time>2024-02-29T22:51:45Z</time>
      </trkpt>
      <trkpt lat="35.696695" lon="139.556790">
        <time>2024-02-29T22:52:30Z</time>
      </trkpt>
      <trkpt lat="35.696389" lon="139.557657">
        <time>2024-02-29T22:53:15Z</time>
      </trkpt>
      <trkpt lat="35.697089" lon="139.558361">
        <time>2024-02-29T22:54:00Z</time>
      </trkpt>
      <trkpt lat="35.697168" lon="139.559259">
        <time>2024-02-29T22:54:45Z</time>
      </trkpt>
      <trkpt lat="35.696249" lon="139.559778">
        <time>2024-02-29T22:55:30Z</time>
      </trkpt>
      <trkpt lat="35.696482" lon="139.560659">
        <time>2024-02-29T22:56:15Z</time>
      </trkpt>
      <trkpt lat="35.696872" lon="139.561503">
        <time>2024-02-29T22:57:00Z</time>
      </trkpt>
      <trkpt lat="35.696062" lon="139.562128">
        <time>2024-02-29T22:57:45Z</time>
      </trkpt>
      <trkpt lat="35.695023" lon="139.561781">
        <time>2024-02-29T22:58:30Z</time>
      </trkpt>
      <trkpt lat="35.693899" lon="139.561817">
        <time>2024-02-29T22:59:15Z</time>
      </trkpt>
      <trkpt lat="35.692816" lon="139.562062">
        <time>2024-02-29T23:00:00Z</time>
      </trkpt>
      <trkpt lat="35.692375" lon="139.562890">
        <time>2024-02-29T23:00:45Z</time>
      </trkpt>
      <trkpt lat="35.693123" lon="139.563562">
        <time>2024-02-29T23:01:30Z</time>
      </trkpt>
      <trkpt lat="35.694229" lon="139.563727">
        <time>2024-02-29T23:02:15Z</time>
      </trkpt>
      <trkpt lat="35.695189" lon="139.563258">
        <time>2024-02-29T23:03:00Z</time>
      </trkpt>
      <trkpt lat="35.696302" lon="139.563128">
        <time>2024-02-29T23:03:45Z</time>
      </trkpt>
      <trkpt lat="35.697406" lon="139.562955">
        <time>2024-02-29T23:04:30Z</time>
      </trkpt>
      <trkpt lat="35.698097" lon="139.562244">
        <time>2024-02-29T23:05:15Z</time>
      </trkpt>
      <trkpt lat="35.699127" lon="139.561883">
        <time>2024-02-29T23:06:00Z</time>
      </trkpt>
      <trkpt lat="35.700057" lon="139.562390">
        <time>2024-02-29T23:06:45Z</time>
      </trkpt>
      <trkpt lat="35.700065" lon="139.563290">
        <time>2024-02-29T23:07:30Z</time>
      </trkpt>
      <trkpt lat="35.700346" lon="139.564162">
        <time>2024-02-29T23:08:15Z</time>
      </trkpt>
      <trkpt lat="35.700370" lon="139.565062">
        <time>2024-02-29T23:09:00Z</time>
      </trkpt>
      <trkpt lat="35.699840" lon="139.565855">
        <time>2024-02-29T23:09:45Z</time>
      </trkpt>
      <trkpt lat="35.699740" lon="139.566752">
        <time>2024-02-29T23:10:30Z</time>
      </trkpt>
      <trkpt lat="35.700327" lon="139.567520">
        <time>2024-02-29T23:11:15Z</time>
      </trkpt>
      <trkpt lat="35.701441" lon="139.567645">
        <time>2024-02-29T23:12:00Z</time>
      </trkpt>
      <trkpt lat="35.701962" lon="139.568443">
        <time>2024-02-29T23:12:45Z</time>
      </trkpt>
      <trkpt lat="35.702460" lon="139.569249">
        <time>2024-02-29T23:13:30Z</time>
      </trkpt>
      <trkpt lat="35.703404" lon="139.569739">
        <time>2024-02-29T23:14:15Z</time>
      </trkpt>
      <trkpt lat="35.704472" lon="139.570022">
        <time>2024-02-29T23:15:00Z</time>
      </trkpt>
      <trkpt lat="35.705520" lon="139.569694">
        <time>2024-02-29T23:15:45Z</time>
      </trkpt>
      <trkpt lat="35.706462" lon="139.570186">
        <time>2024-02-29T23:16:30Z</time>
      </trkpt>
      <trkpt lat="35.707182" lon="139.570878">
        <time>2024-02-29T23:17:15Z</time>
      </trkpt>
      <trkpt lat="35.707274" lon="139.571775">
        <time>2024-02-29T23:18:00Z</time>
      </trkpt>
      <trkpt lat="35.707263" lon="139.572675">
        <time>2024-02-29T23:18:45Z</time>
      </trkpt>
      <trkpt lat="35.707656" lon="139.573518">
        <time>2024-02-29T23:19:30Z</time>
      </trkpt>
      <trkpt lat="35.707681" lon="139.574418">
        <time>2024-02-29T23:20:15Z</time>
      </trkpt>
      <trkpt lat="35.706729" lon="139.574898">
        <time>2024-02-29T23:21:00Z</time>
      </trkpt>
      <trkpt lat="35.707087" lon="139.574045">
        <time>2024-03-01T00:06:45Z</time>
      </trkpt>
      <trkpt lat="35.706333" lon="139.573376">
        <time>2024-03-01T00:07:30Z</time>
      </trkpt>
      <trkpt lat="35.706277" lon="139.572478">
        <time>2024-03-01T00:08:15Z</time>
      </trkpt>
      <trkpt lat="35.705700" lon="139.571705">
        <time>2024-03-01T00:09:00Z</time>
      </trkpt>
      <trkpt lat="35.704786" lon="139.571180">
        <time>2024-03-01T00:09:45Z</time>
      </trkpt>
      <trkpt lat="35.704754" lon="139.570280">
        <time>2024-03-01T00:10:30Z</time>
      </trkpt>
      <trkpt lat="35.705501" lon="139.569608">
        <time>2024-03-01T00:11:15Z</time>
      </trkpt>
      <trkpt lat="35.705407" lon="139.568711">
        <time>2024-03-01T00:12:00Z</time>
      </trkpt>
      <trkpt lat="35.704773" lon="139.567967">
        <time>2024-03-01T00:12:45Z</time>
      </trkpt>
      <trkpt lat="35.705067" lon="139.567099">
        <time>2024-03-01T00:13:30Z</time>
      </trkpt>
      <trkpt lat="35.705231" lon="139.566208">
        <time>2024-03-01T00:14:15Z</time>
      </trkpt>
      <trkpt lat="35.704359" lon="139.565640">
        <time>2024-03-01T00:15:00Z</time>
      </trkpt>
      <trkpt lat="35.703313" lon="139.565972">
        <time>2024-03-01T00:15:45Z</time>
      </trkpt>
      <trkpt lat="35.702440" lon="139.565403">
        <time>2024-03-01T00:16:30Z</time>
      </trkpt>
      <trkpt lat="35.702548" lon="139.564507">
        <time>2024-03-01T00:17:15Z</time>
      </trkpt>
      <trkpt lat="35.702197" lon="139.563652">
        <time>2024-03-01T00:18:00Z</time>
      </trkpt>
      <trkpt lat="35.701113" lon="139.563412">
        <time>2024-03-01T00:18:45Z</time>
      </trkpt>
      <trkpt lat="35.700857" lon="139.562536">
        <time>2024-03-01T00:19:30Z</time>
      </trkpt>
      <trkpt lat="35.700246" lon="139.561780">
        <time>2024-03-01T00:20:15Z</time>
      </trkpt>
      <trkpt lat="35.700871" lon="139.561031">
        <time>2024-03-01T00:21:00Z</time>
      </trkpt>
      <trkpt lat="35.701477" lon="139.560273">
        <time>2024-03-01T00:21:45Z</time>
      </trkpt>
      <trkpt lat="35.702132" lon="139.559541">
        <time>2024-03-01T00:22:30Z</time>
      </trkpt>
      <trkpt lat="35.702310" lon="139.558653">
        <time>2024-03-01T00:23:15Z</time>
      </trkpt>
      <trkpt lat="35.701519" lon="139.558013">
        <time>2024-03-01T00:24:00Z</time>
      </trkpt>
      <trkpt lat="35.700429" lon="139.558235">
        <time>2024-03-01T00:24:45Z</time>
      </trkpt>
      <trkpt lat="35.699750" lon="139.557517">
        <time>2024-03-01T00:25:30Z</time>
      </trkpt>
      <trkpt lat="35.699714" lon="139.556618">
        <time>2024-03-01T00:26:15Z</time>
      </trkpt>
      <trkpt lat="35.700693" lon="139.556175">
        <time>2024-03-01T00:27:00Z</time>
      </trkpt>
      <trkpt lat="35.701721" lon="139.555808">
        <time>2024-03-01T00:27:45Z</time>
      </trkpt>
      <trkpt lat="35.702421" lon="139.555104">
        <time>2024-03-01T00:28:30Z</time>
      </trkpt>
      <trkpt lat="35.703069" lon="139.554368">
        <time>2024-03-01T00:29:15Z</time>
      </trkpt>
      <trkpt lat="35.704064" lon="139.553947">
        <time>2024-03-01T00:30:00Z</time>
      </trkpt>
      <trkpt lat="35.705035" lon="139.554401">
        <time>2024-03-01T00:30:45Z</time>
      </trkpt>
      <trkpt lat="35.706120" lon="139.554639">
        <time>2024-03-01T00:31:30Z</time>
      </trkpt>
      <trkpt lat="35.707011" lon="139.555188">
        <time>2024-03-01T00:32:15Z</time>
      </trkpt>
      <trkpt lat="35.708115" lon="139.555014">
        <time>2024-03-01T00:33:00Z</time>
      </trkpt>
      <trkpt lat="35.708574" lon="139.554192">
        <time>2024-03-01T00:33:45Z</time>
      </trkpt>
      <trkpt lat="35.709602" lon="139.553826">
        <time>2024-03-01T00:34:30Z</time>
      </trkpt>
      <trkpt lat="35.709900" lon="139.553315">
        <time>2024-03-01T00:35:15Z</time>
      </trkpt>
      <trkpt lat="35.708865" lon="139.552962">
        <time>2024-03-01T00:36:00Z</time>
      </trkpt>
      <trkpt lat="35.707747" lon="139.553064">
        <time>2024-03-01T00:36:45Z</time>
      </trkpt>
      <trkpt lat="35.707369" lon="139.553911">
        <time>2024-03-01T00:37:30Z</time>
      </trkpt>
      <trkpt lat="35.706791" lon="139.554683">
        <time>2024-03-01T00:38:15Z</time>
      </trkpt>
      <trkpt lat="35.706918" lon="139.555578">
        <time>2024-03-01T00:39:00Z</time>
      </trkpt>
      <trkpt lat="35.707442" lon="139.556374">
        <time>2024-03-01T00:39:45Z</time>
      </trkpt>
      <trkpt lat="35.706902" lon="139.557163">
        <time>2024-03-01T00:40:30Z</time>
      </trkpt>
      <trkpt lat="35.706093" lon="139.557788">
        <time>2024-03-01T00:41:15Z</time>
      </trkpt>
      <trkpt lat="35.706484" lon="139.558632">
        <time>2024-03-01T00:42:00Z</time>
      </trkpt>
      <trkpt lat="35.706867" lon="139.559479">
        <time>2024-03-01T00:42:45Z</time>
      </trkpt>
      <trkpt lat="35.707082" lon="139.560362">
        <time>2024-03-01T00:43:30Z</time>
      </trkpt>
      <trkpt lat="35.706722" lon="139.561215">
        <time>2024-03-01T00:44:15Z</time>
      </trkpt>
      <trkpt lat="35.707282" lon="139.561995">
        <time>2024-03-01T00:45:00Z</time>
      </trkpt>
      <trkpt lat="35.708404" lon="139.562062">
        <time>2024-03-01T00:45:45Z</time>
      </trkpt>
      <trkpt lat="35.709236" lon="139.562668">
        <time>2024-03-01T00:46:30Z</time>
      </trkpt>
      <trkpt lat="35.709900" lon="139.562387">
        <time>2024-03-01T00:47:15Z</time>
      </trkpt>
      <trkpt lat="35.709338" lon="139.561607">
        <time>2024-03-01T00:48:00Z</time>
      </trkpt>
      <trkpt lat="35.708850" lon="139.560796">
        <time>2024-03-01T00:48:45Z</time>
      </trkpt>
      <trkpt lat="35.708514" lon="139.559937">
        <time>2024-03-01T00:49:30Z</time>
      </trkpt>
      <trkpt lat="35.707416" lon="139.559742">
        <time>2024-03-01T00:50:15Z</time>
      </trkpt>
      <trkpt lat="35.706312" lon="139.559914">
        <time>2024-03-01T00:51:00Z</time>
      </trkpt>
      <trkpt lat="35.705285" lon="139.559546">
        <time>2024-03-01T00:51:45Z</time>
      </trkpt>
      <trkpt lat="35.704162" lon="139.559593">
        <time>2024-03-01T00:52:30Z</time>
      </trkpt>
      <trkpt lat="35.703044" lon="139.559695">
        <time>2024-03-01T00:53:15Z</time>
      </trkpt>
      <trkpt lat="35.702178" lon="139.560270">
        <time>2024-03-01T00:54:00Z</time>
      </trkpt>
      <trkpt lat="35.702228" lon="139.561169">
        <time>2024-03-01T00:54:45Z</time>
      </trkpt>
      <trkpt lat="35.701587" lon="139.561908">
        <time>2024-03-01T00:55:30Z</time>
      </trkpt>
      <trkpt lat="35.700464" lon="139.561962">
        <time>2024-03-01T00:56:15Z</time>
      </trkpt>
      <trkpt lat="35.700097" lon="139.562813">
        <time>2024-03-01T00:57:00Z</time>
      </trkpt>
      <trkpt lat="35.700082" lon="139.563713">
        <time>2024-03-01T00:57:45Z</time>
      </trkpt>
      <trkpt lat="35.700900" lon="139.564331">
        <time>2024-03-01T00:58:30Z</time>
      </trkpt>
      <trkpt lat="35.701910" lon="139.564728">
        <time>2024-03-01T00:59:15Z</time>
      </trkpt>
      <trkpt lat="35.701846" lon="139.565626">
        <time>2024-03-01T01:00:00Z</time>
      </trkpt>
      <trkpt lat="35.701192" lon="139.566358">
        <time>2024-03-01T01:00:45Z</time>
      </trkpt>
      <trkpt lat="35.701436" lon="139.567237">
        <time>2024-03-01T01:01:30Z</time>
      </trkpt>
      <trkpt lat="35.700745" lon="139.567947">
        <time>2024-03-01T01:02:15Z</time>
      </trkpt>
      <trkpt lat="35.700867" lon="139.568842">
        <time>2024-03-01T01:03:00Z</time>
      </trkpt>
      <trkpt lat="35.700095" lon="139.569497">
        <time>2024-03-01T01:03:45Z</time>
      </trkpt>
      <trkpt lat="35.699246" lon="139.570087">
        <time>2024-03-01T01:04:30Z</time>
      </trkpt>
      <trkpt lat="35.698548" lon="139.570793">
        <time>2024-03-01T01:05:15Z</time>
      </trkpt>
      <trkpt lat="35.697428" lon="139.570706">
        <time>2024-03-01T01:06:00Z</time>
      </trkpt>
      <trkpt lat="35.696323" lon="139.570875">
        <time>2024-03-01T01:06:45Z</time>
      </trkpt>
      <trkpt lat="35.695588" lon="139.571556">
        <time>2024-03-01T01:07:30Z</time>
      </trkpt>
      <trkpt lat="35.694634" lon="139.572033">
        <time>2024-03-01T01:08:15Z</time>
      </trkpt>
      <trkpt lat="35.693667" lon="139.572494">
        <time>2024-03-01T01:09:00Z</time>
      </trkpt>
      <trkpt lat="35.692572" lon="139.572700">
        <time>2024-03-01T01:09:45Z</time>
      </trkpt>
      <trkpt lat="35.691467" lon="139.572869">
        <time>2024-03-01T01:10:30Z</time>
      </trkpt>
      <trkpt lat="35.690651" lon="139.572250">
        <time>2024-03-01T01:11:15Z</time>
      </trkpt>
      <trkpt lat="35.690100" lon="139.571595">
        <time>2024-03-01T01:12:00Z</time>
      </trkpt>
      <trkpt lat="35.690752" lon="139.570861">
        <time>2024-03-01T01:12:45Z</time>
      </trkpt>
      <trkpt lat="35.690129" lon="139.570111">
        <time>2024-03-01T01:13:30Z</time>
      </trkpt>
      <trkpt lat="35.690100" lon="139.569515">
        <time>2024-03-01T01:14:15Z</time>
      </trkpt>
      <trkpt lat="35.690357" lon="139.568639">
        <time>2024-03-01T01:15:00Z</time>
      </trkpt>
      <trkpt lat="35.691470" lon="139.568508">
        <time>2024-03-01T01:15:45Z</time>
      </trkpt>
      <trkpt lat="35.692393" lon="139.569022">
        <time>2024-03-01T01:16:30Z</time>
      </trkpt>
      <trkpt lat="35.692645" lon="139.569899">
        <time>2024-03-01T01:17:15Z</time>
      </trkpt>
      <trkpt lat="35.692354" lon="139.570769">
        <time>2024-03-01T01:18:00Z</time>
      </trkpt>
      <trkpt lat="35.691482" lon="139.571337">
        <time>2024-03-01T01:18:45Z</time>
      </trkpt>
      <trkpt lat="35.690394" lon="139.571108">
        <time>2024-03-01T01:19:30Z</time>
      </trkpt>
      <trkpt lat="35.690100" lon="139.571790">
        <time>2024-03-01T01:20:15Z</time>
      </trkpt>
      <trkpt lat="35.691194" lon="139.571580">
        <time>2024-03-01T01:21:00Z</time>
      </trkpt>
      <trkpt lat="35.691910" lon="139.572274">
        <time>2024-03-01T01:21:45Z</time>
      </trkpt>
      <trkpt lat="35.691666" lon="139.573153">
        <time>2024-03-01T01:22:30Z</time>
      </trkpt>
      <trkpt lat="35.691641" lon="139.574052">
        <time>2024-03-01T01:23:15Z</time>
      </trkpt>
      <trkpt lat="35.691628" lon="139.574952">
        <time>2024-03-01T01:24:00Z</time>
      </trkpt>
      <trkpt lat="35.690620" lon="139.575353">
        <time>2024-03-01T01:24:45Z</time>
      </trkpt>
      <trkpt lat="35.690100" lon="139.575937">
        <time>2024-03-01T01:25:30Z</time>
      </trkpt>
      <trkpt lat="35.691214" lon="139.576061">
        <time>2024-03-01T01:26:15Z</time>
      </trkpt>
      <trkpt lat="35.692038" lon="139.575448">
        <time>2024-03-01T01:27:00Z</time>
      </trkpt>
      <trkpt lat="35.692904" lon="139.574873">
        <time>2024-03-01T01:27:45Z</time>
      </trkpt>
      <trkpt lat="35.692745" lon="139.573982">
        <time>2024-03-01T01:28:30Z</time>
      </trkpt>
      <trkpt lat="35.691831" lon="139.573458">
        <time>2024-03-01T01:29:15Z</time>
      </trkpt>
      <trkpt lat="35.691108" lon="139.572768">
        <time>2024-03-01T01:30:00Z</time>
      </trkpt>
      <trkpt lat="35.690712" lon="139.571925">
        <time>2024-03-01T01:30:45Z</time>
      </trkpt>
      <trkpt lat="35.690189" lon="139.571129">
        <time>2024-03-01T01:31:30Z</time>
      </trkpt>
      <trkpt lat="35.690100" lon="139.570248">
        <time>2024-03-01T01:32:15Z</time>
      </trkpt>
      <trkpt lat="35.690720" lon="139.569497">
        <time>2024-03-01T01:33:00Z</time>
      </trkpt>
      <trkpt lat="35.691836" lon="139.569385">
        <time>2024-03-01T01:33:45Z</time>
      </trkpt>
      <trkpt lat="35.692614" lon="139.570035">
        <time>2024-03-01T01:34:30Z</time>
      </trkpt>
      <trkpt lat="35.693732" lon="139.570131">
        <time>2024-03-01T01:35:15Z</time>
      </trkpt>
      <trkpt lat="35.694751" lon="139.570512">
        <time>2024-03-01T01:36:00Z</time>
      </trkpt>
      <trkpt lat="35.694767" lon="139.571412">
        <time>2024-03-01T01:36:45Z</time>
      </trkpt>
      <trkpt lat="35.695706" lon="139.571908">
        <time>2024-03-01T01:37:30Z</time>
      </trkpt>
      <trkpt lat="35.696549" lon="139.572504">
        <time>2024-03-01T01:38:15Z</time>
      </trkpt>
      <trkpt lat="35.696882" lon="139.573363">
        <time>2024-03-01T01:39:00Z</time>
      </trkpt>
      <trkpt lat="35.696038" lon="139.573959">
        <time>2024-03-01T01:39:45Z</time>
      </trkpt>
    </trkseg>
  </trk>
</gpx>
