<?xml version="1.0" encoding="UTF-8"?>
<gpx version="1.1" creator="trajectory-viz demo" xmlns="http://www.topografix.com/GPX/1/1">
  <trk>
    <name>courier-11</name>
    <trkseg>
      <trkpt lat="35.707710" lon="139.561754">
        <time>2024-03-01T07:44:00+09:00</time>
      </trkpt>
      <trkpt lat="35.707269" lon="139.560926">
        <time>2024-03-01T07:44:45+09:00</time>
      </trkpt>
      <trkpt lat="35.707942" lon="139.560205">
        <time>2024-03-01T07:45:30+09:00</time>
      </trkpt>
      <trkpt lat="35.708737" lon="139.559568">
        <time>2024-03-01T07:46:15+09:00</time>
      </trkpt>
      <trkpt lat="35.709252" lon="139.558768">
        <time>2024-03-01T07:47:00+09:00</time>
      </trkpt>
      <trkpt lat="35.709607" lon="139.557914">
        <time>2024-03-01T07:47:45+09:00</time>
      </trkpt>
      <trkpt lat="35.709900" lon="139.557232">
        <time>2024-03-01T07:48:30+09:00</time>
      </trkpt>
      <trkpt lat="35.709076" lon="139.556619">
        <time>2024-03-01T07:49:15+09:00</time>
      </trkpt>
      <trkpt lat="35.707972" lon="139.556792">
        <time>2024-03-01T07:50:00+09:00</time>
      </trkpt>
      <trkpt lat="35.707695" lon="139.557664">
        <time>2024-03-01T07:50:45+09:00</time>
      </trkpt>
      <trkpt lat="35.707773" lon="139.558562">
        <time>2024-03-01T07:51:30+09:00</time>
      </trkpt>
      <trkpt lat="35.707933" lon="139.559453">
        <time>2024-03-01T07:52:15+09:00</time>
      </trkpt>
      <trkpt lat="35.707527" lon="139.560292">
        <time>2024-03-01T07:53:00+09:00</time>
      </trkpt>
      <trkpt lat="35.707893" lon="139.561143">
        <time>2024-03-01T07:53:45+09:00</time>
      </trkpt>
      <trkpt lat="35.707996" lon="139.562040">
        <time>2024-03-01T07:54:30+09:00</time>
      </trkpt>
      <trkpt lat="35.708873" lon="139.562604">
        <time>2024-03-01T07:55:15+09:00</time>
      </trkpt>
      <trkpt lat="35.708943" lon="139.563502">
        <time>2024-03-01T07:56:00+09:00</time>
      </trkpt>
      <trkpt lat="35.708300" lon="139.564240">
        <time>2024-03-01T07:56:45+09:00</time>
      </trkpt>
      <trkpt lat="35.707224" lon="139.564504">
        <time>2024-03-01T07:57:30+09:00</time>
      </trkpt>
      <trkpt lat="35.706317" lon="139.563972">
        <time>2024-03-01T07:58:15+09:00</time>
      </trkpt>
      <trkpt lat="35.705193" lon="139.564014">
        <time>2024-03-01T07:59:00+09:00</time>
      </trkpt>
      <trkpt lat="35.704537" lon="139.563283">
        <time>2024-03-01T07:59:45+09:00</time>
      </trkpt>
      <trkpt lat="35.704879" lon="139.562426">
        <time>2024-03-01T08:00:30+09:00</time>
      </trkpt>
      <trkpt lat="35.704334" lon="139.561638">
        <time>2024-03-01T08:01:15+09:00</time>
      </trkpt>
      <trkpt lat="35.704242" lon="139.560741">
        <time>2024-03-01T08:02:00+09:00</time>
      </trkpt>
      <trkpt lat="35.705113" lon="139.560171">
        <time>2024-03-01T08:02:45+09:00</time>
      </trkpt>
      <trkpt lat="35.705711" lon="139.559409">
        <time>2024-03-01T08:03:30+09:00</time>
      </trkpt>
      <trkpt lat="35.706561" lon="139.558819">
        <time>2024-03-01T08:04:15+09:00</time>
      </trkpt>
      <trkpt lat="35.707190" lon="139.558073">
        <time>2024-03-01T08:05:00+09:00</time>
      </trkpt>
      <trkpt lat="35.707960" lon="139.557417">
        <time>2024-03-01T08:05:45+09:00</time>
      </trkpt>
      <trkpt lat="35.707955" lon="139.556517">
        <time>2024-03-01T08:06:30+09:00</time>
      </trkpt>
      <trkpt lat="35.707107" lon="139.555925">
        <time>2024-03-01T08:07:15+09:00</time>
      </trkpt>
      <trkpt lat="35.705983" lon="139.555904">
        <time>2024-03-01T08:08:00+09:00</time>
      </trkpt>
      <trkpt lat="35.705563" lon="139.555069">
        <time>2024-03-01T08:08:45+09:00</time>
      </trkpt>
      <trkpt lat="35.704684" lon="139.554507">
        <time>2024-03-01T08:09:30+09:00</time>
      </trkpt>
      <trkpt lat="35.704232" lon="139.553683">
        <time>2024-03-01T08:10:15+09:00</time>
      </trkpt>
      <trkpt lat="35.704664" lon="139.552852">
        <time>2024-03-01T08:11:00+09:00</time>
      </trkpt>
      <trkpt lat="35.704922" lon="139.551976">
        <time>2024-03-01T08:11:45+09:00</time>
      </trkpt>
      <trkpt lat="35.704062" lon="139.551395">
        <time>2024-03-01T08:12:30+09:00</time>
      </trkpt>
      <trkpt lat="35.703035" lon="139.551028">
        <time>2024-03-01T08:13:15+09:00</time>
      </trkpt>
      <trkpt lat="35.701936" lon="139.550835">
        <time>2024-03-01T08:14:00+09:00</time>
      </trkpt>
      <trkpt lat="35.701022" lon="139.551359">
        <time>2024-03-01T08:14:45+09:00</time>
      </trkpt>
      <trkpt lat="35.699913" lon="139.551210">
        <time>2024-03-01T08:15:30+09:00</time>
      </trkpt>
      <trkpt lat="35.698878" lon="139.551562">
        <time>2024-03-01T08:16:15+09:00</time>
      </trkpt>
      <trkpt lat="35.697995" lon="139.552120">
        <time>2024-03-01T08:17:00+09:00</time>
      </trkpt>
      <trkpt lat="35.697564" lon="139.552952">
        <time>2024-03-01T08:17:45+09:00</time>
      </trkpt>
      <trkpt lat="35.696498" lon="139.553239">
        <time>2024-03-01T08:18:30+09:00</time>
      </trkpt>
      <trkpt lat="35.695578" lon="139.552722">
        <time>2024-03-01T08:19:15+09:00</time>
      </trkpt>
      <trkpt lat="35.694604" lon="139.552271">
        <time>2024-03-01T08:20:00+09:00</time>
      </trkpt>
      <trkpt lat="35.693805" lon="139.551638">
        <time>2024-03-01T08:20:45+09:00</time>
      </trkpt>
      <trkpt lat="35.692837" lon="139.551179">
        <time>2024-03-01T08:21:30+09:00</time>
      </trkpt>
      <trkpt lat="35.691796" lon="139.550839">
        <time>2024-03-01T08:22:15+09:00</time>
      </trkpt>
      <trkpt lat="35.690979" lon="139.550220">
        <time>2024-03-01T08:23:00+09:00</time>
      </trkpt>
      <trkpt lat="35.690253" lon="139.550100">
        <time>2024-03-01T08:23:45+09:00</time>
      </trkpt>
      <trkpt lat="35.690100" lon="139.550555">
        <time>2024-03-01T08:24:30+09:00</time>
      </trkpt>
      <trkpt lat="35.690308" lon="139.551439">
        <time>2024-03-01T08:25:15+09:00</time>
      </trkpt>
      <trkpt lat="35.691375" lon="139.551725">
        <time>2024-03-01T08:26:00+09:00</time>
      </trkpt>
      <trkpt lat="35.691748" lon="139.552574">
        <time>2024-03-01T08:26:45+09:00</time>
      </trkpt>
      <trkpt lat="35.691046" lon="139.553277">
        <time>2024-03-01T08:27:30+09:00</time>
      </trkpt>
      <trkpt lat="35.690265" lon="139.553925">
        <time>2024-03-01T08:28:15+09:00</time>
      </trkpt>
      <trkpt lat="35.690100" lon="139.553579">
        <time>2024-03-01T08:29:00+09:00</time>
      </trkpt>
      <trkpt lat="35.691134" lon="139.553934">
        <time>2024-03-01T08:29:45+09:00</time>
      </trkpt>
      <trkpt lat="35.692091" lon="139.554408">
        <time>2024-03-01T08:30:30+09:00</time>
      </trkpt>
      <trkpt lat="35.693181" lon="139.554628">
        <time>2024-03-01T08:31:15+09:00</time>
      </trkpt>
      <trkpt lat="35.694167" lon="139.554193">
        <time>2024-03-01T08:32:00+09:00</time>
      </trkpt>
      <trkpt lat="35.694032" lon="139.553300">
        <time>2024-03-01T08:32:45+09:00</time>
      </trkpt>
      <trkpt lat="35.694180" lon="139.552408">
        <time>2024-03-01T08:33:30+09:00</time>
      </trkpt>
      <trkpt lat="35.695020" lon="139.551808">
        <time>2024-03-01T08:34:15+09:00</time>
      </trkpt>
      <trkpt lat="35.695835" lon="139.551188">
        <time>2024-03-01T08:35:00+09:00</time>
      </trkpt>
      <trkpt lat="35.696763" lon="139.550679">
        <time>2024-03-01T08:35:45+09:00</time>
      </trkpt>
      <trkpt lat="35.697387" lon="139.550100">
        <time>2024-03-01T08:36:30+09:00</time>
      </trkpt>
      <trkpt lat="35.697935" lon="139.550886">
        <time>2024-03-01T08:37:15+09:00</time>
      </trkpt>
      <trkpt lat="35.697508" lon="139.551719">
        <time>2024-03-01T08:38:00+09:00</time>
      </trkpt>
      <trkpt lat="35.696385" lon="139.551771">
        <time>2024-03-01T08:38:45+09:00</time>
      </trkpt>
      <trkpt lat="35.695519" lon="139.551197">
        <time>2024-03-01T08:39:30+09:00</time>
      </trkpt>
      <trkpt lat="35.695108" lon="139.550359">
        <time>2024-03-01T08:40:15+09:00</time>
      </trkpt>
      <trkpt lat="35.694303" lon="139.550100">
        <time>2024-03-01T08:41:00+09:00</time>
      </trkpt>
      <trkpt lat="35.694055" lon="139.550978">
        <time>2024-03-01T08:41:45+09:00</time>
      </trkpt>
      <trkpt lat="35.693133" lon="139.551493">
        <time>2024-03-01T08:42:30+09:00</time>
      </trkpt>
      <trkpt lat="35.692020" lon="139.551360">
        <time>2024-03-01T08:43:15+09:00</time>
      </trkpt>
      <trkpt lat="35.691196" lon="139.551973">
        <time>2024-03-01T08:44:00+09:00</time>
      </trkpt>
      <trkpt lat="35.690109" lon="139.551740">
        <time>2024-03-01T08:44:45+09:00</time>
      </trkpt>
      <trkpt lat="35.690100" lon="139.551971">
        <time>2024-03-01T08:45:30+09:00</time>
      </trkpt>
      <trkpt lat="35.691225" lon="139.551970">
        <time>2024-03-01T08:46:15+09:00</time>
      </trkpt>
      <trkpt lat="35.692322" lon="139.551771">
        <time>2024-03-01T08:47:00+09:00</time>
      </trkpt>
      <trkpt lat="35.693159" lon="139.551170">
        <time>2024-03-01T08:47:45+09:00</time>
      </trkpt>
      <trkpt lat="35.694276" lon="139.551061">
        <time>2024-03-01T08:48:30+09:00</time>
      </trkpt>
      <trkpt lat="35.694746" lon="139.550243">
        <time>2024-03-01T08:49:15+09:00</time>
      </trkpt>
      <trkpt lat="35.695860" lon="139.550122">
        <time>2024-03-01T08:50:00+09:00</time>
      </trkpt>
      <trkpt lat="35.696498" lon="139.550100">
        <time>2024-03-01T08:50:45+09:00</time>
      </trkpt>
      <trkpt lat="35.697188" lon="139.550810">
        <time>2024-03-01T08:51:30+09:00</time>
      </trkpt>
      <trkpt lat="35.697809" lon="139.551561">
        <time>2024-03-01T08:52:15+09:00</time>
      </trkpt>
      <trkpt lat="35.698858" lon="139.551887">
        <time>2024-03-01T08:53:00+09:00</time>
      </trkpt>
      <trkpt lat="35.699772" lon="139.551363">
        <time>2024-03-01T08:53:45+09:00</time>
      </trkpt>
      <trkpt lat="35.700875" lon="139.551542">
        <time>2024-03-01T08:54:30+09:00</time>
      </trkpt>
      <trkpt lat="35.701656" lon="139.552189">
        <time>2024-03-01T08:55:15+09:00</time>
      </trkpt>
      <trkpt lat="35.701662" lon="139.553089">
        <time>2024-03-01T08:56:00+09:00</time>
      </trkpt>
      <trkpt lat="35.701410" lon="139.553967">
        <time>2024-03-01T08:56:45+09:00</time>
      </trkpt>
      <trkpt lat="35.702147" lon="139.554647">
        <time>2024-03-01T08:57:30+09:00</time>
      </trkpt>
      <trkpt lat="35.703222" lon="139.554381">
        <time>2024-03-01T08:58:15+09:00</time>
      </trkpt>
      <trkpt lat="35.703565" lon="139.553524">
        <time>2024-03-01T08:59:00+09:00</time>
      </trkpt>
      <trkpt lat="35.704637" lon="139.553250">
        <time>2024-03-01T08:59:45+09:00</time>
      </trkpt>
      <trkpt lat="35.705676" lon="139.552906">
        <time>2024-03-01T09:38:30+09:00</time>
      </trkpt>
      <trkpt lat="35.705768" lon="139.552009">
        <time>2024-03-01T09:39:15+09:00</time>
      </trkpt>
      <trkpt lat="35.705370" lon="139.551168">
        <time>2024-03-01T09:40:00+09:00</time>
      </trkpt>
      <trkpt lat="35.705703" lon="139.550308">
        <time>2024-03-01T09:40:45+09:00</time>
      </trkpt>
      <trkpt lat="35.704824" lon="139.550100">
        <time>2024-03-01T09:41:30+09:00</time>
      </trkpt>
      <trkpt lat="35.703996" lon="139.550709">
        <time>2024-03-01T09:42:15+09:00</time>
      </trkpt>
      <trkpt lat="35.703649" lon="139.551565">
        <time>2024-03-01T09:43:00+09:00</time>
      </trkpt>
      <trkpt lat="35.702606" lon="139.551902">
        <time>2024-03-01T09:43:45+09:00</time>
      </trkpt>
      <trkpt lat="35.701481" lon="139.551912">
        <time>2024-03-01T09:44:30+09:00</time>
      </trkpt>
      <trkpt lat="35.700356" lon="139.551926">
        <time>2024-03-01T09:45:15+09:00</time>
      </trkpt>
      <trkpt lat="35.699811" lon="139.552713">
        <time>2024-03-01T09:46:00+09:00</time>
      </trkpt>
      <trkpt lat="35.698731" lon="139.552964">
        <time>2024-03-01T09:46:45+09:00</time>
      </trkpt>
      <trkpt lat="35.697639" lon="139.552748">
        <time>2024-03-01T09:47:30+09:00</time>
      </trkpt>
      <trkpt lat="35.696993" lon="139.553485">
        <time>2024-03-01T09:48:15+09:00</time>
      </trkpt>
      <trkpt lat="35.696566" lon="139.554317">
        <time>2024-03-01T09:49:00+09:00</time>
      </trkpt>
      <trkpt lat="35.696736" lon="139.555207">
        <time>2024-03-01T09:49:45+09:00</time>
      </trkpt>
      <trkpt lat="35.697620" lon="139.555763">
        <time>2024-03-01T09:50:30+09:00</time>
      </trkpt>
      <trkpt lat="35.697517" lon="139.556659">
        <time>2024-03-01T09:51:15+09:00</time>
      </trkpt>
      <trkpt lat="35.698149" lon="139.557404">
        <time>2024-03-01T09:52:00+09:00</time>
      </trkpt>
      <trkpt lat="35.698741" lon="139.558169">
        <time>2024-03-01T09:52:45+09:00</time>
      </trkpt>
      <trkpt lat="35.698074" lon="139.558894">
        <time>2024-03-01T09:53:30+09:00</time>
      </trkpt>
      <trkpt lat="35.697533" lon="139.559683">
        <time>2024-03-01T09:54:15+09:00</time>
      </trkpt>
      <trkpt lat="35.696627" lon="139.560217">
        <time>2024-03-01T09:55:00+09:00</time>
      </trkpt>
      <trkpt lat="35.695581" lon="139.559884">
        <time>2024-03-01T09:55:45+09:00</time>
      </trkpt>
      <trkpt lat="35.695476" lon="139.558988">
        <time>2024-03-01T09:56:30+09:00</time>
      </trkpt>
      <trkpt lat="35.695958" lon="139.558175">
        <time>2024-03-01T09:57:15+09:00</time>
      </trkpt>
      <trkpt lat="35.696007" lon="139.557276">
        <time>2024-03-01T09:58:00+09:00</time>
      </trkpt>
      <trkpt lat="35.697025" lon="139.556893">
        <time>2024-03-01T09:58:45+09:00</time>
      </trkpt>
      <trkpt lat="35.697281" lon="139.556017">
        <time>2024-03-01T09:59:30+09:00</time>
      </trkpt>
      <trkpt lat="35.696982" lon="139.555149">
        <time>2024-03-01T10:00:15+09:00</time>
      </trkpt>
      <trkpt lat="35.696629" lon="139.554295">
        <time>2024-03-01T10:01:00+09:00</time>
      </trkpt>
      <trkpt lat="35.696486" lon="139.553402">
        <time>2024-03-01T10:01:45+09:00</time>
      </trkpt>
      <trkpt lat="35.696856" lon="139.552552">
        <time>2024-03-01T10:02:30+09:00</time>
      </trkpt>
      <trkpt lat="35.697566" lon="139.551854">
        <time>2024-03-01T10:03:15+09:00</time>
      </trkpt>
      <trkpt lat="35.698184" lon="139.551102">
        <time>2024-03-01T10:04:00+09:00</time>
      </trkpt>
      <trkpt lat="35.698381" lon="139.550216">
        <time>2024-03-01T10:04:45+09:00</time>
      </trkpt>
      <trkpt lat="35.698580" lon="139.550100">
        <time>2024-03-01T10:05:30+09:00</time>
      </trkpt>
      <trkpt lat="35.698120" lon="139.550921">
        <time>2024-03-01T10:06:15+09:00</time>
      </trkpt>
      <trkpt lat="35.697087" lon="139.551276">
        <time>2024-03-01T10:07:00+09:00</time>
      </trkpt>
      <trkpt lat="35.696252" lon="139.550672">
        <time>2024-03-01T10:07:45+09:00</time>
      </trkpt>
      <trkpt lat="35.695152" lon="139.550860">
        <time>2024-03-01T10:08:30+09:00</time>
      </trkpt>
      <trkpt lat="35.694472" lon="139.551577">
        <time>2024-03-01T10:09:15+09:00</time>
      </trkpt>
      <trkpt lat="35.693350" lon="139.551640">
        <time>2024-03-01T10:10:00+09:00</time>
      </trkpt>
      <trkpt lat="35.692264" lon="139.551875">
        <time>2024-03-01T10:10:45+09:00</time>
      </trkpt>
      <trkpt lat="35.691139" lon="139.551876">
        <time>2024-03-01T10:11:30+09:00</time>
      </trkpt>
      <trkpt lat="35.690047" lon="139.551660">
        <time>2024-03-01T10:12:15+09:00</time>
      </trkpt>
      <trkpt lat="35.690100" lon="139.551100">
        <time>2024-03-01T10:13:00+09:00</time>
      </trkpt>
      <trkpt lat="35.690834" lon="139.550418">
        <time>2024-03-01T10:13:45+09:00</time>
      </trkpt>
      <trkpt lat="35.690957" lon="139.550100">
        <time>2024-03-01T10:14:30+09:00</time>
      </trkpt>
      <trkpt lat="35.690202" lon="139.550767">
        <time>2024-03-01T10:15:15+09:00</time>
      </trkpt>
      <trkpt lat="35.690100" lon="139.551467">
        <time>2024-03-01T10:16:00+09:00</time>
      </trkpt>
      <trkpt lat="35.690100" lon="139.552350">
        <time>2024-03-01T10:16:45+09:00</time>
      </trkpt>
      <trkpt lat="35.690100" lon="139.553162">
        <time>2024-03-01T10:17:30+09:00</time>
      </trkpt>
      <trkpt lat="35.691168" lon="139.553445">
        <time>2024-03-01T10:18:15+09:00</time>
      </trkpt>
      <trkpt lat="35.691913" lon="139.554119">
        <time>2024-03-01T10:19:00+09:00</time>
      </trkpt>
      <trkpt lat="35.692904" lon="139.554545">
        <time>2024-03-01T10:19:45+09:00</time>
      </trkpt>
      <trkpt lat="35.693893" lon="139.554116">
        <time>2024-03-01T10:20:30+09:00</time>
      </trkpt>
      <trkpt lat="35.694839" lon="139.554604">
        <time>2024-03-01T10:21:15+09:00</time>
      </trkpt>
      <trkpt lat="35.695209" lon="139.555454">
        <time>2024-03-01T10:22:00+09:00</time>
      </trkpt>
      <trkpt lat="35.694674" lon="139.556245">
        <time>2024-03-01T10:22:45+09:00</time>
      </trkpt>
      <trkpt lat="35.693557" lon="139.556352">
        <time>2024-03-01T10:23:30+09:00</time>
      </trkpt>
      <trkpt lat="35.693004" lon="139.557136">
        <time>2024-03-01T10:24:15+09:00</time>
      </trkpt>
      <trkpt lat="35.692037" lon="139.557595">
        <time>2024-03-01T10:25:00+09:00</time>
      </trkpt>
      <trkpt lat="35.690954" lon="139.557841">
        <time>2024-03-01T10:25:45+09:00</time>
      </trkpt>
      <trkpt lat="35.690100" lon="139.558213">
        <time>2024-03-01T10:26:30+09:00</time>
      </trkpt>
      <trkpt lat="35.691194" lon="139.558004">
        <time>2024-03-01T10:27:15+09:00</time>
      </trkpt>
      <trkpt lat="35.692037" lon="139.557408">
        <time>2024-03-01T10:28:00+09:00</time>
      </trkpt>
      <trkpt lat="35.693053" lon="139.557795">
        <time>2024-03-01T10:28:45+09:00</time>
      </trkpt>
      <trkpt lat="35.694176" lon="139.557850">
        <time>2024-03-01T10:29:30+09:00</time>
      </trkpt>
      <trkpt lat="35.695176" lon="139.558263">
        <time>2024-03-01T10:30:15+09:00</time>
      </trkpt>
      <trkpt lat="35.696248" lon="139.557989">
        <time>2024-03-01T10:31:00+09:00</time>
      </trkpt>
      <trkpt lat="35.696392" lon="139.557097">
        <time>2024-03-01T10:31:45+09:00</time>
      </trkpt>
      <trkpt lat="35.697459" lon="139.556812">
        <time>2024-03-01T10:32:30+09:00</time>
      </trkpt>
      <trkpt lat="35.698266" lon="139.557439">
        <time>2024-03-01T10:33:15+09:00</time>
      </trkpt>
      <trkpt lat="35.698221" lon="139.558338">
        <time>2024-03-01T10:34:00+09:00</time>
      </trkpt>
      <trkpt lat="35.697281" lon="139.558832">
        <time>2024-03-01T10:34:45+09:00</time>
      </trkpt>
      <trkpt lat="35.696181" lon="139.558640">
        <time>2024-03-01T10:35:30+09:00</time>
      </trkpt>
      <trkpt lat="35.695086" lon="139.558844">
        <time>2024-03-01T10:36:15+09:00</time>
      </trkpt>
      <trkpt lat="35.694135" lon="139.559325">
        <time>2024-03-01T10:37:00+09:00</time>
      </trkpt>
      <trkpt lat="35.693125" lon="139.558927">
        <time>2024-03-01T10:37:45+09:00</time>
      </trkpt>
      <trkpt lat="35.692003" lon="139.558995">
        <time>2024-03-01T10:38:30+09:00</time>
      </trkpt>
      <trkpt lat="35.690895" lon="139.559150">
        <time>2024-03-01T10:39:15+09:00</time>
      </trkpt>
      <trkpt lat="35.690098" lon="139.559786">
        <time>2024-03-01T10:40:00+09:00</time>
      </trkpt>
      <trkpt lat="35.690100" lon="139.559768">
        <time>2024-03-01T10:40:45+09:00</time>
      </trkpt>
      <trkpt lat="35.691205" lon="139.559600">
        <time>2024-03-01T10:41:30+09:00</time>
      </trkpt>
      <trkpt lat="35.692046" lon="139.560198">
        <time>2024-03-01T10:42:15+09:00</time>
      </trkpt>
      <trkpt lat="35.693141" lon="139.560406">
        <time>2024-03-01T10:43:00+09:00</time>
      </trkpt>
      <trkpt lat="35.693952" lon="139.561030">
        <time>2024-03-01T10:43:45+09:00</time>
      </trkpt>
      <trkpt lat="35.693663" lon="139.561900">
        <time>2024-03-01T10:44:30+09:00</time>
      </trkpt>
      <trkpt lat="35.692738" lon="139.562412">
        <time>2024-03-01T10:45:15+09:00</time>
      </trkpt>
      <trkpt lat="35.692207" lon="139.563205">
        <time>2024-03-01T10:46:00+09:00</time>
      </trkpt>
      <trkpt lat="35.691142" lon="139.563495">
        <time>2024-03-01T10:46:45+09:00</time>
      </trkpt>
      <trkpt lat="35.690065" lon="139.563234">
        <time>2024-03-01T10:47:30+09:00</time>
      </trkpt>
      <trkpt lat="35.690100" lon="139.563661">
        <time>2024-03-01T10:48:15+09:00</time>
      </trkpt>
      <trkpt lat="35.690975" lon="139.564226">
        <time>2024-03-01T10:49:00+09:00</time>
      </trkpt>
      <trkpt lat="35.691632" lon="139.564957">
        <time>2024-03-01T10:49:45+09:00</time>
      </trkpt>
      <trkpt lat="35.692602" lon="139.565413">
        <time>2024-03-01T10:50:30+09:00</time>
      </trkpt>
      <trkpt lat="35.693089" lon="139.566225">
        <time>2024-03-01T10:51:15+09:00</time>
      </trkpt>
      <trkpt lat="35.693521" lon="139.567056">
        <time>2024-03-01T10:52:00+09:00</time>
      </trkpt>
      <trkpt lat="35.693870" lon="139.567911">
        <time>2024-03-01T10:52:45+09:00</time>
      </trkpt>
      <trkpt lat="35.693371" lon="139.568718">
        <time>2024-03-01T10:53:30+09:00</time>
      </trkpt>
      <trkpt lat="35.692785" lon="139.569486">
        <time>2024-03-01T10:54:15+09:00</time>
      </trkpt>
      <trkpt lat="35.692707" lon="139.570384">
        <time>2024-03-01T10:55:00+09:00</time>
      </trkpt>
      <trkpt lat="35.692378" lon="139.571244">
        <time>2024-03-01T10:55:45+09:00</time>
      </trkpt>
      <trkpt lat="35.692508" lon="139.572138">
        <time>2024-03-01T10:56:30+09:00</time>
      </trkpt>
      <trkpt lat="35.692516" lon="139.573038">
        <time>2024-03-01T10:57:15+09:00</time>
      </trkpt>
      <trkpt lat="35.692255" lon="139.573914">
        <time>2024-03-01T10:58:00+09:00</time>
      </trkpt>
      <trkpt lat="35.691573" lon="139.574630">
        <time>2024-03-01T10:58:45+09:00</time>
      </trkpt>
      <trkpt lat="35.690881" lon="139.575339">
        <time>2024-03-01T10:59:30+09:00</time>
      </trkpt>
      <trkpt lat="35.690100" lon="139.575652">
        <time>2024-03-01T11:00:15+09:00</time>
      </trkpt>
      <trkpt lat="35.691069" lon="139.576110">
        <time>2024-03-01T11:01:00+09:00</time>
      </trkpt>
      <trkpt lat="35.691942" lon="139.576677">
        <time>2024-03-01T11:01:45+09:00</time>
      </trkpt>
      <trkpt lat="35.693029" lon="139.576908">
        <time>2024-03-01T11:02:30+09:00</time>
      </trkpt>
      <trkpt lat="35.693718" lon="139.577620">
        <time>2024-03-01T11:03:15+09:00</time>
      </trkpt>
      <trkpt lat="35.694228" lon="139.578422">
        <time>2024-03-01T11:04:00+09:00</time>
      </trkpt>
    </trkseg>
  </trk>
</gpx>
