<?xml version="1.0" encoding="UTF-8"?>
<gpx version="1.1" creator="trajectory-viz demo" xmlns="http://www.topografix.com/GPX/1/1">
  <trk>
    <name>courier-04</name>
    <trkseg>
      <trkpt lat="35.704653" lon="139.584043">
        <time>2024-02-29T22:49:00Z</time>
      </trkpt>
      <trkpt lat="35.705459" lon="139.583415">
        <time>2024-02-29T22:49:45Z</time>
      </trkpt>
      <trkpt lat="35.706552" lon="139.583631">
        <time>2024-02-29T22:50:30Z</time>
      </trkpt>
      <trkpt lat="35.707667" lon="139.583511">
        <time>2024-02-29T22:51:15Z</time>
      </trkpt>
      <trkpt lat="35.708754" lon="139.583741">
        <time>2024-02-29T22:52:00Z</time>
      </trkpt>
      <trkpt lat="35.709674" lon="139.584259">
        <time>2024-02-29T22:52:45Z</time>
      </trkpt>
      <trkpt lat="35.709900" lon="139.584513">
        <time>2024-02-29T22:53:30Z</time>
      </trkpt>
      <trkpt lat="35.709447" lon="139.585337">
        <time>2024-02-29T22:54:15Z</time>
      </trkpt>
      <trkpt lat="35.709115" lon="139.586197">
        <time>2024-02-29T22:55:00Z</time>
      </trkpt>
      <trkpt lat="35.709645" lon="139.586991">
        <time>2024-02-29T22:55:45Z</time>
      </trkpt>
      <trkpt lat="35.709900" lon="139.587727">
        <time>2024-02-29T22:56:30Z</time>
      </trkpt>
      <trkpt lat="35.709914" lon="139.588627">
        <time>2024-02-29T22:57:15Z</time>
      </trkpt>
      <trkpt lat="35.709900" lon="139.589315">
        <time>2024-02-29T22:58:00Z</time>
      </trkpt>
      <trkpt lat="35.709114" lon="139.589958">
        <time>2024-02-29T22:58:45Z</time>
      </trkpt>
      <trkpt lat="35.708069" lon="139.589624">
        <time>2024-02-29T22:59:30Z</time>
      </trkpt>
      <trkpt lat="35.707002" lon="139.589339">
        <time>2024-02-29T23:00:15Z</time>
      </trkpt>
      <trkpt lat="35.705878" lon="139.589366">
        <time>2024-02-29T23:01:00Z</time>
      </trkpt>
      <trkpt lat="35.705106" lon="139.588711">
        <time>2024-02-29T23:01:45Z</time>
      </trkpt>
      <trkpt lat="35.703994" lon="139.588851">
        <time>2024-02-29T23:02:30Z</time>
      </trkpt>
      <trkpt lat="35.703052" lon="139.589342">
        <time>2024-02-29T23:03:15Z</time>
      </trkpt>
      <trkpt lat="35.702766" lon="139.590213">
        <time>2024-02-29T23:04:00Z</time>
      </trkpt>
      <trkpt lat="35.701704" lon="139.590511">
        <time>2024-02-29T23:04:45Z</time>
      </trkpt>
      <trkpt lat="35.700678" lon="139.590143">
        <time>2024-02-29T23:05:30Z</time>
      </trkpt>
      <trkpt lat="35.699646" lon="139.590501">
        <time>2024-02-29T23:06:15Z</time>
      </trkpt>
      <trkpt lat="35.699439" lon="139.591386">
        <time>2024-02-29T23:07:00Z</time>
      </trkpt>
      <trkpt lat="35.698642" lon="139.592021">
        <time>2024-02-29T23:07:45Z</time>
      </trkpt>
      <trkpt lat="35.698210" lon="139.592853">
        <time>2024-02-29T23:08:30Z</time>
      </trkpt>
      <trkpt lat="35.698464" lon="139.593729">
        <time>2024-02-29T23:09:15Z</time>
      </trkpt>
      <trkpt lat="35.699569" lon="139.593896">
        <time>2024-02-29T23:10:00Z</time>
      </trkpt>
      <trkpt lat="35.700689" lon="139.593811">
        <time>2024-02-29T23:10:45Z</time>
      </trkpt>
      <trkpt lat="35.701592" lon="139.594348">
        <time>2024-02-29T23:11:30Z</time>
      </trkpt>
      <trkpt lat="35.702611" lon="139.593966">
        <time>2024-02-29T23:12:15Z</time>
      </trkpt>
      <trkpt lat="35.703698" lon="139.594197">
        <time>2024-02-29T23:13:00Z</time>
      </trkpt>
      <trkpt lat="35.704459" lon="139.593535">
        <time>2024-02-29T23:13:45Z</time>
      </trkpt>
      <trkpt lat="35.705422" lon="139.593069">
        <time>2024-02-29T23:14:30Z</time>
      </trkpt>
      <trkpt lat="35.706526" lon="139.593242">
        <time>2024-02-29T23:15:15Z</time>
      </trkpt>
      <trkpt lat="35.707422" lon="139.592698">
        <time>2024-02-29T23:16:00Z</time>
      </trkpt>
      <trkpt lat="35.708323" lon="139.592159">
        <time>2024-02-29T23:16:45Z</time>
      </trkpt>
      <trkpt lat="35.709185" lon="139.591581">
        <time>2024-02-29T23:17:30Z</time>
      </trkpt>
      <trkpt lat="35.709072" lon="139.590685">
        <time>2024-02-29T23:18:15Z</time>
      </trkpt>
      <trkpt lat="35.708966" lon="139.589789">
        <time>2024-02-29T23:19:00Z</time>
      </trkpt>
      <trkpt lat="35.709756" lon="139.589148">
        <time>2024-02-29T23:19:45Z</time>
      </trkpt>
      <trkpt lat="35.709900" lon="139.588797">
        <time>2024-02-29T23:20:30Z</time>
      </trkpt>
      <trkpt lat="35.708844" lon="139.589108">
        <time>2024-02-29T23:21:15Z</time>
      </trkpt>
      <trkpt lat="35.707935" lon="139.588578">
        <time>2024-02-29T23:22:00Z</time>
      </trkpt>
      <trkpt lat="35.707148" lon="139.587935">
        <time>2024-02-29T23:22:45Z</time>
      </trkpt>
      <trkpt lat="35.707592" lon="139.587109">
        <time>2024-02-29T23:23:30Z</time>
      </trkpt>
      <trkpt lat="35.706775" lon="139.586490">
        <time>2024-02-29T23:24:15Z</time>
      </trkpt>
      <trkpt lat="35.706040" lon="139.585809">
        <time>2024-02-29T23:25:00Z</time>
      </trkpt>
      <trkpt lat="35.704934" lon="139.585974">
        <time>2024-02-29T23:25:45Z</time>
      </trkpt>
      <trkpt lat="35.703811" lon="139.586023">
        <time>2024-02-29T23:26:30Z</time>
      </trkpt>
      <trkpt lat="35.702764" lon="139.585694">
        <time>2024-02-29T23:27:15Z</time>
      </trkpt>
      <trkpt lat="35.701657" lon="139.585857">
        <time>2024-02-29T23:28:00Z</time>
      </trkpt>
      <trkpt lat="35.700869" lon="139.585214">
        <time>2024-02-29T23:28:45Z</time>
      </trkpt>
      <trkpt lat="35.700947" lon="139.584316">
        <time>2024-02-29T23:29:30Z</time>
      </trkpt>
      <trkpt lat="35.701321" lon="139.583467">
        <time>2024-02-29T23:30:15Z</time>
      </trkpt>
      <trkpt lat="35.702406" lon="139.583229">
        <time>2024-02-29T23:31:00Z</time>
      </trkpt>
      <trkpt lat="35.702627" lon="139.582347">
        <time>2024-02-29T23:31:45Z</time>
      </trkpt>
      <trkpt lat="35.702131" lon="139.581539">
        <time>2024-02-29T23:32:30Z</time>
      </trkpt>
      <trkpt lat="35.701008" lon="139.581479">
        <time>2024-02-29T23:33:15Z</time>
      </trkpt>
      <trkpt lat="35.700631" lon="139.580631">
        <time>2024-02-29T23:34:00Z</time>
      </trkpt>
      <trkpt lat="35.699516" lon="139.580510">
        <time>2024-02-29T23:34:45Z</time>
      </trkpt>
      <trkpt lat="35.698392" lon="139.580480">
        <time>2024-02-29T23:35:30Z</time>
      </trkpt>
      <trkpt lat="35.697362" lon="139.580119">
        <time>2024-02-29T23:36:15Z</time>
      </trkpt>
      <trkpt lat="35.696239" lon="139.580183">
        <time>2024-02-29T23:37:00Z</time>
      </trkpt>
      <trkpt lat="35.695278" lon="139.580650">
        <time>2024-02-29T23:37:45Z</time>
      </trkpt>
      <trkpt lat="35.694291" lon="139.581082">
        <time>2024-02-29T23:38:30Z</time>
      </trkpt>
      <trkpt lat="35.693525" lon="139.581742">
        <time>2024-02-29T23:39:15Z</time>
      </trkpt>
      <trkpt lat="35.693384" lon="139.582634">
        <time>2024-02-29T23:40:00Z</time>
      </trkpt>
      <trkpt lat="35.692579" lon="139.583263">
        <time>2024-02-29T23:40:45Z</time>
      </trkpt>
      <trkpt lat="35.692196" lon="139.584109">
        <time>2024-02-29T23:41:30Z</time>
      </trkpt>
      <trkpt lat="35.692390" lon="139.584996">
        <time>2024-02-29T23:42:15Z</time>
      </trkpt>
      <trkpt lat="35.692751" lon="139.585848">
        <time>2024-02-29T23:43:00Z</time>
      </trkpt>
      <trkpt lat="35.693307" lon="139.586631">
        <time>2024-02-29T23:43:45Z</time>
      </trkpt>
      <trkpt lat="35.693466" lon="139.587522">
        <time>2024-02-29T23:44:30Z</time>
      </trkpt>
      <trkpt lat="35.693352" lon="139.588417">
        <time>2024-02-29T23:45:15Z</time>
      </trkpt>
      <trkpt lat="35.694287" lon="139.588917">
        <time>2024-02-29T23:46:00Z</time>
      </trkpt>
      <trkpt lat="35.694512" lon="139.589799">
        <time>2024-02-29T23:46:45Z</time>
      </trkpt>
      <trkpt lat="35.695178" lon="139.590525">
        <time>2024-02-29T23:47:30Z</time>
      </trkpt>
      <trkpt lat="35.696090" lon="139.591052">
        <time>2024-02-29T23:48:15Z</time>
      </trkpt>
      <trkpt lat="35.695941" lon="139.591944">
        <time>2024-02-29T23:49:00Z</time>
      </trkpt>
      <trkpt lat="35.696889" lon="139.592428">
        <time>2024-02-29T23:49:45Z</time>
      </trkpt>
      <trkpt lat="35.697875" lon="139.591995">
        <time>2024-02-29T23:50:30Z</time>
      </trkpt>
      <trkpt lat="35.698009" lon="139.591101">
        <time>2024-02-29T23:51:15Z</time>
      </trkpt>
      <trkpt lat="35.698743" lon="139.590420">
        <time>2024-02-29T23:52:00Z</time>
      </trkpt>
      <trkpt lat="35.699831" lon="139.590647">
        <time>2024-02-29T23:52:45Z</time>
      </trkpt>
      <trkpt lat="35.700704" lon="139.590080">
        <time>2024-02-29T23:53:30Z</time>
      </trkpt>
      <trkpt lat="35.701760" lon="139.590390">
        <time>2024-02-29T23:54:15Z</time>
      </trkpt>
      <trkpt lat="35.702190" lon="139.591221">
        <time>2024-02-29T23:55:00Z</time>
      </trkpt>
      <trkpt lat="35.701774" lon="139.592057">
        <time>2024-02-29T23:55:45Z</time>
      </trkpt>
      <trkpt lat="35.702063" lon="139.592927">
        <time>2024-02-29T23:56:30Z</time>
      </trkpt>
      <trkpt lat="35.703051" lon="139.593358">
        <time>2024-02-29T23:57:15Z</time>
      </trkpt>
      <trkpt lat="35.703023" lon="139.594257">
        <time>2024-02-29T23:58:00Z</time>
      </trkpt>
      <trkpt lat="35.703198" lon="139.595146">
        <time>2024-02-29T23:58:45Z</time>
      </trkpt>
      <trkpt lat="35.704204" lon="139.595550">
        <time>2024-02-29T23:59:30Z</time>
      </trkpt>
      <trkpt lat="35.704818" lon="139.596304">
        <time>2024-03-01T00:00:15Z</time>
      </trkpt>
      <trkpt lat="35.705930" lon="139.596166">
        <time>2024-03-01T00:01:00Z</time>
      </trkpt>
      <trkpt lat="35.706721" lon="139.595527">
        <time>2024-03-01T00:01:45Z</time>
      </trkpt>
      <trkpt lat="35.707568" lon="139.594935">
        <time>2024-03-01T00:02:30Z</time>
      </trkpt>
      <trkpt lat="35.708675" lon="139.595096">
        <time>2024-03-01T00:03:15Z</time>
      </trkpt>
      <trkpt lat="35.709370" lon="139.594387">
        <time>2024-03-01T00:04:00Z</time>
      </trkpt>
      <trkpt lat="35.709900" lon="139.594658">
        <time>2024-03-01T00:04:45Z</time>
      </trkpt>
      <trkpt lat="35.709418" lon="139.595471">
        <time>2024-03-01T00:05:30Z</time>
      </trkpt>
      <trkpt lat="35.708562" lon="139.596055">
        <time>2024-03-01T00:06:15Z</time>
      </trkpt>
      <trkpt lat="35.708455" lon="139.596951">
        <time>2024-03-01T00:07:00Z</time>
      </trkpt>
      <trkpt lat="35.708945" lon="139.597761">
        <time>2024-03-01T00:07:45Z</time>
      </trkpt>
      <trkpt lat="35.709311" lon="139.598612">
        <time>2024-03-01T00:08:30Z</time>
      </trkpt>
      <trkpt lat="35.708971" lon="139.599470">
        <time>2024-03-01T00:09:15Z</time>
      </trkpt>
      <trkpt lat="35.709307" lon="139.599900">
        <time>2024-03-01T00:10:00Z</time>
      </trkpt>
      <trkpt lat="35.709322" lon="139.599000">
        <time>2024-03-01T00:10:45Z</time>
      </trkpt>
      <trkpt lat="35.709275" lon="139.598101">
        <time>2024-03-01T00:11:30Z</time>
      </trkpt>
      <trkpt lat="35.709061" lon="139.597217">
        <time>2024-03-01T00:12:15Z</time>
      </trkpt>
      <trkpt lat="35.708271" lon="139.596577">
        <time>2024-03-01T00:13:00Z</time>
      </trkpt>
      <trkpt lat="35.707240" lon="139.596216">
        <time>2024-03-01T00:13:45Z</time>
      </trkpt>
      <trkpt lat="35.706316" lon="139.596730">
        <time>2024-03-01T00:14:30Z</time>
      </trkpt>
      <trkpt lat="35.705299" lon="139.597114">
        <time>2024-03-01T00:15:15Z</time>
      </trkpt>
      <trkpt lat="35.704191" lon="139.597268">
        <time>2024-03-01T00:16:00Z</time>
      </trkpt>
      <trkpt lat="35.703368" lon="139.596655">
        <time>2024-03-01T00:16:45Z</time>
      </trkpt>
      <trkpt lat="35.702952" lon="139.595819">
        <time>2024-03-01T00:17:30Z</time>
      </trkpt>
      <trkpt lat="35.703405" lon="139.594995">
        <time>2024-03-01T00:18:15Z</time>
      </trkpt>
      <trkpt lat="35.703840" lon="139.594165">
        <time>2024-03-01T00:19:00Z</time>
      </trkpt>
      <trkpt lat="35.704743" lon="139.593628">
        <time>2024-03-01T00:19:45Z</time>
      </trkpt>
      <trkpt lat="35.705817" lon="139.593898">
        <time>2024-03-01T00:20:30Z</time>
      </trkpt>
      <trkpt lat="35.706027" lon="139.594782">
        <time>2024-03-01T00:21:15Z</time>
      </trkpt>
      <trkpt lat="35.705146" lon="139.595341">
        <time>2024-03-01T00:22:00Z</time>
      </trkpt>
      <trkpt lat="35.704023" lon="139.595284">
        <time>2024-03-01T00:22:45Z</time>
      </trkpt>
      <trkpt lat="35.703156" lon="139.595857">
        <time>2024-03-01T00:23:30Z</time>
      </trkpt>
      <trkpt lat="35.702031" lon="139.595878">
        <time>2024-03-01T00:24:15Z</time>
      </trkpt>
      <trkpt lat="35.701413" lon="139.596630">
        <time>2024-03-01T01:07:00Z</time>
      </trkpt>
      <trkpt lat="35.701741" lon="139.597490">
        <time>2024-03-01T01:07:45Z</time>
      </trkpt>
      <trkpt lat="35.701354" lon="139.598335">
        <time>2024-03-01T01:08:30Z</time>
      </trkpt>
      <trkpt lat="35.700433" lon="139.598852">
        <time>2024-03-01T01:09:15Z</time>
      </trkpt>
      <trkpt lat="35.699466" lon="139.598392">
        <time>2024-03-01T01:10:00Z</time>
      </trkpt>
      <trkpt lat="35.698439" lon="139.598025">
        <time>2024-03-01T01:10:45Z</time>
      </trkpt>
      <trkpt lat="35.697488" lon="139.597545">
        <time>2024-03-01T01:11:30Z</time>
      </trkpt>
      <trkpt lat="35.697633" lon="139.596652">
        <time>2024-03-01T01:12:15Z</time>
      </trkpt>
      <trkpt lat="35.698244" lon="139.595896">
        <time>2024-03-01T01:13:00Z</time>
      </trkpt>
      <trkpt lat="35.697617" lon="139.595149">
        <time>2024-03-01T01:13:45Z</time>
      </trkpt>
      <trkpt lat="35.696503" lon="139.595019">
        <time>2024-03-01T01:14:30Z</time>
      </trkpt>
      <trkpt lat="35.695543" lon="139.595489">
        <time>2024-03-01T01:15:15Z</time>
      </trkpt>
      <trkpt lat="35.694423" lon="139.595404">
        <time>2024-03-01T01:16:00Z</time>
      </trkpt>
      <trkpt lat="35.693370" lon="139.595089">
        <time>2024-03-01T01:16:45Z</time>
      </trkpt>
      <trkpt lat="35.692604" lon="139.594429">
        <time>2024-03-01T01:17:30Z</time>
      </trkpt>
      <trkpt lat="35.691991" lon="139.593675">
        <time>2024-03-01T01:18:15Z</time>
      </trkpt>
      <trkpt lat="35.690885" lon="139.593508">
        <time>2024-03-01T01:19:00Z</time>
      </trkpt>
      <trkpt lat="35.690444" lon="139.592681">
        <time>2024-03-01T01:19:45Z</time>
      </trkpt>
      <trkpt lat="35.690100" lon="139.592324">
        <time>2024-03-01T01:20:30Z</time>
      </trkpt>
      <trkpt lat="35.691076" lon="139.592771">
        <time>2024-03-01T01:21:15Z</time>
      </trkpt>
      <trkpt lat="35.692175" lon="139.592963">
        <time>2024-03-01T01:22:00Z</time>
      </trkpt>
      <trkpt lat="35.692327" lon="139.593855">
        <time>2024-03-01T01:22:45Z</time>
      </trkpt>
      <trkpt lat="35.692663" lon="139.594714">
        <time>2024-03-01T01:23:30Z</time>
      </trkpt>
      <trkpt lat="35.693739" lon="139.594975">
        <time>2024-03-01T01:24:15Z</time>
      </trkpt>
      <trkpt lat="35.694208" lon="139.595793">
        <time>2024-03-01T01:25:00Z</time>
      </trkpt>
      <trkpt lat="35.694193" lon="139.596693">
        <time>2024-03-01T01:25:45Z</time>
      </trkpt>
      <trkpt lat="35.694444" lon="139.597571">
        <time>2024-03-01T01:26:30Z</time>
      </trkpt>
      <trkpt lat="35.694462" lon="139.598470">
        <time>2024-03-01T01:27:15Z</time>
      </trkpt>
      <trkpt lat="35.693678" lon="139.599116">
        <time>2024-03-01T01:28:00Z</time>
      </trkpt>
      <trkpt lat="35.692554" lon="139.599081">
        <time>2024-03-01T01:28:45Z</time>
      </trkpt>
      <trkpt lat="35.691457" lon="139.598881">
        <time>2024-03-01T01:29:30Z</time>
      </trkpt>
      <trkpt lat="35.690335" lon="139.598948">
        <time>2024-03-01T01:30:15Z</time>
      </trkpt>
      <trkpt lat="35.690100" lon="139.599090">
        <time>2024-03-01T01:31:00Z</time>
      </trkpt>
      <trkpt lat="35.691012" lon="139.598562">
        <time>2024-03-01T01:31:45Z</time>
      </trkpt>
      <trkpt lat="35.692093" lon="139.598313">
        <time>2024-03-01T01:32:30Z</time>
      </trkpt>
      <trkpt lat="35.693199" lon="139.598151">
        <time>2024-03-01T01:33:15Z</time>
      </trkpt>
      <trkpt lat="35.693818" lon="139.598902">
        <time>2024-03-01T01:34:00Z</time>
      </trkpt>
      <trkpt lat="35.694915" lon="139.599102">
        <time>2024-03-01T01:34:45Z</time>
      </trkpt>
      <trkpt lat="35.695987" lon="139.598827">
        <time>2024-03-01T01:35:30Z</time>
      </trkpt>
      <trkpt lat="35.696893" lon="139.599360">
        <time>2024-03-01T01:36:15Z</time>
      </trkpt>
      <trkpt lat="35.697433" lon="139.599900">
        <time>2024-03-01T01:37:00Z</time>
      </trkpt>
      <trkpt lat="35.698480" lon="139.599571">
        <time>2024-03-01T01:37:45Z</time>
      </trkpt>
      <trkpt lat="35.698554" lon="139.598673">
        <time>2024-03-01T01:38:30Z</time>
      </trkpt>
      <trkpt lat="35.697583" lon="139.598219">
        <time>2024-03-01T01:39:15Z</time>
      </trkpt>
      <trkpt lat="35.696493" lon="139.598443">
        <time>2024-03-01T01:40:00Z</time>
      </trkpt>
      <trkpt lat="35.695386" lon="139.598287">
        <time>2024-03-01T01:40:45Z</time>
      </trkpt>
      <trkpt lat="35.694262" lon="139.598331">
        <time>2024-03-01T01:41:30Z</time>
      </trkpt>
      <trkpt lat="35.693174" lon="139.598101">
        <time>2024-03-01T01:42:15Z</time>
      </trkpt>
      <trkpt lat="35.692281" lon="139.597554">
        <time>2024-03-01T01:43:00Z</time>
      </trkpt>
      <trkpt lat="35.691386" lon="139.597009">
        <time>2024-03-01T01:43:45Z</time>
      </trkpt>
      <trkpt lat="35.691227" lon="139.596118">
        <time>2024-03-01T01:44:30Z</time>
      </trkpt>
      <trkpt lat="35.690664" lon="139.595339">
        <time>2024-03-01T01:45:15Z</time>
      </trkpt>
      <trkpt lat="35.690695" lon="139.594440">
        <time>2024-03-01T01:46:00Z</time>
      </trkpt>
      <trkpt lat="35.690100" lon="139.593983">
        <time>2024-03-01T01:46:45Z</time>
      </trkpt>
      <trkpt lat="35.691221" lon="139.594060">
        <time>2024-03-01T01:47:30Z</time>
      </trkpt>
      <trkpt lat="35.692140" lon="139.594579">
        <time>2024-03-01T01:48:15Z</time>
      </trkpt>
      <trkpt lat="35.693198" lon="139.594885">
        <time>2024-03-01T01:49:00Z</time>
      </trkpt>
      <trkpt lat="35.694322" lon="139.594850">
        <time>2024-03-01T01:49:45Z</time>
      </trkpt>
      <trkpt lat="35.694951" lon="139.595596">
        <time>2024-03-01T01:50:30Z</time>
      </trkpt>
      <trkpt lat="35.696076" lon="139.595605">
        <time>2024-03-01T01:51:15Z</time>
      </trkpt>
      <trkpt lat="35.696873" lon="139.596241">
        <time>2024-03-01T01:52:00Z</time>
      </trkpt>
      <trkpt lat="35.696407" lon="139.597060">
        <time>2024-03-01T01:52:45Z</time>
      </trkpt>
      <trkpt lat="35.695676" lon="139.597744">
        <time>2024-03-01T01:53:30Z</time>
      </trkpt>
      <trkpt lat="35.694579" lon="139.597544">
        <time>2024-03-01T01:54:15Z</time>
      </trkpt>
      <trkpt lat="35.693524" lon="139.597856">
        <time>2024-03-01T01:55:00Z</time>
      </trkpt>
      <trkpt lat="35.692516" lon="139.597455">
        <time>2024-03-01T01:55:45Z</time>
      </trkpt>
      <trkpt lat="35.691524" lon="139.597879">
        <time>2024-03-01T01:56:30Z</time>
      </trkpt>
      <trkpt lat="35.690446" lon="139.598136">
        <time>2024-03-01T01:57:15Z</time>
      </trkpt>
      <trkpt lat="35.690230" lon="139.599019">
        <time>2024-03-01T01:58:00Z</time>
      </trkpt>
      <trkpt lat="35.690100" lon="139.599391">
        <time>2024-03-01T01:58:45Z</time>
      </trkpt>
      <trkpt lat="35.691198" lon="139.599195">
        <time>2024-03-01T01:59:30Z</time>
      </trkpt>
      <trkpt lat="35.691532" lon="139.598335">
        <time>2024-03-01T02:00:15Z</time>
      </trkpt>
      <trkpt lat="35.692261" lon="139.597649">
        <time>2024-03-01T02:01:00Z</time>
      </trkpt>
      <trkpt lat="35.693335" lon="139.597382">
        <time>2024-03-01T02:01:45Z</time>
      </trkpt>
      <trkpt lat="35.694345" lon="139.597778">
        <time>2024-03-01T02:02:30Z</time>
      </trkpt>
      <trkpt lat="35.695307" lon="139.598244">
        <time>2024-03-01T02:03:15Z</time>
      </trkpt>
      <trkpt lat="35.696080" lon="139.598898">
        <time>2024-03-01T02:04:00Z</time>
      </trkpt>
      <trkpt lat="35.696709" lon="139.599644">
        <time>2024-03-01T02:04:45Z</time>
      </trkpt>
      <trkpt lat="35.696788" lon="139.599900">
        <time>2024-03-01T02:05:30Z</time>
      </trkpt>
      <trkpt lat="35.697494" lon="139.599199">
        <time>2024-03-01T02:06:15Z</time>
      </trkpt>
      <trkpt lat="35.698571" lon="139.598940">
        <time>2024-03-01T02:07:00Z</time>
      </trkpt>
      <trkpt lat="35.699679" lon="139.599094">
        <time>2024-03-01T02:07:45Z</time>
      </trkpt>
      <trkpt lat="35.700687" lon="139.598695">
        <time>2024-03-01T02:08:30Z</time>
      </trkpt>
      <trkpt lat="35.701128" lon="139.597867">
        <time>2024-03-01T02:09:15Z</time>
      </trkpt>
      <trkpt lat="35.700970" lon="139.596976">
        <time>2024-03-01T02:10:00Z</time>
      </trkpt>
      <trkpt lat="35.700643" lon="139.596115">
        <time>2024-03-01T02:10:45Z</time>
      </trkpt>
      <trkpt lat="35.699958" lon="139.595400">
        <time>2024-03-01T02:11:30Z</time>
      </trkpt>
      <trkpt lat="35.699969" lon="139.594500">
        <time>2024-03-01T02:12:15Z</time>
      </trkpt>
      <trkpt lat="35.698959" lon="139.594105">
        <time>2024-03-01T02:13:00Z</time>
      </trkpt>
      <trkpt lat="35.698013" lon="139.594593">
        <time>2024-03-01T02:13:45Z</time>
      </trkpt>
      <trkpt lat="35.696906" lon="139.594752">
        <time>2024-03-01T02:14:30Z</time>
      </trkpt>
      <trkpt lat="35.696384" lon="139.595550">
        <time>2024-03-01T02:15:15Z</time>
      </trkpt>
      <trkpt lat="35.695271" lon="139.595681">
        <time>2024-03-01T02:16:00Z</time>
      </trkpt>
      <trkpt lat="35.694327" lon="139.595191">
        <time>2024-03-01T02:16:45Z</time>
      </trkpt>
      <trkpt lat="35.693466" lon="139.594612">
        <time>2024-03-01T02:17:30Z</time>
      </trkpt>
      <trkpt lat="35.692646" lon="139.593996">
        <time>2024-03-01T02:18:15Z</time>
      </trkpt>
      <trkpt lat="35.692890" lon="139.593117">
        <time>2024-03-01T02:19:00Z</time>
      </trkpt>
      <trkpt lat="35.692146" lon="139.592442">
        <time>2024-03-01T02:19:45Z</time>
      </trkpt>
      <trkpt lat="35.691021" lon="139.592448">
        <time>2024-03-01T02:20:30Z</time>
      </trkpt>
      <trkpt lat="35.690100" lon="139.592606">
        <time>2024-03-01T02:21:15Z</time>
      </trkpt>
      <trkpt lat="35.691174" lon="139.592339">
        <time>2024-03-01T02:22:00Z</time>
      </trkpt>
      <trkpt lat="35.692252" lon="139.592598">
        <time>2024-03-01T02:22:45Z</time>
      </trkpt>
      <trkpt lat="35.693323" lon="139.592873">
        <time>2024-03-01T02:23:30Z</time>
      </trkpt>
      <trkpt lat="35.693977" lon="139.593606">
        <time>2024-03-01T02:24:15Z</time>
      </trkpt>
      <trkpt lat="35.694741" lon="139.594266">
        <time>2024-03-01T02:25:00Z</time>
      </trkpt>
      <trkpt lat="35.695377" lon="139.595008">
        <time>2024-03-01T02:25:45Z</time>
      </trkpt>
    </trkseg>
  </trk>
</gpx>
