<?xml version="1.0" encoding="UTF-8"?>
<gpx version="1.1" creator="trajectory-viz demo" xmlns="http://www.topografix.com/GPX/1/1">
  <trk>
    <name>courier-07</name>
    <trkseg>
      <trkpt lat="35.699198" lon="139.593193">
        <time>2024-03-01T07:47:00+09:00</time>
      </trkpt>
      <trkpt lat="35.699942" lon="139.593869">
        <time>2024-03-01T07:47:50+09:00</time>
      </trkpt>
      <trkpt lat="35.700341" lon="139.594710">
        <time>2024-03-01T07:48:40+09:00</time>
      </trkpt>
      <trkpt lat="35.700034" lon="139.595576">
        <time>2024-03-01T07:49:30+09:00</time>
      </trkpt>
      <trkpt lat="35.699686" lon="139.596432">
        <time>2024-03-01T07:50:20+09:00</time>
      </trkpt>
      <trkpt lat="35.699647" lon="139.597331">
        <time>2024-03-01T07:51:10+09:00</time>
      </trkpt>
      <trkpt lat="35.698639" lon="139.597732">
        <time>2024-03-01T07:52:00+09:00</time>
      </trkpt>
      <trkpt lat="35.698133" lon="139.598536">
        <time>2024-03-01T07:52:50+09:00</time>
      </trkpt>
      <trkpt lat="35.697244" lon="139.599087">
        <time>2024-03-01T07:53:40+09:00</time>
      </trkpt>
      <trkpt lat="35.697135" lon="139.599983">
        <time>2024-03-01T07:54:30+09:00</time>
      </trkpt>
      <trkpt lat="35.696057" lon="139.599900">
        <time>2024-03-01T07:55:20+09:00</time>
      </trkpt>
      <trkpt lat="35.694992" lon="139.599610">
        <time>2024-03-01T07:56:10+09:00</time>
      </trkpt>
      <trkpt lat="35.693981" lon="139.599900">
        <time>2024-03-01T07:57:00+09:00</time>
      </trkpt>
      <trkpt lat="35.692976" lon="139.599496">
        <time>2024-03-01T07:57:50+09:00</time>
      </trkpt>
      <trkpt lat="35.692778" lon="139.598610">
        <time>2024-03-01T07:58:40+09:00</time>
      </trkpt>
      <trkpt lat="35.692131" lon="139.597874">
        <time>2024-03-01T07:59:30+09:00</time>
      </trkpt>
      <trkpt lat="35.691806" lon="139.597012">
        <time>2024-03-01T08:00:20+09:00</time>
      </trkpt>
      <trkpt lat="35.692215" lon="139.596174">
        <time>2024-03-01T08:01:10+09:00</time>
      </trkpt>
      <trkpt lat="35.692855" lon="139.595434">
        <time>2024-03-01T08:02:00+09:00</time>
      </trkpt>
      <trkpt lat="35.693972" lon="139.595543">
        <time>2024-03-01T08:02:50+09:00</time>
      </trkpt>
      <trkpt lat="35.694956" lon="139.595980">
        <time>2024-03-01T08:03:40+09:00</time>
      </trkpt>
      <trkpt lat="35.696042" lon="139.595746">
        <time>2024-03-01T08:04:30+09:00</time>
      </trkpt>
      <trkpt lat="35.697011" lon="139.595288">
        <time>2024-03-01T08:05:20+09:00</time>
      </trkpt>
      <trkpt lat="35.698069" lon="139.594982">
        <time>2024-03-01T08:06:10+09:00</time>
      </trkpt>
      <trkpt lat="35.698902" lon="139.594378">
        <time>2024-03-01T08:07:00+09:00</time>
      </trkpt>
      <trkpt lat="35.700018" lon="139.594491">
        <time>2024-03-01T08:07:50+09:00</time>
      </trkpt>
      <trkpt lat="35.700997" lon="139.594935">
        <time>2024-03-01T08:08:40+09:00</time>
      </trkpt>
      <trkpt lat="35.702101" lon="139.595111">
        <time>2024-03-01T08:09:30+09:00</time>
      </trkpt>
      <trkpt lat="35.703006" lon="139.595645">
        <time>2024-03-01T08:10:20+09:00</time>
      </trkpt>
      <trkpt lat="35.703980" lon="139.596095">
        <time>2024-03-01T08:11:10+09:00</time>
      </trkpt>
      <trkpt lat="35.704711" lon="139.596780">
        <time>2024-03-01T08:12:00+09:00</time>
      </trkpt>
      <trkpt lat="35.705607" lon="139.597324">
        <time>2024-03-01T08:12:50+09:00</time>
      </trkpt>
      <trkpt lat="35.706731" lon="139.597367">
        <time>2024-03-01T08:13:40+09:00</time>
      </trkpt>
      <trkpt lat="35.707854" lon="139.597322">
        <time>2024-03-01T08:14:30+09:00</time>
      </trkpt>
      <trkpt lat="35.708965" lon="139.597181">
        <time>2024-03-01T08:15:20+09:00</time>
      </trkpt>
      <trkpt lat="35.709828" lon="139.597759">
        <time>2024-03-01T08:16:10+09:00</time>
      </trkpt>
      <trkpt lat="35.709941" lon="139.598654">
        <time>2024-03-01T08:17:00+09:00</time>
      </trkpt>
      <trkpt lat="35.709169" lon="139.599309">
        <time>2024-03-01T08:17:50+09:00</time>
      </trkpt>
      <trkpt lat="35.708890" lon="139.599900">
        <time>2024-03-01T08:18:40+09:00</time>
      </trkpt>
      <trkpt lat="35.708033" lon="139.599317">
        <time>2024-03-01T08:19:30+09:00</time>
      </trkpt>
      <trkpt lat="35.706911" lon="139.599244">
        <time>2024-03-01T08:20:20+09:00</time>
      </trkpt>
      <trkpt lat="35.706315" lon="139.598481">
        <time>2024-03-01T08:21:10+09:00</time>
      </trkpt>
      <trkpt lat="35.705744" lon="139.597706">
        <time>2024-03-01T08:22:00+09:00</time>
      </trkpt>
      <trkpt lat="35.706140" lon="139.596863">
        <time>2024-03-01T08:22:50+09:00</time>
      </trkpt>
      <trkpt lat="35.705679" lon="139.596042">
        <time>2024-03-01T08:23:40+09:00</time>
      </trkpt>
      <trkpt lat="35.706144" lon="139.595222">
        <time>2024-03-01T08:24:30+09:00</time>
      </trkpt>
      <trkpt lat="35.705554" lon="139.594456">
        <time>2024-03-01T08:25:20+09:00</time>
      </trkpt>
      <trkpt lat="35.704573" lon="139.594015">
        <time>2024-03-01T08:26:10+09:00</time>
      </trkpt>
      <trkpt lat="35.704144" lon="139.593183">
        <time>2024-03-01T08:27:00+09:00</time>
      </trkpt>
      <trkpt lat="35.704269" lon="139.592289">
        <time>2024-03-01T08:27:50+09:00</time>
      </trkpt>
      <trkpt lat="35.704992" lon="139.591599">
        <time>2024-03-01T08:28:40+09:00</time>
      </trkpt>
      <trkpt lat="35.706049" lon="139.591291">
        <time>2024-03-01T08:29:30+09:00</time>
      </trkpt>
      <trkpt lat="35.706677" lon="139.590544">
        <time>2024-03-01T08:30:20+09:00</time>
      </trkpt>
      <trkpt lat="35.706475" lon="139.589659">
        <time>2024-03-01T08:31:10+09:00</time>
      </trkpt>
      <trkpt lat="35.705437" lon="139.589312">
        <time>2024-03-01T08:32:00+09:00</time>
      </trkpt>
      <trkpt lat="35.705178" lon="139.588436">
        <time>2024-03-01T08:32:50+09:00</time>
      </trkpt>
      <trkpt lat="35.704093" lon="139.588197">
        <time>2024-03-01T08:33:40+09:00</time>
      </trkpt>
      <trkpt lat="35.703307" lon="139.588841">
        <time>2024-03-01T08:34:30+09:00</time>
      </trkpt>
      <trkpt lat="35.702236" lon="139.589116">
        <time>2024-03-01T08:35:20+09:00</time>
      </trkpt>
      <trkpt lat="35.701263" lon="139.588665">
        <time>2024-03-01T08:36:10+09:00</time>
      </trkpt>
      <trkpt lat="35.700191" lon="139.588939">
        <time>2024-03-01T08:37:00+09:00</time>
      </trkpt>
      <trkpt lat="35.699083" lon="139.589093">
        <time>2024-03-01T08:37:50+09:00</time>
      </trkpt>
      <trkpt lat="35.698043" lon="139.588749">
        <time>2024-03-01T08:38:40+09:00</time>
      </trkpt>
      <trkpt lat="35.697059" lon="139.589187">
        <time>2024-03-01T08:39:30+09:00</time>
      </trkpt>
      <trkpt lat="35.695951" lon="139.589032">
        <time>2024-03-01T08:40:20+09:00</time>
      </trkpt>
      <trkpt lat="35.695560" lon="139.588188">
        <time>2024-03-01T08:41:10+09:00</time>
      </trkpt>
      <trkpt lat="35.694574" lon="139.587755">
        <time>2024-03-01T08:42:00+09:00</time>
      </trkpt>
      <trkpt lat="35.693451" lon="139.587812">
        <time>2024-03-01T08:42:50+09:00</time>
      </trkpt>
      <trkpt lat="35.692749" lon="139.588515">
        <time>2024-03-01T08:43:40+09:00</time>
      </trkpt>
      <trkpt lat="35.692334" lon="139.589352">
        <time>2024-03-01T08:44:30+09:00</time>
      </trkpt>
      <trkpt lat="35.691296" lon="139.589699">
        <time>2024-03-01T08:45:20+09:00</time>
      </trkpt>
      <trkpt lat="35.690187" lon="139.589548">
        <time>2024-03-01T08:46:10+09:00</time>
      </trkpt>
      <trkpt lat="35.690100" lon="139.589352">
        <time>2024-03-01T08:47:00+09:00</time>
      </trkpt>
      <trkpt lat="35.690806" lon="139.588651">
        <time>2024-03-01T08:47:50+09:00</time>
      </trkpt>
      <trkpt lat="35.691904" lon="139.588455">
        <time>2024-03-01T08:48:40+09:00</time>
      </trkpt>
      <trkpt lat="35.692523" lon="139.589207">
        <time>2024-03-01T08:49:30+09:00</time>
      </trkpt>
      <trkpt lat="35.693641" lon="139.589307">
        <time>2024-03-01T08:50:20+09:00</time>
      </trkpt>
      <trkpt lat="35.694632" lon="139.588881">
        <time>2024-03-01T08:51:10+09:00</time>
      </trkpt>
      <trkpt lat="35.695617" lon="139.588447">
        <time>2024-03-01T08:52:00+09:00</time>
      </trkpt>
      <trkpt lat="35.695734" lon="139.587552">
        <time>2024-03-01T08:52:50+09:00</time>
      </trkpt>
      <trkpt lat="35.696549" lon="139.586931">
        <time>2024-03-01T08:53:40+09:00</time>
      </trkpt>
      <trkpt lat="35.697586" lon="139.587279">
        <time>2024-03-01T08:54:30+09:00</time>
      </trkpt>
      <trkpt lat="35.698427" lon="139.586681">
        <time>2024-03-01T08:55:20+09:00</time>
      </trkpt>
      <trkpt lat="35.698018" lon="139.585843">
        <time>2024-03-01T08:56:10+09:00</time>
      </trkpt>
      <trkpt lat="35.698160" lon="139.584950">
        <time>2024-03-01T08:57:00+09:00</time>
      </trkpt>
      <trkpt lat="35.697175" lon="139.584516">
        <time>2024-03-01T08:57:50+09:00</time>
      </trkpt>
      <trkpt lat="35.697304" lon="139.583622">
        <time>2024-03-01T08:58:40+09:00</time>
      </trkpt>
      <trkpt lat="35.698318" lon="139.583232">
        <time>2024-03-01T08:59:30+09:00</time>
      </trkpt>
      <trkpt lat="35.699213" lon="139.583778">
        <time>2024-03-01T09:00:20+09:00</time>
      </trkpt>
      <trkpt lat="35.699647" lon="139.584608">
        <time>2024-03-01T09:01:10+09:00</time>
      </trkpt>
      <trkpt lat="35.700570" lon="139.585123">
        <time>2024-03-01T09:02:00+09:00</time>
      </trkpt>
      <trkpt lat="35.700944" lon="139.585972">
        <time>2024-03-01T09:02:50+09:00</time>
      </trkpt>
      <trkpt lat="35.701618" lon="139.586693">
        <time>2024-03-01T09:03:40+09:00</time>
      </trkpt>
      <trkpt lat="35.702733" lon="139.586811">
        <time>2024-03-01T09:04:30+09:00</time>
      </trkpt>
      <trkpt lat="35.703152" lon="139.587646">
        <time>2024-03-01T09:05:20+09:00</time>
      </trkpt>
      <trkpt lat="35.703660" lon="139.588449">
        <time>2024-03-01T09:06:10+09:00</time>
      </trkpt>
      <trkpt lat="35.703158" lon="139.589255">
        <time>2024-03-01T09:07:00+09:00</time>
      </trkpt>
      <trkpt lat="35.702431" lon="139.589941">
        <time>2024-03-01T09:07:50+09:00</time>
      </trkpt>
      <trkpt lat="35.702617" lon="139.590829">
        <time>2024-03-01T09:08:40+09:00</time>
      </trkpt>
      <trkpt lat="35.703722" lon="139.590998">
        <time>2024-03-01T09:09:30+09:00</time>
      </trkpt>
      <trkpt lat="35.704825" lon="139.590820">
        <time>2024-03-01T09:10:20+09:00</time>
      </trkpt>
      <trkpt lat="35.705886" lon="139.590520">
        <time>2024-03-01T09:11:10+09:00</time>
      </trkpt>
      <trkpt lat="35.706839" lon="139.590042">
        <time>2024-03-01T09:12:00+09:00</time>
      </trkpt>
      <trkpt lat="35.707768" lon="139.590549">
        <time>2024-03-01T09:12:50+09:00</time>
      </trkpt>
      <trkpt lat="35.708638" lon="139.591120">
        <time>2024-03-01T09:13:40+09:00</time>
      </trkpt>
      <trkpt lat="35.708877" lon="139.592000">
        <time>2024-03-01T09:14:30+09:00</time>
      </trkpt>
      <trkpt lat="35.708385" lon="139.592809">
        <time>2024-03-01T09:15:20+09:00</time>
      </trkpt>
      <trkpt lat="35.709034" lon="139.593544">
        <time>2024-03-01T09:16:10+09:00</time>
      </trkpt>
      <trkpt lat="35.709900" lon="139.593484">
        <time>2024-03-01T09:17:00+09:00</time>
      </trkpt>
      <trkpt lat="35.708869" lon="139.593123">
        <time>2024-03-01T09:17:50+09:00</time>
      </trkpt>
      <trkpt lat="35.708369" lon="139.592317">
        <time>2024-03-01T09:18:40+09:00</time>
      </trkpt>
      <trkpt lat="35.708265" lon="139.591421">
        <time>2024-03-01T09:19:30+09:00</time>
      </trkpt>
      <trkpt lat="35.708357" lon="139.590524">
        <time>2024-03-01T09:20:20+09:00</time>
      </trkpt>
      <trkpt lat="35.709344" lon="139.590093">
        <time>2024-03-01T09:21:10+09:00</time>
      </trkpt>
      <trkpt lat="35.709900" lon="139.590527">
        <time>2024-03-01T09:22:00+09:00</time>
      </trkpt>
      <trkpt lat="35.709262" lon="139.591268">
        <time>2024-03-01T09:22:50+09:00</time>
      </trkpt>
      <trkpt lat="35.708693" lon="139.592045">
        <time>2024-03-01T09:23:40+09:00</time>
      </trkpt>
      <trkpt lat="35.708860" lon="139.592935">
        <time>2024-03-01T09:24:30+09:00</time>
      </trkpt>
      <trkpt lat="35.709866" lon="139.593337">
        <time>2024-03-01T09:25:20+09:00</time>
      </trkpt>
      <trkpt lat="35.709900" lon="139.594072">
        <time>2024-03-01T09:26:10+09:00</time>
      </trkpt>
      <trkpt lat="35.709900" lon="139.594880">
        <time>2024-03-01T09:27:00+09:00</time>
      </trkpt>
      <trkpt lat="35.709900" lon="139.594237">
        <time>2024-03-01T10:14:50+09:00</time>
      </trkpt>
      <trkpt lat="35.709919" lon="139.593337">
        <time>2024-03-01T10:15:40+09:00</time>
      </trkpt>
      <trkpt lat="35.709900" lon="139.592706">
        <time>2024-03-01T10:16:30+09:00</time>
      </trkpt>
      <trkpt lat="35.708779" lon="139.592631">
        <time>2024-03-01T10:17:20+09:00</time>
      </trkpt>
      <trkpt lat="35.707658" lon="139.592705">
        <time>2024-03-01T10:18:10+09:00</time>
      </trkpt>
      <trkpt lat="35.706557" lon="139.592520">
        <time>2024-03-01T10:19:00+09:00</time>
      </trkpt>
      <trkpt lat="35.705703" lon="139.593106">
        <time>2024-03-01T10:19:50+09:00</time>
      </trkpt>
      <trkpt lat="35.704624" lon="139.593360">
        <time>2024-03-01T10:20:40+09:00</time>
      </trkpt>
      <trkpt lat="35.703774" lon="139.592771">
        <time>2024-03-01T10:21:30+09:00</time>
      </trkpt>
      <trkpt lat="35.702980" lon="139.592134">
        <time>2024-03-01T10:22:20+09:00</time>
      </trkpt>
      <trkpt lat="35.702014" lon="139.591672">
        <time>2024-03-01T10:23:10+09:00</time>
      </trkpt>
      <trkpt lat="35.702206" lon="139.590785">
        <time>2024-03-01T10:24:00+09:00</time>
      </trkpt>
      <trkpt lat="35.703185" lon="139.590342">
        <time>2024-03-01T10:24:50+09:00</time>
      </trkpt>
      <trkpt lat="35.704152" lon="139.589882">
        <time>2024-03-01T10:25:40+09:00</time>
      </trkpt>
      <trkpt lat="35.705250" lon="139.589686">
        <time>2024-03-01T10:26:30+09:00</time>
      </trkpt>
      <trkpt lat="35.706374" lon="139.589636">
        <time>2024-03-01T10:27:20+09:00</time>
      </trkpt>
      <trkpt lat="35.706856" lon="139.588823">
        <time>2024-03-01T10:28:10+09:00</time>
      </trkpt>
      <trkpt lat="35.707975" lon="139.588726">
        <time>2024-03-01T10:29:00+09:00</time>
      </trkpt>
      <trkpt lat="35.709085" lon="139.588579">
        <time>2024-03-01T10:29:50+09:00</time>
      </trkpt>
      <trkpt lat="35.709588" lon="139.587774">
        <time>2024-03-01T10:30:40+09:00</time>
      </trkpt>
      <trkpt lat="35.709900" lon="139.587718">
        <time>2024-03-01T10:31:30+09:00</time>
      </trkpt>
      <trkpt lat="35.708967" lon="139.588221">
        <time>2024-03-01T10:32:20+09:00</time>
      </trkpt>
      <trkpt lat="35.708999" lon="139.589121">
        <time>2024-03-01T10:33:10+09:00</time>
      </trkpt>
      <trkpt lat="35.708288" lon="139.589819">
        <time>2024-03-01T10:34:00+09:00</time>
      </trkpt>
      <trkpt lat="35.707596" lon="139.590528">
        <time>2024-03-01T10:34:50+09:00</time>
      </trkpt>
      <trkpt lat="35.706694" lon="139.591066">
        <time>2024-03-01T10:35:40+09:00</time>
      </trkpt>
      <trkpt lat="35.705710" lon="139.591502">
        <time>2024-03-01T10:36:30+09:00</time>
      </trkpt>
      <trkpt lat="35.705227" lon="139.592315">
        <time>2024-03-01T10:37:20+09:00</time>
      </trkpt>
      <trkpt lat="35.705014" lon="139.593199">
        <time>2024-03-01T10:38:10+09:00</time>
      </trkpt>
      <trkpt lat="35.705101" lon="139.594096">
        <time>2024-03-01T10:39:00+09:00</time>
      </trkpt>
      <trkpt lat="35.704249" lon="139.594684">
        <time>2024-03-01T10:39:50+09:00</time>
      </trkpt>
      <trkpt lat="35.703166" lon="139.594442">
        <time>2024-03-01T10:40:40+09:00</time>
      </trkpt>
      <trkpt lat="35.702121" lon="139.594776">
        <time>2024-03-01T10:41:30+09:00</time>
      </trkpt>
      <trkpt lat="35.701046" lon="139.594512">
        <time>2024-03-01T10:42:20+09:00</time>
      </trkpt>
      <trkpt lat="35.700263" lon="139.593866">
        <time>2024-03-01T10:43:10+09:00</time>
      </trkpt>
      <trkpt lat="35.699549" lon="139.593170">
        <time>2024-03-01T10:44:00+09:00</time>
      </trkpt>
      <trkpt lat="35.698434" lon="139.593050">
        <time>2024-03-01T10:44:50+09:00</time>
      </trkpt>
      <trkpt lat="35.698036" lon="139.592208">
        <time>2024-03-01T10:45:40+09:00</time>
      </trkpt>
      <trkpt lat="35.697803" lon="139.591327">
        <time>2024-03-01T10:46:30+09:00</time>
      </trkpt>
      <trkpt lat="35.698427" lon="139.590578">
        <time>2024-03-01T10:47:20+09:00</time>
      </trkpt>
      <trkpt lat="35.698147" lon="139.589706">
        <time>2024-03-01T10:48:10+09:00</time>
      </trkpt>
      <trkpt lat="35.697707" lon="139.588878">
        <time>2024-03-01T10:49:00+09:00</time>
      </trkpt>
      <trkpt lat="35.697572" lon="139.587984">
        <time>2024-03-01T10:49:50+09:00</time>
      </trkpt>
      <trkpt lat="35.696606" lon="139.587523">
        <time>2024-03-01T10:50:40+09:00</time>
      </trkpt>
      <trkpt lat="35.696523" lon="139.586625">
        <time>2024-03-01T10:51:30+09:00</time>
      </trkpt>
      <trkpt lat="35.695723" lon="139.585993">
        <time>2024-03-01T10:52:20+09:00</time>
      </trkpt>
      <trkpt lat="35.695318" lon="139.585153">
        <time>2024-03-01T10:53:10+09:00</time>
      </trkpt>
      <trkpt lat="35.695185" lon="139.584259">
        <time>2024-03-01T10:54:00+09:00</time>
      </trkpt>
      <trkpt lat="35.695037" lon="139.583367">
        <time>2024-03-01T10:54:50+09:00</time>
      </trkpt>
      <trkpt lat="35.695328" lon="139.582498">
        <time>2024-03-01T10:55:40+09:00</time>
      </trkpt>
      <trkpt lat="35.695590" lon="139.581622">
        <time>2024-03-01T10:56:30+09:00</time>
      </trkpt>
      <trkpt lat="35.696260" lon="139.580900">
        <time>2024-03-01T10:57:20+09:00</time>
      </trkpt>
      <trkpt lat="35.696585" lon="139.580038">
        <time>2024-03-01T10:58:10+09:00</time>
      </trkpt>
      <trkpt lat="35.697660" lon="139.579774">
        <time>2024-03-01T10:59:00+09:00</time>
      </trkpt>
      <trkpt lat="35.698625" lon="139.579312">
        <time>2024-03-01T10:59:50+09:00</time>
      </trkpt>
      <trkpt lat="35.699362" lon="139.578632">
        <time>2024-03-01T11:00:40+09:00</time>
      </trkpt>
      <trkpt lat="35.700410" lon="139.578304">
        <time>2024-03-01T11:01:30+09:00</time>
      </trkpt>
      <trkpt lat="35.701535" lon="139.578279">
        <time>2024-03-01T11:02:20+09:00</time>
      </trkpt>
      <trkpt lat="35.702487" lon="139.577800">
        <time>2024-03-01T11:03:10+09:00</time>
      </trkpt>
      <trkpt lat="35.703589" lon="139.577982">
        <time>2024-03-01T11:04:00+09:00</time>
      </trkpt>
      <trkpt lat="35.704280" lon="139.577272">
        <time>2024-03-01T11:04:50+09:00</time>
      </trkpt>
      <trkpt lat="35.703938" lon="139.576414">
        <time>2024-03-01T11:05:40+09:00</time>
      </trkpt>
      <trkpt lat="35.702860" lon="139.576157">
        <time>2024-03-01T11:06:30+09:00</time>
      </trkpt>
      <trkpt lat="35.702323" lon="139.575366">
        <time>2024-03-01T11:07:20+09:00</time>
      </trkpt>
      <trkpt lat="35.702307" lon="139.574466">
        <time>2024-03-01T11:08:10+09:00</time>
      </trkpt>
      <trkpt lat="35.702316" lon="139.573566">
        <time>2024-03-01T11:09:00+09:00</time>
      </trkpt>
      <trkpt lat="35.701409" lon="139.573033">
        <time>2024-03-01T11:09:50+09:00</time>
      </trkpt>
      <trkpt lat="35.700350" lon="139.573336">
        <time>2024-03-01T11:10:40+09:00</time>
      </trkpt>
      <trkpt lat="35.700143" lon="139.574220">
        <time>2024-03-01T11:11:30+09:00</time>
      </trkpt>
      <trkpt lat="35.700700" lon="139.575002">
        <time>2024-03-01T11:12:20+09:00</time>
      </trkpt>
      <trkpt lat="35.700649" lon="139.575901">
        <time>2024-03-01T11:13:10+09:00</time>
      </trkpt>
      <trkpt lat="35.700753" lon="139.576797">
        <time>2024-03-01T11:14:00+09:00</time>
      </trkpt>
      <trkpt lat="35.700554" lon="139.577683">
        <time>2024-03-01T11:14:50+09:00</time>
      </trkpt>
      <trkpt lat="35.699769" lon="139.578328">
        <time>2024-03-01T11:15:40+09:00</time>
      </trkpt>
      <trkpt lat="35.698738" lon="139.577967">
        <time>2024-03-01T11:16:30+09:00</time>
      </trkpt>
      <trkpt lat="35.698438" lon="139.577100">
        <time>2024-03-01T11:17:20+09:00</time>
      </trkpt>
      <trkpt lat="35.699145" lon="139.576400">
        <time>2024-03-01T11:18:10+09:00</time>
      </trkpt>
      <trkpt lat="35.699978" lon="139.575795">
        <time>2024-03-01T11:19:00+09:00</time>
      </trkpt>
      <trkpt lat="35.699554" lon="139.574961">
        <time>2024-03-01T11:19:50+09:00</time>
      </trkpt>
      <trkpt lat="35.698462" lon="139.574743">
        <time>2024-03-01T11:20:40+09:00</time>
      </trkpt>
      <trkpt lat="35.697582" lon="139.575303">
        <time>2024-03-01T11:21:30+09:00</time>
      </trkpt>
      <trkpt lat="35.697016" lon="139.576081">
        <time>2024-03-01T11:22:20+09:00</time>
      </trkpt>
      <trkpt lat="35.696304" lon="139.576778">
        <time>2024-03-01T11:23:10+09:00</time>
      </trkpt>
      <trkpt lat="35.696559" lon="139.577655">
        <time>2024-03-01T11:24:00+09:00</time>
      </trkpt>
      <trkpt lat="35.697247" lon="139.578367">
        <time>2024-03-01T11:24:50+09:00</time>
      </trkpt>
      <trkpt lat="35.697387" lon="139.579260">
        <time>2024-03-01T11:25:40+09:00</time>
      </trkpt>
      <trkpt lat="35.698073" lon="139.579973">
        <time>2024-03-01T11:26:30+09:00</time>
      </trkpt>
      <trkpt lat="35.699164" lon="139.579754">
        <time>2024-03-01T11:27:20+09:00</time>
      </trkpt>
      <trkpt lat="35.699857" lon="139.580463">
        <time>2024-03-01T11:28:10+09:00</time>
      </trkpt>
      <trkpt lat="35.700929" lon="139.580736">
        <time>2024-03-01T11:29:00+09:00</time>
      </trkpt>
      <trkpt lat="35.702017" lon="139.580965">
        <time>2024-03-01T11:29:50+09:00</time>
      </trkpt>
      <trkpt lat="35.703138" lon="139.580886">
        <time>2024-03-01T11:30:40+09:00</time>
      </trkpt>
      <trkpt lat="35.703477" lon="139.580028">
        <time>2024-03-01T11:31:30+09:00</time>
      </trkpt>
      <trkpt lat="35.704451" lon="139.579578">
        <time>2024-03-01T11:32:20+09:00</time>
      </trkpt>
      <trkpt lat="35.705576" lon="139.579553">
        <time>2024-03-01T11:33:10+09:00</time>
      </trkpt>
      <trkpt lat="35.706140" lon="139.580332">
        <time>2024-03-01T11:34:00+09:00</time>
      </trkpt>
      <trkpt lat="35.706933" lon="139.580970">
        <time>2024-03-01T11:34:50+09:00</time>
      </trkpt>
      <trkpt lat="35.707207" lon="139.581843">
        <time>2024-03-01T11:35:40+09:00</time>
      </trkpt>
      <trkpt lat="35.706878" lon="139.582703">
        <time>2024-03-01T11:36:30+09:00</time>
      </trkpt>
      <trkpt lat="35.707491" lon="139.583458">
        <time>2024-03-01T11:37:20+09:00</time>
      </trkpt>
      <trkpt lat="35.707871" lon="139.584305">
        <time>2024-03-01T11:38:10+09:00</time>
      </trkpt>
      <trkpt lat="35.707044" lon="139.584916">
        <time>2024-03-01T11:39:00+09:00</time>
      </trkpt>
      <trkpt lat="35.705919" lon="139.584933">
        <time>2024-03-01T11:39:50+09:00</time>
      </trkpt>
    </trkseg>
  </trk>
</gpx>
