<?xml version="1.0" encoding="UTF-8"?>
<gpx version="1.1" creator="trajectory-viz demo" xmlns="http://www.topografix.com/GPX/1/1">
  <trk>
    <name>courier-01</name>
    <trkseg>
      <trkpt lat="35.705726" lon="139.568272">
        <time>2024-03-01T06:38:00+09:00</time>
      </trkpt>
      <trkpt lat="35.705312" lon="139.567436">
        <time>2024-03-01T06:38:45+09:00</time>
      </trkpt>
      <trkpt lat="35.705647" lon="139.566576">
        <time>2024-03-01T06:39:30+09:00</time>
      </trkpt>
      <trkpt lat="35.706680" lon="139.566220">
        <time>2024-03-01T06:40:15+09:00</time>
      </trkpt>
      <trkpt lat="35.707535" lon="139.566804">
        <time>2024-03-01T06:41:00+09:00</time>
      </trkpt>
      <trkpt lat="35.708601" lon="139.566515">
        <time>2024-03-01T06:41:45+09:00</time>
      </trkpt>
      <trkpt lat="35.709726" lon="139.566524">
        <time>2024-03-01T06:42:30+09:00</time>
      </trkpt>
      <trkpt lat="35.709900" lon="139.567303">
        <time>2024-03-01T06:43:15+09:00</time>
      </trkpt>
      <trkpt lat="35.708911" lon="139.567733">
        <time>2024-03-01T06:44:00+09:00</time>
      </trkpt>
      <trkpt lat="35.707841" lon="139.568009">
        <time>2024-03-01T06:44:45+09:00</time>
      </trkpt>
      <trkpt lat="35.706918" lon="139.567494">
        <time>2024-03-01T06:45:30+09:00</time>
      </trkpt>
      <trkpt lat="35.706471" lon="139.566668">
        <time>2024-03-01T06:46:15+09:00</time>
      </trkpt>
      <trkpt lat="35.705468" lon="139.566261">
        <time>2024-03-01T06:47:00+09:00</time>
      </trkpt>
      <trkpt lat="35.705372" lon="139.565364">
        <time>2024-03-01T06:47:45+09:00</time>
      </trkpt>
      <trkpt lat="35.705974" lon="139.564603">
        <time>2024-03-01T06:48:30+09:00</time>
      </trkpt>
      <trkpt lat="35.705977" lon="139.563703">
        <time>2024-03-01T06:49:15+09:00</time>
      </trkpt>
      <trkpt lat="35.706753" lon="139.563052">
        <time>2024-03-01T06:50:00+09:00</time>
      </trkpt>
      <trkpt lat="35.707798" lon="139.562718">
        <time>2024-03-01T06:50:45+09:00</time>
      </trkpt>
      <trkpt lat="35.708923" lon="139.562692">
        <time>2024-03-01T06:51:30+09:00</time>
      </trkpt>
      <trkpt lat="35.709840" lon="139.562171">
        <time>2024-03-01T06:52:15+09:00</time>
      </trkpt>
      <trkpt lat="35.709900" lon="139.562064">
        <time>2024-03-01T06:53:00+09:00</time>
      </trkpt>
      <trkpt lat="35.709291" lon="139.562821">
        <time>2024-03-01T06:53:45+09:00</time>
      </trkpt>
      <trkpt lat="35.708391" lon="139.563362">
        <time>2024-03-01T06:54:30+09:00</time>
      </trkpt>
      <trkpt lat="35.707699" lon="139.564071">
        <time>2024-03-01T06:55:15+09:00</time>
      </trkpt>
      <trkpt lat="35.706587" lon="139.564204">
        <time>2024-03-01T06:56:00+09:00</time>
      </trkpt>
      <trkpt lat="35.705923" lon="139.564931">
        <time>2024-03-01T06:56:45+09:00</time>
      </trkpt>
      <trkpt lat="35.706275" lon="139.565786">
        <time>2024-03-01T06:57:30+09:00</time>
      </trkpt>
      <trkpt lat="35.707064" lon="139.566427">
        <time>2024-03-01T06:58:15+09:00</time>
      </trkpt>
      <trkpt lat="35.708182" lon="139.566527">
        <time>2024-03-01T06:59:00+09:00</time>
      </trkpt>
      <trkpt lat="35.709049" lon="139.565954">
        <time>2024-03-01T06:59:45+09:00</time>
      </trkpt>
      <trkpt lat="35.709636" lon="139.565186">
        <time>2024-03-01T07:00:30+09:00</time>
      </trkpt>
      <trkpt lat="35.709900" lon="139.564605">
        <time>2024-03-01T07:01:15+09:00</time>
      </trkpt>
      <trkpt lat="35.708820" lon="139.564353">
        <time>2024-03-01T07:02:00+09:00</time>
      </trkpt>
      <trkpt lat="35.708273" lon="139.563567">
        <time>2024-03-01T07:02:45+09:00</time>
      </trkpt>
      <trkpt lat="35.708100" lon="139.562678">
        <time>2024-03-01T07:03:30+09:00</time>
      </trkpt>
      <trkpt lat="35.707036" lon="139.562386">
        <time>2024-03-01T07:04:15+09:00</time>
      </trkpt>
      <trkpt lat="35.706305" lon="139.561702">
        <time>2024-03-01T07:05:00+09:00</time>
      </trkpt>
      <trkpt lat="35.705187" lon="139.561606">
        <time>2024-03-01T07:05:45+09:00</time>
      </trkpt>
      <trkpt lat="35.704063" lon="139.561555">
        <time>2024-03-01T07:06:30+09:00</time>
      </trkpt>
      <trkpt lat="35.703011" lon="139.561237">
        <time>2024-03-01T07:07:15+09:00</time>
      </trkpt>
      <trkpt lat="35.702101" lon="139.561767">
        <time>2024-03-01T07:08:00+09:00</time>
      </trkpt>
      <trkpt lat="35.700985" lon="139.561877">
        <time>2024-03-01T07:08:45+09:00</time>
      </trkpt>
      <trkpt lat="35.700179" lon="139.561249">
        <time>2024-03-01T07:09:30+09:00</time>
      </trkpt>
      <trkpt lat="35.699336" lon="139.560653">
        <time>2024-03-01T07:10:15+09:00</time>
      </trkpt>
      <trkpt lat="35.699181" lon="139.559762">
        <time>2024-03-01T07:11:00+09:00</time>
      </trkpt>
      <trkpt lat="35.698118" lon="139.559467">
        <time>2024-03-01T07:11:45+09:00</time>
      </trkpt>
      <trkpt lat="35.697282" lon="139.558864">
        <time>2024-03-01T07:12:30+09:00</time>
      </trkpt>
      <trkpt lat="35.696173" lon="139.559019">
        <time>2024-03-01T07:13:15+09:00</time>
      </trkpt>
      <trkpt lat="35.695918" lon="139.559896">
        <time>2024-03-01T07:14:00+09:00</time>
      </trkpt>
      <trkpt lat="35.696374" lon="139.560719">
        <time>2024-03-01T07:14:45+09:00</time>
      </trkpt>
      <trkpt lat="35.697493" lon="139.560808">
        <time>2024-03-01T07:15:30+09:00</time>
      </trkpt>
      <trkpt lat="35.698604" lon="139.560949">
        <time>2024-03-01T07:16:15+09:00</time>
      </trkpt>
      <trkpt lat="35.699191" lon="139.561717">
        <time>2024-03-01T07:17:00+09:00</time>
      </trkpt>
      <trkpt lat="35.698631" lon="139.562497">
        <time>2024-03-01T07:17:45+09:00</time>
      </trkpt>
      <trkpt lat="35.698583" lon="139.563397">
        <time>2024-03-01T07:18:30+09:00</time>
      </trkpt>
      <trkpt lat="35.699009" lon="139.564229">
        <time>2024-03-01T07:19:15+09:00</time>
      </trkpt>
      <trkpt lat="35.699353" lon="139.565086">
        <time>2024-03-01T07:20:00+09:00</time>
      </trkpt>
      <trkpt lat="35.700282" lon="139.565594">
        <time>2024-03-01T07:20:45+09:00</time>
      </trkpt>
      <trkpt lat="35.700667" lon="139.566439">
        <time>2024-03-01T07:21:30+09:00</time>
      </trkpt>
      <trkpt lat="35.701778" lon="139.566581">
        <time>2024-03-01T07:22:15+09:00</time>
      </trkpt>
      <trkpt lat="35.702401" lon="139.565832">
        <time>2024-03-01T07:23:00+09:00</time>
      </trkpt>
      <trkpt lat="35.701953" lon="139.565006">
        <time>2024-03-01T07:23:45+09:00</time>
      </trkpt>
      <trkpt lat="35.701624" lon="139.564146">
        <time>2024-03-01T07:24:30+09:00</time>
      </trkpt>
      <trkpt lat="35.700964" lon="139.563416">
        <time>2024-03-01T07:25:15+09:00</time>
      </trkpt>
      <trkpt lat="35.699980" lon="139.562980">
        <time>2024-03-01T07:26:00+09:00</time>
      </trkpt>
      <trkpt lat="35.698900" lon="139.563233">
        <time>2024-03-01T07:26:45+09:00</time>
      </trkpt>
      <trkpt lat="35.698200" lon="139.562528">
        <time>2024-03-01T07:27:30+09:00</time>
      </trkpt>
      <trkpt lat="35.698209" lon="139.561628">
        <time>2024-03-01T07:28:15+09:00</time>
      </trkpt>
      <trkpt lat="35.697257" lon="139.561148">
        <time>2024-03-01T07:29:00+09:00</time>
      </trkpt>
      <trkpt lat="35.696207" lon="139.560825">
        <time>2024-03-01T07:29:45+09:00</time>
      </trkpt>
      <trkpt lat="35.695082" lon="139.560818">
        <time>2024-03-01T07:30:30+09:00</time>
      </trkpt>
      <trkpt lat="35.694520" lon="139.561597">
        <time>2024-03-01T07:31:15+09:00</time>
      </trkpt>
      <trkpt lat="35.694162" lon="139.562451">
        <time>2024-03-01T07:32:00+09:00</time>
      </trkpt>
      <trkpt lat="35.694712" lon="139.563236">
        <time>2024-03-01T07:32:45+09:00</time>
      </trkpt>
      <trkpt lat="35.694393" lon="139.564099">
        <time>2024-03-01T07:33:30+09:00</time>
      </trkpt>
      <trkpt lat="35.694337" lon="139.564998">
        <time>2024-03-01T07:34:15+09:00</time>
      </trkpt>
      <trkpt lat="35.693507" lon="139.565606">
        <time>2024-03-01T07:35:00+09:00</time>
      </trkpt>
      <trkpt lat="35.692387" lon="139.565688">
        <time>2024-03-01T07:35:45+09:00</time>
      </trkpt>
      <trkpt lat="35.691442" lon="139.565199">
        <time>2024-03-01T07:36:30+09:00</time>
      </trkpt>
      <trkpt lat="35.690635" lon="139.564573">
        <time>2024-03-01T07:37:15+09:00</time>
      </trkpt>
      <trkpt lat="35.691071" lon="139.563743">
        <time>2024-03-01T07:38:00+09:00</time>
      </trkpt>
      <trkpt lat="35.691164" lon="139.562846">
        <time>2024-03-01T07:38:45+09:00</time>
      </trkpt>
      <trkpt lat="35.690607" lon="139.562064">
        <time>2024-03-01T07:39:30+09:00</time>
      </trkpt>
      <trkpt lat="35.690516" lon="139.561167">
        <time>2024-03-01T07:40:15+09:00</time>
      </trkpt>
      <trkpt lat="35.690528" lon="139.560267">
        <time>2024-03-01T07:41:00+09:00</time>
      </trkpt>
      <trkpt lat="35.691565" lon="139.559918">
        <time>2024-03-01T07:41:45+09:00</time>
      </trkpt>
      <trkpt lat="35.692044" lon="139.559103">
        <time>2024-03-01T07:42:30+09:00</time>
      </trkpt>
      <trkpt lat="35.691567" lon="139.558288">
        <time>2024-03-01T07:43:15+09:00</time>
      </trkpt>
      <trkpt lat="35.690543" lon="139.557915">
        <time>2024-03-01T07:44:00+09:00</time>
      </trkpt>
      <trkpt lat="35.690100" lon="139.557317">
        <time>2024-03-01T07:44:45+09:00</time>
      </trkpt>
      <trkpt lat="35.691215" lon="139.557196">
        <time>2024-03-01T07:45:30+09:00</time>
      </trkpt>
      <trkpt lat="35.692305" lon="139.556975">
        <time>2024-03-01T07:46:15+09:00</time>
      </trkpt>
      <trkpt lat="35.693390" lon="139.557212">
        <time>2024-03-01T07:47:00+09:00</time>
      </trkpt>
      <trkpt lat="35.694510" lon="139.557125">
        <time>2024-03-01T07:47:45+09:00</time>
      </trkpt>
      <trkpt lat="35.695460" lon="139.557607">
        <time>2024-03-01T07:48:30+09:00</time>
      </trkpt>
      <trkpt lat="35.696422" lon="139.558074">
        <time>2024-03-01T07:49:15+09:00</time>
      </trkpt>
      <trkpt lat="35.697494" lon="139.557800">
        <time>2024-03-01T07:50:00+09:00</time>
      </trkpt>
      <trkpt lat="35.698308" lon="139.558422">
        <time>2024-03-01T07:50:45+09:00</time>
      </trkpt>
      <trkpt lat="35.699423" lon="139.558307">
        <time>2024-03-01T07:51:30+09:00</time>
      </trkpt>
      <trkpt lat="35.700426" lon="139.558715">
        <time>2024-03-01T07:52:15+09:00</time>
      </trkpt>
      <trkpt lat="35.700623" lon="139.559601">
        <time>2024-03-01T07:53:00+09:00</time>
      </trkpt>
      <trkpt lat="35.701466" lon="139.560197">
        <time>2024-03-01T07:53:45+09:00</time>
      </trkpt>
      <trkpt lat="35.702590" lon="139.560236">
        <time>2024-03-01T07:54:30+09:00</time>
      </trkpt>
      <trkpt lat="35.703711" lon="139.560155">
        <time>2024-03-01T07:55:15+09:00</time>
      </trkpt>
      <trkpt lat="35.704822" lon="139.560295">
        <time>2024-03-01T07:56:00+09:00</time>
      </trkpt>
      <trkpt lat="35.705754" lon="139.559790">
        <time>2024-03-01T07:56:45+09:00</time>
      </trkpt>
      <trkpt lat="35.705693" lon="139.558892">
        <time>2024-03-01T07:57:30+09:00</time>
      </trkpt>
      <trkpt lat="35.705403" lon="139.558022">
        <time>2024-03-01T07:58:15+09:00</time>
      </trkpt>
      <trkpt lat="35.705457" lon="139.557123">
        <time>2024-03-01T07:59:00+09:00</time>
      </trkpt>
      <trkpt lat="35.706468" lon="139.556730">
        <time>2024-03-01T07:59:45+09:00</time>
      </trkpt>
      <trkpt lat="35.707541" lon="139.556457">
        <time>2024-03-01T08:00:30+09:00</time>
      </trkpt>
      <trkpt lat="35.708453" lon="139.555931">
        <time>2024-03-01T08:01:15+09:00</time>
      </trkpt>
      <trkpt lat="35.709318" lon="139.555355">
        <time>2024-03-01T08:02:00+09:00</time>
      </trkpt>
      <trkpt lat="35.709900" lon="139.555482">
        <time>2024-03-01T08:02:45+09:00</time>
      </trkpt>
      <trkpt lat="35.708852" lon="139.555155">
        <time>2024-03-01T08:03:30+09:00</time>
      </trkpt>
      <trkpt lat="35.707733" lon="139.555247">
        <time>2024-03-01T08:04:15+09:00</time>
      </trkpt>
      <trkpt lat="35.706811" lon="139.555763">
        <time>2024-03-01T08:05:00+09:00</time>
      </trkpt>
      <trkpt lat="35.706120" lon="139.556473">
        <time>2024-03-01T08:05:45+09:00</time>
      </trkpt>
      <trkpt lat="35.705004" lon="139.556355">
        <time>2024-03-01T08:06:30+09:00</time>
      </trkpt>
      <trkpt lat="35.704299" lon="139.555654">
        <time>2024-03-01T08:07:15+09:00</time>
      </trkpt>
      <trkpt lat="35.703174" lon="139.555642">
        <time>2024-03-01T08:08:00+09:00</time>
      </trkpt>
      <trkpt lat="35.702358" lon="139.556262">
        <time>2024-03-01T08:08:45+09:00</time>
      </trkpt>
      <trkpt lat="35.701375" lon="139.556699">
        <time>2024-03-01T08:09:30+09:00</time>
      </trkpt>
      <trkpt lat="35.700269" lon="139.556534">
        <time>2024-03-01T08:10:15+09:00</time>
      </trkpt>
      <trkpt lat="35.699351" lon="139.556014">
        <time>2024-03-01T08:11:00+09:00</time>
      </trkpt>
      <trkpt lat="35.699428" lon="139.555116">
        <time>2024-03-01T08:11:45+09:00</time>
      </trkpt>
      <trkpt lat="35.698854" lon="139.554342">
        <time>2024-03-01T08:12:30+09:00</time>
      </trkpt>
      <trkpt lat="35.698934" lon="139.555240">
        <time>2024-03-01T09:00:15+09:00</time>
      </trkpt>
      <trkpt lat="35.697917" lon="139.555624">
        <time>2024-03-01T09:01:00+09:00</time>
      </trkpt>
      <trkpt lat="35.696944" lon="139.555171">
        <time>2024-03-01T09:01:45+09:00</time>
      </trkpt>
      <trkpt lat="35.695837" lon="139.555333">
        <time>2024-03-01T09:02:30+09:00</time>
      </trkpt>
      <trkpt lat="35.694747" lon="139.555113">
        <time>2024-03-01T09:03:15+09:00</time>
      </trkpt>
      <trkpt lat="35.694301" lon="139.554287">
        <time>2024-03-01T09:04:00+09:00</time>
      </trkpt>
      <trkpt lat="35.693953" lon="139.553431">
        <time>2024-03-01T09:04:45+09:00</time>
      </trkpt>
      <trkpt lat="35.694049" lon="139.552534">
        <time>2024-03-01T09:05:30+09:00</time>
      </trkpt>
      <trkpt lat="35.693329" lon="139.551843">
        <time>2024-03-01T09:06:15+09:00</time>
      </trkpt>
      <trkpt lat="35.692436" lon="139.551296">
        <time>2024-03-01T09:07:00+09:00</time>
      </trkpt>
      <trkpt lat="35.691434" lon="139.550887">
        <time>2024-03-01T09:07:45+09:00</time>
      </trkpt>
      <trkpt lat="35.690412" lon="139.550509">
        <time>2024-03-01T09:08:30+09:00</time>
      </trkpt>
      <trkpt lat="35.690040" lon="139.550100">
        <time>2024-03-01T09:09:15+09:00</time>
      </trkpt>
      <trkpt lat="35.690100" lon="139.550995">
        <time>2024-03-01T09:10:00+09:00</time>
      </trkpt>
      <trkpt lat="35.690100" lon="139.551426">
        <time>2024-03-01T09:10:45+09:00</time>
      </trkpt>
      <trkpt lat="35.691224" lon="139.551464">
        <time>2024-03-01T09:11:30+09:00</time>
      </trkpt>
      <trkpt lat="35.691887" lon="139.550737">
        <time>2024-03-01T09:12:15+09:00</time>
      </trkpt>
      <trkpt lat="35.692732" lon="139.550142">
        <time>2024-03-01T09:13:00+09:00</time>
      </trkpt>
      <trkpt lat="35.692395" lon="139.550100">
        <time>2024-03-01T09:13:45+09:00</time>
      </trkpt>
      <trkpt lat="35.692772" lon="139.550948">
        <time>2024-03-01T09:14:30+09:00</time>
      </trkpt>
      <trkpt lat="35.693890" lon="139.551053">
        <time>2024-03-01T09:15:15+09:00</time>
      </trkpt>
      <trkpt lat="35.694826" lon="139.550554">
        <time>2024-03-01T09:16:00+09:00</time>
      </trkpt>
      <trkpt lat="35.695779" lon="139.551032">
        <time>2024-03-01T09:16:45+09:00</time>
      </trkpt>
      <trkpt lat="35.696436" lon="139.551763">
        <time>2024-03-01T09:17:30+09:00</time>
      </trkpt>
      <trkpt lat="35.695817" lon="139.552514">
        <time>2024-03-01T09:18:15+09:00</time>
      </trkpt>
      <trkpt lat="35.694933" lon="139.553071">
        <time>2024-03-01T09:19:00+09:00</time>
      </trkpt>
      <trkpt lat="35.693852" lon="139.553319">
        <time>2024-03-01T09:19:45+09:00</time>
      </trkpt>
      <trkpt lat="35.693434" lon="139.554154">
        <time>2024-03-01T09:20:30+09:00</time>
      </trkpt>
      <trkpt lat="35.693560" lon="139.555049">
        <time>2024-03-01T09:21:15+09:00</time>
      </trkpt>
      <trkpt lat="35.692581" lon="139.555492">
        <time>2024-03-01T09:22:00+09:00</time>
      </trkpt>
      <trkpt lat="35.691788" lon="139.556131">
        <time>2024-03-01T09:22:45+09:00</time>
      </trkpt>
      <trkpt lat="35.691253" lon="139.556922">
        <time>2024-03-01T09:23:30+09:00</time>
      </trkpt>
      <trkpt lat="35.690162" lon="139.557141">
        <time>2024-03-01T09:24:15+09:00</time>
      </trkpt>
      <trkpt lat="35.690100" lon="139.557524">
        <time>2024-03-01T09:25:00+09:00</time>
      </trkpt>
      <trkpt lat="35.691082" lon="139.557962">
        <time>2024-03-01T09:25:45+09:00</time>
      </trkpt>
      <trkpt lat="35.692185" lon="139.558142">
        <time>2024-03-01T09:26:30+09:00</time>
      </trkpt>
      <trkpt lat="35.692918" lon="139.558824">
        <time>2024-03-01T09:27:15+09:00</time>
      </trkpt>
      <trkpt lat="35.692659" lon="139.559700">
        <time>2024-03-01T09:28:00+09:00</time>
      </trkpt>
      <trkpt lat="35.692588" lon="139.560598">
        <time>2024-03-01T09:28:45+09:00</time>
      </trkpt>
      <trkpt lat="35.692244" lon="139.561455">
        <time>2024-03-01T09:29:30+09:00</time>
      </trkpt>
      <trkpt lat="35.691915" lon="139.562316">
        <time>2024-03-01T09:30:15+09:00</time>
      </trkpt>
      <trkpt lat="35.691212" lon="139.563018">
        <time>2024-03-01T09:31:00+09:00</time>
      </trkpt>
      <trkpt lat="35.691654" lon="139.563846">
        <time>2024-03-01T09:31:45+09:00</time>
      </trkpt>
      <trkpt lat="35.691730" lon="139.564744">
        <time>2024-03-01T09:32:30+09:00</time>
      </trkpt>
      <trkpt lat="35.691506" lon="139.565626">
        <time>2024-03-01T09:33:15+09:00</time>
      </trkpt>
      <trkpt lat="35.690432" lon="139.565894">
        <time>2024-03-01T09:34:00+09:00</time>
      </trkpt>
      <trkpt lat="35.690100" lon="139.566529">
        <time>2024-03-01T09:34:45+09:00</time>
      </trkpt>
      <trkpt lat="35.691186" lon="139.566295">
        <time>2024-03-01T09:35:30+09:00</time>
      </trkpt>
      <trkpt lat="35.691588" lon="139.565454">
        <time>2024-03-01T09:36:15+09:00</time>
      </trkpt>
      <trkpt lat="35.692600" lon="139.565061">
        <time>2024-03-01T09:37:00+09:00</time>
      </trkpt>
      <trkpt lat="35.693614" lon="139.564670">
        <time>2024-03-01T09:37:45+09:00</time>
      </trkpt>
      <trkpt lat="35.694462" lon="139.564079">
        <time>2024-03-01T09:38:30+09:00</time>
      </trkpt>
      <trkpt lat="35.694510" lon="139.563180">
        <time>2024-03-01T09:39:15+09:00</time>
      </trkpt>
      <trkpt lat="35.695012" lon="139.562375">
        <time>2024-03-01T09:40:00+09:00</time>
      </trkpt>
      <trkpt lat="35.694714" lon="139.561507">
        <time>2024-03-01T09:40:45+09:00</time>
      </trkpt>
      <trkpt lat="35.693789" lon="139.560995">
        <time>2024-03-01T09:41:30+09:00</time>
      </trkpt>
      <trkpt lat="35.693168" lon="139.560244">
        <time>2024-03-01T09:42:15+09:00</time>
      </trkpt>
      <trkpt lat="35.693526" lon="139.559391">
        <time>2024-03-01T09:43:00+09:00</time>
      </trkpt>
      <trkpt lat="35.693430" lon="139.558494">
        <time>2024-03-01T09:43:45+09:00</time>
      </trkpt>
      <trkpt lat="35.694279" lon="139.557903">
        <time>2024-03-01T09:44:30+09:00</time>
      </trkpt>
      <trkpt lat="35.695401" lon="139.557970">
        <time>2024-03-01T09:45:15+09:00</time>
      </trkpt>
      <trkpt lat="35.696506" lon="139.558139">
        <time>2024-03-01T09:46:00+09:00</time>
      </trkpt>
      <trkpt lat="35.697085" lon="139.557367">
        <time>2024-03-01T09:46:45+09:00</time>
      </trkpt>
      <trkpt lat="35.697883" lon="139.556732">
        <time>2024-03-01T09:47:30+09:00</time>
      </trkpt>
      <trkpt lat="35.697828" lon="139.555833">
        <time>2024-03-01T09:48:15+09:00</time>
      </trkpt>
      <trkpt lat="35.697969" lon="139.554941">
        <time>2024-03-01T09:49:00+09:00</time>
      </trkpt>
      <trkpt lat="35.697212" lon="139.554275">
        <time>2024-03-01T09:49:45+09:00</time>
      </trkpt>
      <trkpt lat="35.696095" lon="139.554164">
        <time>2024-03-01T09:50:30+09:00</time>
      </trkpt>
      <trkpt lat="35.694990" lon="139.553996">
        <time>2024-03-01T09:51:15+09:00</time>
      </trkpt>
      <trkpt lat="35.694235" lon="139.553329">
        <time>2024-03-01T09:52:00+09:00</time>
      </trkpt>
      <trkpt lat="35.693145" lon="139.553108">
        <time>2024-03-01T09:52:45+09:00</time>
      </trkpt>
      <trkpt lat="35.692142" lon="139.552700">
        <time>2024-03-01T09:53:30+09:00</time>
      </trkpt>
      <trkpt lat="35.692030" lon="139.551804">
        <time>2024-03-01T09:54:15+09:00</time>
      </trkpt>
      <trkpt lat="35.692514" lon="139.550992">
        <time>2024-03-01T09:55:00+09:00</time>
      </trkpt>
      <trkpt lat="35.692956" lon="139.550164">
        <time>2024-03-01T09:55:45+09:00</time>
      </trkpt>
      <trkpt lat="35.693278" lon="139.550100">
        <time>2024-03-01T09:56:30+09:00</time>
      </trkpt>
      <trkpt lat="35.692694" lon="139.550869">
        <time>2024-03-01T09:57:15+09:00</time>
      </trkpt>
      <trkpt lat="35.692425" lon="139.551743">
        <time>2024-03-01T09:58:00+09:00</time>
      </trkpt>
      <trkpt lat="35.693089" lon="139.552470">
        <time>2024-03-01T09:58:45+09:00</time>
      </trkpt>
      <trkpt lat="35.693817" lon="139.553156">
        <time>2024-03-01T09:59:30+09:00</time>
      </trkpt>
      <trkpt lat="35.694897" lon="139.553409">
        <time>2024-03-01T10:00:15+09:00</time>
      </trkpt>
      <trkpt lat="35.695378" lon="139.554223">
        <time>2024-03-01T10:01:00+09:00</time>
      </trkpt>
      <trkpt lat="35.694728" lon="139.554957">
        <time>2024-03-01T10:01:45+09:00</time>
      </trkpt>
      <trkpt lat="35.693603" lon="139.554938">
        <time>2024-03-01T10:02:30+09:00</time>
      </trkpt>
      <trkpt lat="35.692529" lon="139.554670">
        <time>2024-03-01T10:03:15+09:00</time>
      </trkpt>
      <trkpt lat="35.691751" lon="139.554020">
        <time>2024-03-01T10:04:00+09:00</time>
      </trkpt>
      <trkpt lat="35.690711" lon="139.553676">
        <time>2024-03-01T10:04:45+09:00</time>
      </trkpt>
      <trkpt lat="35.690100" lon="139.553350">
        <time>2024-03-01T10:05:30+09:00</time>
      </trkpt>
      <trkpt lat="35.691099" lon="139.553764">
        <time>2024-03-01T10:06:15+09:00</time>
      </trkpt>
      <trkpt lat="35.691182" lon="139.554661">
        <time>2024-03-01T10:07:00+09:00</time>
      </trkpt>
      <trkpt lat="35.691905" lon="139.555351">
        <time>2024-03-01T10:07:45+09:00</time>
      </trkpt>
      <trkpt lat="35.692840" lon="139.555851">
        <time>2024-03-01T10:08:30+09:00</time>
      </trkpt>
      <trkpt lat="35.693934" lon="139.556062">
        <time>2024-03-01T10:09:15+09:00</time>
      </trkpt>
      <trkpt lat="35.694731" lon="139.556697">
        <time>2024-03-01T10:10:00+09:00</time>
      </trkpt>
      <trkpt lat="35.695096" lon="139.557548">
        <time>2024-03-01T10:10:45+09:00</time>
      </trkpt>
      <trkpt lat="35.695204" lon="139.558444">
        <time>2024-03-01T10:11:30+09:00</time>
      </trkpt>
      <trkpt lat="35.695034" lon="139.559333">
        <time>2024-03-01T10:12:15+09:00</time>
      </trkpt>
      <trkpt lat="35.694832" lon="139.560219">
        <time>2024-03-01T10:13:00+09:00</time>
      </trkpt>
      <trkpt lat="35.695648" lon="139.560839">
        <time>2024-03-01T10:13:45+09:00</time>
      </trkpt>
      <trkpt lat="35.696730" lon="139.560591">
        <time>2024-03-01T10:14:30+09:00</time>
      </trkpt>
      <trkpt lat="35.697594" lon="139.561167">
        <time>2024-03-01T10:15:15+09:00</time>
      </trkpt>
      <trkpt lat="35.698466" lon="139.561736">
        <time>2024-03-01T10:16:00+09:00</time>
      </trkpt>
      <trkpt lat="35.699251" lon="139.562381">
        <time>2024-03-01T10:16:45+09:00</time>
      </trkpt>
      <trkpt lat="35.699155" lon="139.563277">
        <time>2024-03-01T10:17:30+09:00</time>
      </trkpt>
      <trkpt lat="35.699016" lon="139.564171">
        <time>2024-03-01T10:18:15+09:00</time>
      </trkpt>
      <trkpt lat="35.698237" lon="139.564820">
        <time>2024-03-01T10:19:00+09:00</time>
      </trkpt>
      <trkpt lat="35.697158" lon="139.564565">
        <time>2024-03-01T10:19:45+09:00</time>
      </trkpt>
      <trkpt lat="35.696037" lon="139.564488">
        <time>2024-03-01T10:20:30+09:00</time>
      </trkpt>
      <trkpt lat="35.695584" lon="139.563665">
        <time>2024-03-01T10:21:15+09:00</time>
      </trkpt>
      <trkpt lat="35.695221" lon="139.562813">
        <time>2024-03-01T10:22:00+09:00</time>
      </trkpt>
      <trkpt lat="35.696003" lon="139.562165">
        <time>2024-03-01T10:22:45+09:00</time>
      </trkpt>
      <trkpt lat="35.697074" lon="139.562441">
        <time>2024-03-01T10:23:30+09:00</time>
      </trkpt>
      <trkpt lat="35.698062" lon="139.562011">
        <time>2024-03-01T10:24:15+09:00</time>
      </trkpt>
      <trkpt lat="35.698965" lon="139.562548">
        <time>2024-03-01T10:25:00+09:00</time>
      </trkpt>
    </trkseg>
  </trk>
</gpx>
