<?xml version="1.0" encoding="UTF-8"?>
<gpx version="1.1" creator="trajectory-viz demo" xmlns="http://www.topografix.com/GPX/1/1">
  <trk>
    <name>courier-02</name>
    <trkseg>
      <trkpt lat="35.708981" lon="139.578864">
        <time>2024-02-29T23:00:00Z</time>
      </trkpt>
      <trkpt lat="35.708447" lon="139.578072">
        <time>2024-02-29T23:00:50Z</time>
      </trkpt>
      <trkpt lat="35.708514" lon="139.577174">
        <time>2024-02-29T23:01:40Z</time>
      </trkpt>
      <trkpt lat="35.709571" lon="139.576866">
        <time>2024-02-29T23:02:30Z</time>
      </trkpt>
      <trkpt lat="35.709900" lon="139.576479">
        <time>2024-02-29T23:03:20Z</time>
      </trkpt>
      <trkpt lat="35.708947" lon="139.576958">
        <time>2024-02-29T23:04:10Z</time>
      </trkpt>
      <trkpt lat="35.707871" lon="139.576696">
        <time>2024-02-29T23:05:00Z</time>
      </trkpt>
      <trkpt lat="35.706823" lon="139.577024">
        <time>2024-02-29T23:05:50Z</time>
      </trkpt>
      <trkpt lat="35.705718" lon="139.577190">
        <time>2024-02-29T23:06:40Z</time>
      </trkpt>
      <trkpt lat="35.705091" lon="139.577937">
        <time>2024-02-29T23:07:30Z</time>
      </trkpt>
      <trkpt lat="35.704830" lon="139.578813">
        <time>2024-02-29T23:08:20Z</time>
      </trkpt>
      <trkpt lat="35.703798" lon="139.579170">
        <time>2024-02-29T23:09:10Z</time>
      </trkpt>
      <trkpt lat="35.702681" lon="139.579282">
        <time>2024-02-29T23:10:00Z</time>
      </trkpt>
      <trkpt lat="35.701635" lon="139.579613">
        <time>2024-02-29T23:10:50Z</time>
      </trkpt>
      <trkpt lat="35.700518" lon="139.579505">
        <time>2024-02-29T23:11:40Z</time>
      </trkpt>
      <trkpt lat="35.699590" lon="139.580015">
        <time>2024-02-29T23:12:30Z</time>
      </trkpt>
      <trkpt lat="35.698466" lon="139.580002">
        <time>2024-02-29T23:13:20Z</time>
      </trkpt>
      <trkpt lat="35.697480" lon="139.580436">
        <time>2024-02-29T23:14:10Z</time>
      </trkpt>
      <trkpt lat="35.696815" lon="139.581162">
        <time>2024-02-29T23:15:00Z</time>
      </trkpt>
      <trkpt lat="35.695703" lon="139.581023">
        <time>2024-02-29T23:15:50Z</time>
      </trkpt>
      <trkpt lat="35.694694" lon="139.581421">
        <time>2024-02-29T23:16:40Z</time>
      </trkpt>
      <trkpt lat="35.694232" lon="139.582242">
        <time>2024-02-29T23:17:30Z</time>
      </trkpt>
      <trkpt lat="35.694903" lon="139.582964">
        <time>2024-02-29T23:18:20Z</time>
      </trkpt>
      <trkpt lat="35.695956" lon="139.583280">
        <time>2024-02-29T23:19:10Z</time>
      </trkpt>
      <trkpt lat="35.696620" lon="139.584007">
        <time>2024-02-29T23:20:00Z</time>
      </trkpt>
      <trkpt lat="35.697603" lon="139.584446">
        <time>2024-02-29T23:20:50Z</time>
      </trkpt>
      <trkpt lat="35.697828" lon="139.585327">
        <time>2024-02-29T23:21:40Z</time>
      </trkpt>
      <trkpt lat="35.698684" lon="139.585912">
        <time>2024-02-29T23:22:30Z</time>
      </trkpt>
      <trkpt lat="35.699678" lon="139.586333">
        <time>2024-02-29T23:23:20Z</time>
      </trkpt>
      <trkpt lat="35.700482" lon="139.586963">
        <time>2024-02-29T23:24:10Z</time>
      </trkpt>
      <trkpt lat="35.700575" lon="139.587860">
        <time>2024-02-29T23:25:00Z</time>
      </trkpt>
      <trkpt lat="35.700755" lon="139.588748">
        <time>2024-02-29T23:25:50Z</time>
      </trkpt>
      <trkpt lat="35.701188" lon="139.589579">
        <time>2024-02-29T23:26:40Z</time>
      </trkpt>
      <trkpt lat="35.702200" lon="139.589971">
        <time>2024-02-29T23:27:30Z</time>
      </trkpt>
      <trkpt lat="35.703316" lon="139.590088">
        <time>2024-02-29T23:28:20Z</time>
      </trkpt>
      <trkpt lat="35.703574" lon="139.590964">
        <time>2024-02-29T23:29:10Z</time>
      </trkpt>
      <trkpt lat="35.704272" lon="139.591669">
        <time>2024-02-29T23:30:00Z</time>
      </trkpt>
      <trkpt lat="35.703922" lon="139.592525">
        <time>2024-02-29T23:30:50Z</time>
      </trkpt>
      <trkpt lat="35.703068" lon="139.593110">
        <time>2024-02-29T23:31:40Z</time>
      </trkpt>
      <trkpt lat="35.703054" lon="139.594010">
        <time>2024-02-29T23:32:30Z</time>
      </trkpt>
      <trkpt lat="35.703136" lon="139.594908">
        <time>2024-02-29T23:33:20Z</time>
      </trkpt>
      <trkpt lat="35.703203" lon="139.595806">
        <time>2024-02-29T23:34:10Z</time>
      </trkpt>
      <trkpt lat="35.704274" lon="139.596082">
        <time>2024-02-29T23:35:00Z</time>
      </trkpt>
      <trkpt lat="35.704412" lon="139.596975">
        <time>2024-02-29T23:35:50Z</time>
      </trkpt>
      <trkpt lat="35.704798" lon="139.597821">
        <time>2024-02-29T23:36:40Z</time>
      </trkpt>
      <trkpt lat="35.705900" lon="139.597999">
        <time>2024-02-29T23:37:30Z</time>
      </trkpt>
      <trkpt lat="35.706180" lon="139.598871">
        <time>2024-02-29T23:38:20Z</time>
      </trkpt>
      <trkpt lat="35.705409" lon="139.599526">
        <time>2024-02-29T23:39:10Z</time>
      </trkpt>
      <trkpt lat="35.704908" lon="139.599900">
        <time>2024-02-29T23:40:00Z</time>
      </trkpt>
      <trkpt lat="35.704326" lon="139.599130">
        <time>2024-02-29T23:40:50Z</time>
      </trkpt>
      <trkpt lat="35.704196" lon="139.598236">
        <time>2024-02-29T23:41:40Z</time>
      </trkpt>
      <trkpt lat="35.705106" lon="139.597706">
        <time>2024-02-29T23:42:30Z</time>
      </trkpt>
      <trkpt lat="35.706181" lon="139.597441">
        <time>2024-02-29T23:43:20Z</time>
      </trkpt>
      <trkpt lat="35.707165" lon="139.597005">
        <time>2024-02-29T23:44:10Z</time>
      </trkpt>
      <trkpt lat="35.707269" lon="139.596108">
        <time>2024-02-29T23:45:00Z</time>
      </trkpt>
      <trkpt lat="35.706618" lon="139.595374">
        <time>2024-02-29T23:45:50Z</time>
      </trkpt>
      <trkpt lat="35.705686" lon="139.594871">
        <time>2024-02-29T23:46:40Z</time>
      </trkpt>
      <trkpt lat="35.705087" lon="139.594109">
        <time>2024-02-29T23:47:30Z</time>
      </trkpt>
      <trkpt lat="35.704401" lon="139.593395">
        <time>2024-02-29T23:48:20Z</time>
      </trkpt>
      <trkpt lat="35.703867" lon="139.592604">
        <time>2024-02-29T23:49:10Z</time>
      </trkpt>
      <trkpt lat="35.703488" lon="139.591756">
        <time>2024-02-29T23:50:00Z</time>
      </trkpt>
      <trkpt lat="35.702366" lon="139.591694">
        <time>2024-02-29T23:50:50Z</time>
      </trkpt>
      <trkpt lat="35.701417" lon="139.592177">
        <time>2024-02-29T23:51:40Z</time>
      </trkpt>
      <trkpt lat="35.700321" lon="139.592378">
        <time>2024-02-29T23:52:30Z</time>
      </trkpt>
      <trkpt lat="35.699398" lon="139.591864">
        <time>2024-02-29T23:53:20Z</time>
      </trkpt>
      <trkpt lat="35.698284" lon="139.591738">
        <time>2024-02-29T23:54:10Z</time>
      </trkpt>
      <trkpt lat="35.697715" lon="139.590961">
        <time>2024-02-29T23:55:00Z</time>
      </trkpt>
      <trkpt lat="35.697394" lon="139.590099">
        <time>2024-02-29T23:55:50Z</time>
      </trkpt>
      <trkpt lat="35.696656" lon="139.589420">
        <time>2024-02-29T23:56:40Z</time>
      </trkpt>
      <trkpt lat="35.697092" lon="139.588590">
        <time>2024-02-29T23:57:30Z</time>
      </trkpt>
      <trkpt lat="35.697826" lon="139.587908">
        <time>2024-02-29T23:58:20Z</time>
      </trkpt>
      <trkpt lat="35.698560" lon="139.587226">
        <time>2024-02-29T23:59:10Z</time>
      </trkpt>
      <trkpt lat="35.699319" lon="139.586562">
        <time>2024-03-01T00:00:00Z</time>
      </trkpt>
      <trkpt lat="35.699088" lon="139.585681">
        <time>2024-03-01T00:00:50Z</time>
      </trkpt>
      <trkpt lat="35.699618" lon="139.584887">
        <time>2024-03-01T00:01:40Z</time>
      </trkpt>
      <trkpt lat="35.698924" lon="139.584179">
        <time>2024-03-01T00:02:30Z</time>
      </trkpt>
      <trkpt lat="35.699342" lon="139.583343">
        <time>2024-03-01T00:03:20Z</time>
      </trkpt>
      <trkpt lat="35.698977" lon="139.582492">
        <time>2024-03-01T00:04:10Z</time>
      </trkpt>
      <trkpt lat="35.698409" lon="139.581715">
        <time>2024-03-01T00:05:00Z</time>
      </trkpt>
      <trkpt lat="35.697534" lon="139.581149">
        <time>2024-03-01T00:05:50Z</time>
      </trkpt>
      <trkpt lat="35.696427" lon="139.581307">
        <time>2024-03-01T00:06:40Z</time>
      </trkpt>
      <trkpt lat="35.695318" lon="139.581461">
        <time>2024-03-01T00:07:30Z</time>
      </trkpt>
      <trkpt lat="35.694239" lon="139.581716">
        <time>2024-03-01T00:08:20Z</time>
      </trkpt>
      <trkpt lat="35.693690" lon="139.582501">
        <time>2024-03-01T00:09:10Z</time>
      </trkpt>
      <trkpt lat="35.694312" lon="139.583252">
        <time>2024-03-01T00:10:00Z</time>
      </trkpt>
      <trkpt lat="35.695437" lon="139.583255">
        <time>2024-03-01T00:10:50Z</time>
      </trkpt>
      <trkpt lat="35.696412" lon="139.582807">
        <time>2024-03-01T00:11:40Z</time>
      </trkpt>
      <trkpt lat="35.697466" lon="139.582491">
        <time>2024-03-01T00:12:30Z</time>
      </trkpt>
      <trkpt lat="35.697742" lon="139.581619">
        <time>2024-03-01T00:13:20Z</time>
      </trkpt>
      <trkpt lat="35.697022" lon="139.580927">
        <time>2024-03-01T00:14:10Z</time>
      </trkpt>
      <trkpt lat="35.695911" lon="139.581064">
        <time>2024-03-01T00:15:00Z</time>
      </trkpt>
      <trkpt lat="35.695244" lon="139.580339">
        <time>2024-03-01T00:15:50Z</time>
      </trkpt>
      <trkpt lat="35.694120" lon="139.580305">
        <time>2024-03-01T00:16:40Z</time>
      </trkpt>
      <trkpt lat="35.693035" lon="139.580543">
        <time>2024-03-01T00:17:30Z</time>
      </trkpt>
      <trkpt lat="35.692464" lon="139.581318">
        <time>2024-03-01T00:18:20Z</time>
      </trkpt>
      <trkpt lat="35.692937" lon="139.582135">
        <time>2024-03-01T00:19:10Z</time>
      </trkpt>
      <trkpt lat="35.694062" lon="139.582112">
        <time>2024-03-01T00:20:00Z</time>
      </trkpt>
      <trkpt lat="35.694864" lon="139.581481">
        <time>2024-03-01T00:20:50Z</time>
      </trkpt>
      <trkpt lat="35.694492" lon="139.580631">
        <time>2024-03-01T00:21:40Z</time>
      </trkpt>
      <trkpt lat="35.694342" lon="139.579739">
        <time>2024-03-01T00:22:30Z</time>
      </trkpt>
      <trkpt lat="35.695259" lon="139.579218">
        <time>2024-03-01T00:23:20Z</time>
      </trkpt>
      <trkpt lat="35.696384" lon="139.579224">
        <time>2024-03-01T00:24:10Z</time>
      </trkpt>
      <trkpt lat="35.697341" lon="139.578751">
        <time>2024-03-01T00:25:00Z</time>
      </trkpt>
      <trkpt lat="35.697732" lon="139.577907">
        <time>2024-03-01T00:25:50Z</time>
      </trkpt>
      <trkpt lat="35.697416" lon="139.577043">
        <time>2024-03-01T00:26:40Z</time>
      </trkpt>
      <trkpt lat="35.696859" lon="139.576261">
        <time>2024-03-01T00:27:30Z</time>
      </trkpt>
      <trkpt lat="35.696724" lon="139.575368">
        <time>2024-03-01T00:28:20Z</time>
      </trkpt>
      <trkpt lat="35.695890" lon="139.574763">
        <time>2024-03-01T00:29:10Z</time>
      </trkpt>
      <trkpt lat="35.694782" lon="139.574608">
        <time>2024-03-01T00:30:00Z</time>
      </trkpt>
      <trkpt lat="35.693688" lon="139.574817">
        <time>2024-03-01T00:30:50Z</time>
      </trkpt>
      <trkpt lat="35.692634" lon="139.574501">
        <time>2024-03-01T00:31:40Z</time>
      </trkpt>
      <trkpt lat="35.692541" lon="139.573604">
        <time>2024-03-01T00:32:30Z</time>
      </trkpt>
      <trkpt lat="35.693424" lon="139.573047">
        <time>2024-03-01T00:33:20Z</time>
      </trkpt>
      <trkpt lat="35.694530" lon="139.573211">
        <time>2024-03-01T00:34:10Z</time>
      </trkpt>
      <trkpt lat="35.695631" lon="139.573395">
        <time>2024-03-01T00:35:00Z</time>
      </trkpt>
      <trkpt lat="35.696669" lon="139.573047">
        <time>2024-03-01T00:35:50Z</time>
      </trkpt>
      <trkpt lat="35.696794" lon="139.572153">
        <time>2024-03-01T00:36:40Z</time>
      </trkpt>
      <trkpt lat="35.697028" lon="139.571272">
        <time>2024-03-01T00:37:30Z</time>
      </trkpt>
      <trkpt lat="35.696392" lon="139.570530">
        <time>2024-03-01T00:38:20Z</time>
      </trkpt>
      <trkpt lat="35.697043" lon="139.569796">
        <time>2024-03-01T00:39:10Z</time>
      </trkpt>
      <trkpt lat="35.696874" lon="139.570686">
        <time>2024-03-01T01:21:00Z</time>
      </trkpt>
      <trkpt lat="35.696375" lon="139.571492">
        <time>2024-03-01T01:21:50Z</time>
      </trkpt>
      <trkpt lat="35.696328" lon="139.572391">
        <time>2024-03-01T01:22:40Z</time>
      </trkpt>
      <trkpt lat="35.695296" lon="139.572748">
        <time>2024-03-01T01:23:30Z</time>
      </trkpt>
      <trkpt lat="35.694210" lon="139.572986">
        <time>2024-03-01T01:24:20Z</time>
      </trkpt>
      <trkpt lat="35.693409" lon="139.573617">
        <time>2024-03-01T01:25:10Z</time>
      </trkpt>
      <trkpt lat="35.692709" lon="139.574321">
        <time>2024-03-01T01:26:00Z</time>
      </trkpt>
      <trkpt lat="35.693047" lon="139.575180">
        <time>2024-03-01T01:26:50Z</time>
      </trkpt>
      <trkpt lat="35.693494" lon="139.576006">
        <time>2024-03-01T01:27:40Z</time>
      </trkpt>
      <trkpt lat="35.694597" lon="139.576182">
        <time>2024-03-01T01:28:30Z</time>
      </trkpt>
      <trkpt lat="35.695296" lon="139.576888">
        <time>2024-03-01T01:29:20Z</time>
      </trkpt>
      <trkpt lat="35.694907" lon="139.577732">
        <time>2024-03-01T01:30:10Z</time>
      </trkpt>
      <trkpt lat="35.695342" lon="139.578562">
        <time>2024-03-01T01:31:00Z</time>
      </trkpt>
      <trkpt lat="35.696049" lon="139.579262">
        <time>2024-03-01T01:31:50Z</time>
      </trkpt>
      <trkpt lat="35.695849" lon="139.580148">
        <time>2024-03-01T01:32:40Z</time>
      </trkpt>
      <trkpt lat="35.696679" lon="139.580755">
        <time>2024-03-01T01:33:30Z</time>
      </trkpt>
      <trkpt lat="35.696517" lon="139.581646">
        <time>2024-03-01T01:34:20Z</time>
      </trkpt>
      <trkpt lat="35.697361" lon="139.582241">
        <time>2024-03-01T01:35:10Z</time>
      </trkpt>
      <trkpt lat="35.698260" lon="139.582782">
        <time>2024-03-01T01:36:00Z</time>
      </trkpt>
      <trkpt lat="35.699179" lon="139.583301">
        <time>2024-03-01T01:36:50Z</time>
      </trkpt>
      <trkpt lat="35.700115" lon="139.583801">
        <time>2024-03-01T01:37:40Z</time>
      </trkpt>
      <trkpt lat="35.700006" lon="139.584697">
        <time>2024-03-01T01:38:30Z</time>
      </trkpt>
      <trkpt lat="35.699307" lon="139.585401">
        <time>2024-03-01T01:39:20Z</time>
      </trkpt>
      <trkpt lat="35.699841" lon="139.586193">
        <time>2024-03-01T01:40:10Z</time>
      </trkpt>
      <trkpt lat="35.700446" lon="139.586953">
        <time>2024-03-01T01:41:00Z</time>
      </trkpt>
      <trkpt lat="35.701425" lon="139.587396">
        <time>2024-03-01T01:41:50Z</time>
      </trkpt>
      <trkpt lat="35.702029" lon="139.588155">
        <time>2024-03-01T01:42:40Z</time>
      </trkpt>
      <trkpt lat="35.701569" lon="139.588977">
        <time>2024-03-01T01:43:30Z</time>
      </trkpt>
      <trkpt lat="35.701350" lon="139.589859">
        <time>2024-03-01T01:44:20Z</time>
      </trkpt>
      <trkpt lat="35.701831" lon="139.590673">
        <time>2024-03-01T01:45:10Z</time>
      </trkpt>
      <trkpt lat="35.702771" lon="139.591168">
        <time>2024-03-01T01:46:00Z</time>
      </trkpt>
      <trkpt lat="35.703174" lon="139.592008">
        <time>2024-03-01T01:46:50Z</time>
      </trkpt>
      <trkpt lat="35.702718" lon="139.592830">
        <time>2024-03-01T01:47:40Z</time>
      </trkpt>
      <trkpt lat="35.703404" lon="139.593544">
        <time>2024-03-01T01:48:30Z</time>
      </trkpt>
      <trkpt lat="35.704437" lon="139.593900">
        <time>2024-03-01T01:49:20Z</time>
      </trkpt>
      <trkpt lat="35.705405" lon="139.594359">
        <time>2024-03-01T01:50:10Z</time>
      </trkpt>
      <trkpt lat="35.706214" lon="139.594984">
        <time>2024-03-01T01:51:00Z</time>
      </trkpt>
      <trkpt lat="35.706593" lon="139.595832">
        <time>2024-03-01T01:51:50Z</time>
      </trkpt>
      <trkpt lat="35.707642" lon="139.596158">
        <time>2024-03-01T01:52:40Z</time>
      </trkpt>
      <trkpt lat="35.708721" lon="139.596412">
        <time>2024-03-01T01:53:30Z</time>
      </trkpt>
      <trkpt lat="35.709781" lon="139.596713">
        <time>2024-03-01T01:54:20Z</time>
      </trkpt>
      <trkpt lat="35.709900" lon="139.596054">
        <time>2024-03-01T01:55:10Z</time>
      </trkpt>
      <trkpt lat="35.708778" lon="139.596119">
        <time>2024-03-01T01:56:00Z</time>
      </trkpt>
      <trkpt lat="35.707898" lon="139.595558">
        <time>2024-03-01T01:56:50Z</time>
      </trkpt>
      <trkpt lat="35.706912" lon="139.595992">
        <time>2024-03-01T01:57:40Z</time>
      </trkpt>
      <trkpt lat="35.705862" lon="139.596317">
        <time>2024-03-01T01:58:30Z</time>
      </trkpt>
      <trkpt lat="35.705707" lon="139.597208">
        <time>2024-03-01T01:59:20Z</time>
      </trkpt>
      <trkpt lat="35.704857" lon="139.597798">
        <time>2024-03-01T02:00:10Z</time>
      </trkpt>
      <trkpt lat="35.705034" lon="139.598687">
        <time>2024-03-01T02:01:00Z</time>
      </trkpt>
      <trkpt lat="35.704626" lon="139.599525">
        <time>2024-03-01T02:01:50Z</time>
      </trkpt>
      <trkpt lat="35.703837" lon="139.599900">
        <time>2024-03-01T02:02:40Z</time>
      </trkpt>
      <trkpt lat="35.702727" lon="139.599900">
        <time>2024-03-01T02:03:30Z</time>
      </trkpt>
      <trkpt lat="35.702073" lon="139.599168">
        <time>2024-03-01T02:04:20Z</time>
      </trkpt>
      <trkpt lat="35.701845" lon="139.598286">
        <time>2024-03-01T02:05:10Z</time>
      </trkpt>
      <trkpt lat="35.702357" lon="139.597485">
        <time>2024-03-01T02:06:00Z</time>
      </trkpt>
      <trkpt lat="35.703027" lon="139.596762">
        <time>2024-03-01T02:06:50Z</time>
      </trkpt>
      <trkpt lat="35.704131" lon="139.596590">
        <time>2024-03-01T02:07:40Z</time>
      </trkpt>
      <trkpt lat="35.704733" lon="139.597350">
        <time>2024-03-01T02:08:30Z</time>
      </trkpt>
      <trkpt lat="35.704614" lon="139.598245">
        <time>2024-03-01T02:09:20Z</time>
      </trkpt>
      <trkpt lat="35.705581" lon="139.598704">
        <time>2024-03-01T02:10:10Z</time>
      </trkpt>
      <trkpt lat="35.706543" lon="139.598237">
        <time>2024-03-01T02:11:00Z</time>
      </trkpt>
      <trkpt lat="35.707638" lon="139.598443">
        <time>2024-03-01T02:11:50Z</time>
      </trkpt>
      <trkpt lat="35.708713" lon="139.598709">
        <time>2024-03-01T02:12:40Z</time>
      </trkpt>
      <trkpt lat="35.708779" lon="139.599607">
        <time>2024-03-01T02:13:30Z</time>
      </trkpt>
      <trkpt lat="35.709706" lon="139.599900">
        <time>2024-03-01T02:14:20Z</time>
      </trkpt>
      <trkpt lat="35.709900" lon="139.599631">
        <time>2024-03-01T02:15:10Z</time>
      </trkpt>
      <trkpt lat="35.709099" lon="139.599900">
        <time>2024-03-01T02:16:00Z</time>
      </trkpt>
      <trkpt lat="35.707983" lon="139.599900">
        <time>2024-03-01T02:16:50Z</time>
      </trkpt>
      <trkpt lat="35.706886" lon="139.599701">
        <time>2024-03-01T02:17:40Z</time>
      </trkpt>
      <trkpt lat="35.705762" lon="139.599660">
        <time>2024-03-01T02:18:30Z</time>
      </trkpt>
      <trkpt lat="35.704863" lon="139.599119">
        <time>2024-03-01T02:19:20Z</time>
      </trkpt>
      <trkpt lat="35.703854" lon="139.599518">
        <time>2024-03-01T02:20:10Z</time>
      </trkpt>
      <trkpt lat="35.703121" lon="139.599900">
        <time>2024-03-01T02:21:00Z</time>
      </trkpt>
      <trkpt lat="35.702156" lon="139.599438">
        <time>2024-03-01T02:21:50Z</time>
      </trkpt>
      <trkpt lat="35.701768" lon="139.598593">
        <time>2024-03-01T02:22:40Z</time>
      </trkpt>
      <trkpt lat="35.702495" lon="139.597906">
        <time>2024-03-01T02:23:30Z</time>
      </trkpt>
      <trkpt lat="35.703620" lon="139.597908">
        <time>2024-03-01T02:24:20Z</time>
      </trkpt>
      <trkpt lat="35.704390" lon="139.597251">
        <time>2024-03-01T02:25:10Z</time>
      </trkpt>
      <trkpt lat="35.704222" lon="139.596362">
        <time>2024-03-01T02:26:00Z</time>
      </trkpt>
      <trkpt lat="35.703564" lon="139.595631">
        <time>2024-03-01T02:26:50Z</time>
      </trkpt>
      <trkpt lat="35.703251" lon="139.594767">
        <time>2024-03-01T02:27:40Z</time>
      </trkpt>
      <trkpt lat="35.703998" lon="139.594094">
        <time>2024-03-01T02:28:30Z</time>
      </trkpt>
      <trkpt lat="35.705121" lon="139.594139">
        <time>2024-03-01T02:29:20Z</time>
      </trkpt>
      <trkpt lat="35.705970" lon="139.593548">
        <time>2024-03-01T02:30:10Z</time>
      </trkpt>
      <trkpt lat="35.707056" lon="139.593783">
        <time>2024-03-01T02:31:00Z</time>
      </trkpt>
      <trkpt lat="35.708160" lon="139.593955">
        <time>2024-03-01T02:31:50Z</time>
      </trkpt>
      <trkpt lat="35.709242" lon="139.594203">
        <time>2024-03-01T02:32:40Z</time>
      </trkpt>
      <trkpt lat="35.709852" lon="139.594959">
        <time>2024-03-01T02:33:30Z</time>
      </trkpt>
      <trkpt lat="35.709420" lon="139.595790">
        <time>2024-03-01T02:34:20Z</time>
      </trkpt>
      <trkpt lat="35.708447" lon="139.596242">
        <time>2024-03-01T02:35:10Z</time>
      </trkpt>
      <trkpt lat="35.707662" lon="139.596887">
        <time>2024-03-01T02:36:00Z</time>
      </trkpt>
      <trkpt lat="35.708005" lon="139.597744">
        <time>2024-03-01T02:36:50Z</time>
      </trkpt>
      <trkpt lat="35.708141" lon="139.598637">
        <time>2024-03-01T02:37:40Z</time>
      </trkpt>
      <trkpt lat="35.707322" lon="139.599254">
        <time>2024-03-01T02:38:30Z</time>
      </trkpt>
      <trkpt lat="35.707200" lon="139.599900">
        <time>2024-03-01T02:39:20Z</time>
      </trkpt>
      <trkpt lat="35.708194" lon="139.599479">
        <time>2024-03-01T02:40:10Z</time>
      </trkpt>
      <trkpt lat="35.709274" lon="139.599732">
        <time>2024-03-01T02:41:00Z</time>
      </trkpt>
      <trkpt lat="35.709900" lon="139.599568">
        <time>2024-03-01T02:41:50Z</time>
      </trkpt>
      <trkpt lat="35.708815" lon="139.599804">
        <time>2024-03-01T02:42:40Z</time>
      </trkpt>
      <trkpt lat="35.708657" lon="139.599900">
        <time>2024-03-01T02:43:30Z</time>
      </trkpt>
      <trkpt lat="35.707583" lon="139.599632">
        <time>2024-03-01T02:44:20Z</time>
      </trkpt>
      <trkpt lat="35.706788" lon="139.598995">
        <time>2024-03-01T02:45:10Z</time>
      </trkpt>
      <trkpt lat="35.705671" lon="139.599105">
        <time>2024-03-01T02:46:00Z</time>
      </trkpt>
      <trkpt lat="35.704651" lon="139.599485">
        <time>2024-03-01T02:46:50Z</time>
      </trkpt>
      <trkpt lat="35.703590" lon="139.599186">
        <time>2024-03-01T02:47:40Z</time>
      </trkpt>
      <trkpt lat="35.702486" lon="139.599360">
        <time>2024-03-01T02:48:30Z</time>
      </trkpt>
      <trkpt lat="35.701370" lon="139.599477">
        <time>2024-03-01T02:49:20Z</time>
      </trkpt>
      <trkpt lat="35.700305" lon="139.599766">
        <time>2024-03-01T02:50:10Z</time>
      </trkpt>
      <trkpt lat="35.699842" lon="139.599900">
        <time>2024-03-01T02:51:00Z</time>
      </trkpt>
      <trkpt lat="35.699631" lon="139.599016">
        <time>2024-03-01T02:51:50Z</time>
      </trkpt>
      <trkpt lat="35.698649" lon="139.598578">
        <time>2024-03-01T02:52:40Z</time>
      </trkpt>
      <trkpt lat="35.697636" lon="139.598185">
        <time>2024-03-01T02:53:30Z</time>
      </trkpt>
      <trkpt lat="35.697337" lon="139.597318">
        <time>2024-03-01T02:54:20Z</time>
      </trkpt>
      <trkpt lat="35.696240" lon="139.597117">
        <time>2024-03-01T02:55:10Z</time>
      </trkpt>
      <trkpt lat="35.695121" lon="139.597024">
        <time>2024-03-01T02:56:00Z</time>
      </trkpt>
      <trkpt lat="35.694627" lon="139.597833">
        <time>2024-03-01T02:56:50Z</time>
      </trkpt>
      <trkpt lat="35.694942" lon="139.598697">
        <time>2024-03-01T02:57:40Z</time>
      </trkpt>
      <trkpt lat="35.695472" lon="139.599491">
        <time>2024-03-01T02:58:30Z</time>
      </trkpt>
      <trkpt lat="35.695903" lon="139.599900">
        <time>2024-03-01T02:59:20Z</time>
      </trkpt>
      <trkpt lat="35.696837" lon="139.599398">
        <time>2024-03-01T03:00:10Z</time>
      </trkpt>
      <trkpt lat="35.697619" lon="139.598752">
        <time>2024-03-01T03:01:00Z</time>
      </trkpt>
      <trkpt lat="35.698744" lon="139.598742">
        <time>2024-03-01T03:01:50Z</time>
      </trkpt>
      <trkpt lat="35.699800" lon="139.599053">
        <time>2024-03-01T03:02:40Z</time>
      </trkpt>
      <trkpt lat="35.700616" lon="139.599672">
        <time>2024-03-01T03:03:30Z</time>
      </trkpt>
    </trkseg>
  </trk>
</gpx>
