<?xml version="1.0" encoding="UTF-8"?>
<gpx version="1.1" creator="trajectory-viz demo" xmlns="http://www.topografix.com/GPX/1/1">
  <trk>
    <name>courier-06</name>
    <trkseg>
      <trkpt lat="35.698032" lon="139.552919">
        <time>2024-02-29T22:48:00Z</time>
      </trkpt>
      <trkpt lat="35.697124" lon="139.553450">
        <time>2024-02-29T22:48:45Z</time>
      </trkpt>
      <trkpt lat="35.696002" lon="139.553519">
        <time>2024-02-29T22:49:30Z</time>
      </trkpt>
      <trkpt lat="35.695337" lon="139.554245">
        <time>2024-02-29T22:50:15Z</time>
      </trkpt>
      <trkpt lat="35.694215" lon="139.554311">
        <time>2024-02-29T22:51:00Z</time>
      </trkpt>
      <trkpt lat="35.693383" lon="139.554916">
        <time>2024-02-29T22:51:45Z</time>
      </trkpt>
      <trkpt lat="35.693185" lon="139.555802">
        <time>2024-02-29T22:52:30Z</time>
      </trkpt>
      <trkpt lat="35.694085" lon="139.556341">
        <time>2024-02-29T22:53:15Z</time>
      </trkpt>
      <trkpt lat="35.695161" lon="139.556078">
        <time>2024-02-29T22:54:00Z</time>
      </trkpt>
      <trkpt lat="35.695620" lon="139.555256">
        <time>2024-02-29T22:54:45Z</time>
      </trkpt>
      <trkpt lat="35.695213" lon="139.554417">
        <time>2024-02-29T22:55:30Z</time>
      </trkpt>
      <trkpt lat="35.694115" lon="139.554218">
        <time>2024-02-29T22:56:15Z</time>
      </trkpt>
      <trkpt lat="35.693742" lon="139.553369">
        <time>2024-02-29T22:57:00Z</time>
      </trkpt>
      <trkpt lat="35.692621" lon="139.553289">
        <time>2024-02-29T22:57:45Z</time>
      </trkpt>
      <trkpt lat="35.692035" lon="139.552521">
        <time>2024-02-29T22:58:30Z</time>
      </trkpt>
      <trkpt lat="35.691243" lon="139.551882">
        <time>2024-02-29T22:59:15Z</time>
      </trkpt>
      <trkpt lat="35.691679" lon="139.551052">
        <time>2024-02-29T23:00:00Z</time>
      </trkpt>
      <trkpt lat="35.691595" lon="139.550155">
        <time>2024-02-29T23:00:45Z</time>
      </trkpt>
      <trkpt lat="35.691319" lon="139.550100">
        <time>2024-02-29T23:01:30Z</time>
      </trkpt>
      <trkpt lat="35.691736" lon="139.550936">
        <time>2024-02-29T23:02:15Z</time>
      </trkpt>
      <trkpt lat="35.692730" lon="139.551357">
        <time>2024-02-29T23:03:00Z</time>
      </trkpt>
      <trkpt lat="35.693749" lon="139.551739">
        <time>2024-02-29T23:03:45Z</time>
      </trkpt>
      <trkpt lat="35.694621" lon="139.552307">
        <time>2024-02-29T23:04:30Z</time>
      </trkpt>
      <trkpt lat="35.694563" lon="139.553206">
        <time>2024-02-29T23:05:15Z</time>
      </trkpt>
      <trkpt lat="35.695094" lon="139.553999">
        <time>2024-02-29T23:06:00Z</time>
      </trkpt>
      <trkpt lat="35.696199" lon="139.554170">
        <time>2024-02-29T23:06:45Z</time>
      </trkpt>
      <trkpt lat="35.697125" lon="139.554681">
        <time>2024-02-29T23:07:30Z</time>
      </trkpt>
      <trkpt lat="35.696845" lon="139.555553">
        <time>2024-02-29T23:08:15Z</time>
      </trkpt>
      <trkpt lat="35.695788" lon="139.555861">
        <time>2024-02-29T23:09:00Z</time>
      </trkpt>
      <trkpt lat="35.695393" lon="139.556704">
        <time>2024-02-29T23:09:45Z</time>
      </trkpt>
      <trkpt lat="35.696190" lon="139.557339">
        <time>2024-02-29T23:10:30Z</time>
      </trkpt>
      <trkpt lat="35.696701" lon="139.558141">
        <time>2024-02-29T23:11:15Z</time>
      </trkpt>
      <trkpt lat="35.696034" lon="139.558866">
        <time>2024-02-29T23:12:00Z</time>
      </trkpt>
      <trkpt lat="35.696072" lon="139.559766">
        <time>2024-02-29T23:12:45Z</time>
      </trkpt>
      <trkpt lat="35.695897" lon="139.560655">
        <time>2024-02-29T23:13:30Z</time>
      </trkpt>
      <trkpt lat="35.695070" lon="139.561265">
        <time>2024-02-29T23:14:15Z</time>
      </trkpt>
      <trkpt lat="35.693962" lon="139.561420">
        <time>2024-02-29T23:15:00Z</time>
      </trkpt>
      <trkpt lat="35.693541" lon="139.562255">
        <time>2024-02-29T23:15:45Z</time>
      </trkpt>
      <trkpt lat="35.693324" lon="139.563138">
        <time>2024-02-29T23:16:30Z</time>
      </trkpt>
      <trkpt lat="35.694146" lon="139.563753">
        <time>2024-02-29T23:17:15Z</time>
      </trkpt>
      <trkpt lat="35.695040" lon="139.564298">
        <time>2024-02-29T23:18:00Z</time>
      </trkpt>
      <trkpt lat="35.695723" lon="139.565014">
        <time>2024-02-29T23:18:45Z</time>
      </trkpt>
      <trkpt lat="35.696000" lon="139.565886">
        <time>2024-02-29T23:19:30Z</time>
      </trkpt>
      <trkpt lat="35.695673" lon="139.566747">
        <time>2024-02-29T23:20:15Z</time>
      </trkpt>
      <trkpt lat="35.694564" lon="139.566900">
        <time>2024-02-29T23:21:00Z</time>
      </trkpt>
      <trkpt lat="35.693456" lon="139.567054">
        <time>2024-02-29T23:21:45Z</time>
      </trkpt>
      <trkpt lat="35.692697" lon="139.566389">
        <time>2024-02-29T23:22:30Z</time>
      </trkpt>
      <trkpt lat="35.692795" lon="139.565492">
        <time>2024-02-29T23:23:15Z</time>
      </trkpt>
      <trkpt lat="35.692042" lon="139.564823">
        <time>2024-02-29T23:24:00Z</time>
      </trkpt>
      <trkpt lat="35.692008" lon="139.563923">
        <time>2024-02-29T23:24:45Z</time>
      </trkpt>
      <trkpt lat="35.693033" lon="139.563552">
        <time>2024-02-29T23:25:30Z</time>
      </trkpt>
      <trkpt lat="35.693857" lon="139.562939">
        <time>2024-02-29T23:26:15Z</time>
      </trkpt>
      <trkpt lat="35.694285" lon="139.562106">
        <time>2024-02-29T23:27:00Z</time>
      </trkpt>
      <trkpt lat="35.694516" lon="139.561226">
        <time>2024-02-29T23:27:45Z</time>
      </trkpt>
      <trkpt lat="35.695140" lon="139.560477">
        <time>2024-02-29T23:28:30Z</time>
      </trkpt>
      <trkpt lat="35.695385" lon="139.559598">
        <time>2024-02-29T23:29:15Z</time>
      </trkpt>
      <trkpt lat="35.696038" lon="139.558866">
        <time>2024-02-29T23:30:00Z</time>
      </trkpt>
      <trkpt lat="35.696392" lon="139.558011">
        <time>2024-02-29T23:30:45Z</time>
      </trkpt>
      <trkpt lat="35.695902" lon="139.557202">
        <time>2024-02-29T23:31:30Z</time>
      </trkpt>
      <trkpt lat="35.695018" lon="139.556644">
        <time>2024-02-29T23:32:15Z</time>
      </trkpt>
      <trkpt lat="35.695210" lon="139.555757">
        <time>2024-02-29T23:33:00Z</time>
      </trkpt>
      <trkpt lat="35.695771" lon="139.554977">
        <time>2024-02-29T23:33:45Z</time>
      </trkpt>
      <trkpt lat="35.696617" lon="139.554384">
        <time>2024-02-29T23:34:30Z</time>
      </trkpt>
      <trkpt lat="35.696338" lon="139.553512">
        <time>2024-02-29T23:35:15Z</time>
      </trkpt>
      <trkpt lat="35.695434" lon="139.552977">
        <time>2024-02-29T23:36:00Z</time>
      </trkpt>
      <trkpt lat="35.694352" lon="139.553226">
        <time>2024-02-29T23:36:45Z</time>
      </trkpt>
      <trkpt lat="35.693379" lon="139.552775">
        <time>2024-02-29T23:37:30Z</time>
      </trkpt>
      <trkpt lat="35.692301" lon="139.552516">
        <time>2024-02-29T23:38:15Z</time>
      </trkpt>
      <trkpt lat="35.691202" lon="139.552706">
        <time>2024-02-29T23:39:00Z</time>
      </trkpt>
      <trkpt lat="35.690980" lon="139.553588">
        <time>2024-02-29T23:39:45Z</time>
      </trkpt>
      <trkpt lat="35.691612" lon="139.554333">
        <time>2024-02-29T23:40:30Z</time>
      </trkpt>
      <trkpt lat="35.692552" lon="139.554827">
        <time>2024-02-29T23:41:15Z</time>
      </trkpt>
      <trkpt lat="35.693461" lon="139.554297">
        <time>2024-02-29T23:42:00Z</time>
      </trkpt>
      <trkpt lat="35.694010" lon="139.553511">
        <time>2024-02-29T23:42:45Z</time>
      </trkpt>
      <trkpt lat="35.695102" lon="139.553295">
        <time>2024-02-29T23:43:30Z</time>
      </trkpt>
      <trkpt lat="35.696211" lon="139.553143">
        <time>2024-02-29T23:44:15Z</time>
      </trkpt>
      <trkpt lat="35.697056" lon="139.553737">
        <time>2024-02-29T23:45:00Z</time>
      </trkpt>
      <trkpt lat="35.697815" lon="139.554401">
        <time>2024-02-29T23:45:45Z</time>
      </trkpt>
      <trkpt lat="35.698068" lon="139.555278">
        <time>2024-02-29T23:46:30Z</time>
      </trkpt>
      <trkpt lat="35.698483" lon="139.556115">
        <time>2024-02-29T23:47:15Z</time>
      </trkpt>
      <trkpt lat="35.699524" lon="139.556456">
        <time>2024-02-29T23:48:00Z</time>
      </trkpt>
      <trkpt lat="35.700474" lon="139.555974">
        <time>2024-02-29T23:48:45Z</time>
      </trkpt>
      <trkpt lat="35.701499" lon="139.556344">
        <time>2024-02-29T23:49:30Z</time>
      </trkpt>
      <trkpt lat="35.701431" lon="139.557242">
        <time>2024-02-29T23:50:15Z</time>
      </trkpt>
      <trkpt lat="35.701397" lon="139.558142">
        <time>2024-02-29T23:51:00Z</time>
      </trkpt>
      <trkpt lat="35.700365" lon="139.558501">
        <time>2024-02-29T23:51:45Z</time>
      </trkpt>
      <trkpt lat="35.699523" lon="139.557905">
        <time>2024-02-29T23:52:30Z</time>
      </trkpt>
      <trkpt lat="35.698434" lon="139.557677">
        <time>2024-02-29T23:53:15Z</time>
      </trkpt>
      <trkpt lat="35.697499" lon="139.557177">
        <time>2024-02-29T23:54:00Z</time>
      </trkpt>
      <trkpt lat="35.696973" lon="139.556381">
        <time>2024-02-29T23:54:45Z</time>
      </trkpt>
      <trkpt lat="35.696516" lon="139.555559">
        <time>2024-02-29T23:55:30Z</time>
      </trkpt>
      <trkpt lat="35.695413" lon="139.555383">
        <time>2024-02-29T23:56:15Z</time>
      </trkpt>
      <trkpt lat="35.694541" lon="139.555952">
        <time>2024-02-29T23:57:00Z</time>
      </trkpt>
      <trkpt lat="35.693472" lon="139.555672">
        <time>2024-02-29T23:57:45Z</time>
      </trkpt>
      <trkpt lat="35.692620" lon="139.555085">
        <time>2024-02-29T23:58:30Z</time>
      </trkpt>
      <trkpt lat="35.691879" lon="139.554407">
        <time>2024-02-29T23:59:15Z</time>
      </trkpt>
      <trkpt lat="35.690867" lon="139.554014">
        <time>2024-03-01T00:00:00Z</time>
      </trkpt>
      <trkpt lat="35.690100" lon="139.553612">
        <time>2024-03-01T00:00:45Z</time>
      </trkpt>
      <trkpt lat="35.690941" lon="139.553015">
        <time>2024-03-01T00:01:30Z</time>
      </trkpt>
      <trkpt lat="35.692047" lon="139.552851">
        <time>2024-03-01T00:02:15Z</time>
      </trkpt>
      <trkpt lat="35.693075" lon="139.553218">
        <time>2024-03-01T00:03:00Z</time>
      </trkpt>
      <trkpt lat="35.694141" lon="139.553505">
        <time>2024-03-01T00:03:45Z</time>
      </trkpt>
      <trkpt lat="35.695263" lon="139.553442">
        <time>2024-03-01T00:04:30Z</time>
      </trkpt>
      <trkpt lat="35.695937" lon="139.554162">
        <time>2024-03-01T00:05:15Z</time>
      </trkpt>
      <trkpt lat="35.696847" lon="139.554692">
        <time>2024-03-01T00:06:00Z</time>
      </trkpt>
      <trkpt lat="35.697970" lon="139.554637">
        <time>2024-03-01T00:06:45Z</time>
      </trkpt>
      <trkpt lat="35.699018" lon="139.554310">
        <time>2024-03-01T00:07:30Z</time>
      </trkpt>
      <trkpt lat="35.699956" lon="139.554807">
        <time>2024-03-01T00:08:15Z</time>
      </trkpt>
      <trkpt lat="35.700185" lon="139.555688">
        <time>2024-03-01T00:09:00Z</time>
      </trkpt>
      <trkpt lat="35.699676" lon="139.556491">
        <time>2024-03-01T00:09:45Z</time>
      </trkpt>
      <trkpt lat="35.698589" lon="139.556723">
        <time>2024-03-01T00:10:30Z</time>
      </trkpt>
      <trkpt lat="35.697587" lon="139.556314">
        <time>2024-03-01T00:11:15Z</time>
      </trkpt>
      <trkpt lat="35.696496" lon="139.556094">
        <time>2024-03-01T00:12:00Z</time>
      </trkpt>
      <trkpt lat="35.695808" lon="139.556806">
        <time>2024-03-01T00:12:45Z</time>
      </trkpt>
      <trkpt lat="35.695306" lon="139.557611">
        <time>2024-03-01T00:13:30Z</time>
      </trkpt>
      <trkpt lat="35.694182" lon="139.557656">
        <time>2024-03-01T00:14:15Z</time>
      </trkpt>
      <trkpt lat="35.693507" lon="139.558376">
        <time>2024-03-01T00:15:00Z</time>
      </trkpt>
      <trkpt lat="35.692392" lon="139.558260">
        <time>2024-03-01T00:15:45Z</time>
      </trkpt>
      <trkpt lat="35.691274" lon="139.558364">
        <time>2024-03-01T00:16:30Z</time>
      </trkpt>
      <trkpt lat="35.690948" lon="139.559225">
        <time>2024-03-01T00:17:15Z</time>
      </trkpt>
      <trkpt lat="35.691216" lon="139.560099">
        <time>2024-03-01T00:18:00Z</time>
      </trkpt>
      <trkpt lat="35.691399" lon="139.560987">
        <time>2024-03-01T00:18:45Z</time>
      </trkpt>
      <trkpt lat="35.691880" lon="139.561801">
        <time>2024-03-01T00:19:30Z</time>
      </trkpt>
      <trkpt lat="35.692030" lon="139.562693">
        <time>2024-03-01T00:20:15Z</time>
      </trkpt>
      <trkpt lat="35.691784" lon="139.563571">
        <time>2024-03-01T00:21:00Z</time>
      </trkpt>
      <trkpt lat="35.692159" lon="139.564420">
        <time>2024-03-01T00:21:45Z</time>
      </trkpt>
      <trkpt lat="35.691808" lon="139.565275">
        <time>2024-03-01T00:22:30Z</time>
      </trkpt>
      <trkpt lat="35.691235" lon="139.566049">
        <time>2024-03-01T00:23:15Z</time>
      </trkpt>
      <trkpt lat="35.690115" lon="139.565971">
        <time>2024-03-01T00:24:00Z</time>
      </trkpt>
      <trkpt lat="35.690100" lon="139.566703">
        <time>2024-03-01T00:24:45Z</time>
      </trkpt>
      <trkpt lat="35.690701" lon="139.567463">
        <time>2024-03-01T01:15:30Z</time>
      </trkpt>
      <trkpt lat="35.691603" lon="139.568002">
        <time>2024-03-01T01:16:15Z</time>
      </trkpt>
      <trkpt lat="35.692709" lon="139.567841">
        <time>2024-03-01T01:17:00Z</time>
      </trkpt>
      <trkpt lat="35.693725" lon="139.567453">
        <time>2024-03-01T01:17:45Z</time>
      </trkpt>
      <trkpt lat="35.694653" lon="139.566944">
        <time>2024-03-01T01:18:30Z</time>
      </trkpt>
      <trkpt lat="35.695756" lon="139.566770">
        <time>2024-03-01T01:19:15Z</time>
      </trkpt>
      <trkpt lat="35.696674" lon="139.566249">
        <time>2024-03-01T01:20:00Z</time>
      </trkpt>
      <trkpt lat="35.696803" lon="139.565355">
        <time>2024-03-01T01:20:45Z</time>
      </trkpt>
      <trkpt lat="35.696412" lon="139.564511">
        <time>2024-03-01T01:21:30Z</time>
      </trkpt>
      <trkpt lat="35.696275" lon="139.563618">
        <time>2024-03-01T01:22:15Z</time>
      </trkpt>
      <trkpt lat="35.696512" lon="139.562738">
        <time>2024-03-01T01:23:00Z</time>
      </trkpt>
      <trkpt lat="35.696088" lon="139.561905">
        <time>2024-03-01T01:23:45Z</time>
      </trkpt>
      <trkpt lat="35.695279" lon="139.561280">
        <time>2024-03-01T01:24:30Z</time>
      </trkpt>
      <trkpt lat="35.694246" lon="139.561637">
        <time>2024-03-01T01:25:15Z</time>
      </trkpt>
      <trkpt lat="35.693157" lon="139.561862">
        <time>2024-03-01T01:26:00Z</time>
      </trkpt>
      <trkpt lat="35.692336" lon="139.561247">
        <time>2024-03-01T01:26:45Z</time>
      </trkpt>
      <trkpt lat="35.692326" lon="139.560347">
        <time>2024-03-01T01:27:30Z</time>
      </trkpt>
      <trkpt lat="35.692601" lon="139.559474">
        <time>2024-03-01T01:28:15Z</time>
      </trkpt>
      <trkpt lat="35.691891" lon="139.558776">
        <time>2024-03-01T01:29:00Z</time>
      </trkpt>
      <trkpt lat="35.691238" lon="139.558043">
        <time>2024-03-01T01:29:45Z</time>
      </trkpt>
      <trkpt lat="35.691140" lon="139.557147">
        <time>2024-03-01T01:30:30Z</time>
      </trkpt>
      <trkpt lat="35.691420" lon="139.556275">
        <time>2024-03-01T01:31:15Z</time>
      </trkpt>
      <trkpt lat="35.691204" lon="139.555391">
        <time>2024-03-01T01:32:00Z</time>
      </trkpt>
      <trkpt lat="35.690702" lon="139.554586">
        <time>2024-03-01T01:32:45Z</time>
      </trkpt>
      <trkpt lat="35.690585" lon="139.553691">
        <time>2024-03-01T01:33:30Z</time>
      </trkpt>
      <trkpt lat="35.690066" lon="139.552892">
        <time>2024-03-01T01:34:15Z</time>
      </trkpt>
      <trkpt lat="35.690100" lon="139.552769">
        <time>2024-03-01T01:35:00Z</time>
      </trkpt>
      <trkpt lat="35.690754" lon="139.552036">
        <time>2024-03-01T01:35:45Z</time>
      </trkpt>
      <trkpt lat="35.691777" lon="139.551663">
        <time>2024-03-01T01:36:30Z</time>
      </trkpt>
      <trkpt lat="35.692867" lon="139.551439">
        <time>2024-03-01T01:37:15Z</time>
      </trkpt>
      <trkpt lat="35.693877" lon="139.551043">
        <time>2024-03-01T01:38:00Z</time>
      </trkpt>
      <trkpt lat="35.694990" lon="139.551172">
        <time>2024-03-01T01:38:45Z</time>
      </trkpt>
      <trkpt lat="35.695958" lon="139.550713">
        <time>2024-03-01T01:39:30Z</time>
      </trkpt>
      <trkpt lat="35.697035" lon="139.550452">
        <time>2024-03-01T01:40:15Z</time>
      </trkpt>
      <trkpt lat="35.697806" lon="139.550100">
        <time>2024-03-01T01:41:00Z</time>
      </trkpt>
      <trkpt lat="35.698354" lon="139.550886">
        <time>2024-03-01T01:41:45Z</time>
      </trkpt>
      <trkpt lat="35.699039" lon="139.551600">
        <time>2024-03-01T01:42:30Z</time>
      </trkpt>
      <trkpt lat="35.699937" lon="139.552142">
        <time>2024-03-01T01:43:15Z</time>
      </trkpt>
      <trkpt lat="35.700504" lon="139.552919">
        <time>2024-03-01T01:44:00Z</time>
      </trkpt>
      <trkpt lat="35.700819" lon="139.553783">
        <time>2024-03-01T01:44:45Z</time>
      </trkpt>
      <trkpt lat="35.699931" lon="139.554336">
        <time>2024-03-01T01:45:30Z</time>
      </trkpt>
      <trkpt lat="35.698813" lon="139.554442">
        <time>2024-03-01T01:46:15Z</time>
      </trkpt>
      <trkpt lat="35.697689" lon="139.554412">
        <time>2024-03-01T01:47:00Z</time>
      </trkpt>
      <trkpt lat="35.696820" lon="139.553841">
        <time>2024-03-01T01:47:45Z</time>
      </trkpt>
      <trkpt lat="35.695850" lon="139.554297">
        <time>2024-03-01T01:48:30Z</time>
      </trkpt>
      <trkpt lat="35.694752" lon="139.554102">
        <time>2024-03-01T01:49:15Z</time>
      </trkpt>
      <trkpt lat="35.693657" lon="139.553896">
        <time>2024-03-01T01:50:00Z</time>
      </trkpt>
      <trkpt lat="35.692641" lon="139.553510">
        <time>2024-03-01T01:50:45Z</time>
      </trkpt>
      <trkpt lat="35.692237" lon="139.552670">
        <time>2024-03-01T01:51:30Z</time>
      </trkpt>
      <trkpt lat="35.691356" lon="139.552110">
        <time>2024-03-01T01:52:15Z</time>
      </trkpt>
      <trkpt lat="35.690532" lon="139.551498">
        <time>2024-03-01T01:53:00Z</time>
      </trkpt>
      <trkpt lat="35.690576" lon="139.550598">
        <time>2024-03-01T01:53:45Z</time>
      </trkpt>
      <trkpt lat="35.690100" lon="139.550100">
        <time>2024-03-01T01:54:30Z</time>
      </trkpt>
      <trkpt lat="35.690673" lon="139.550874">
        <time>2024-03-01T01:55:15Z</time>
      </trkpt>
      <trkpt lat="35.690098" lon="139.551648">
        <time>2024-03-01T01:56:00Z</time>
      </trkpt>
      <trkpt lat="35.690100" lon="139.552224">
        <time>2024-03-01T01:56:45Z</time>
      </trkpt>
      <trkpt lat="35.690950" lon="139.552814">
        <time>2024-03-01T01:57:30Z</time>
      </trkpt>
      <trkpt lat="35.690814" lon="139.553708">
        <time>2024-03-01T01:58:15Z</time>
      </trkpt>
      <trkpt lat="35.691307" lon="139.554516">
        <time>2024-03-01T01:59:00Z</time>
      </trkpt>
      <trkpt lat="35.692432" lon="139.554530">
        <time>2024-03-01T01:59:45Z</time>
      </trkpt>
      <trkpt lat="35.693525" lon="139.554316">
        <time>2024-03-01T02:00:30Z</time>
      </trkpt>
      <trkpt lat="35.693889" lon="139.553465">
        <time>2024-03-01T02:01:15Z</time>
      </trkpt>
      <trkpt lat="35.694246" lon="139.552611">
        <time>2024-03-01T02:02:00Z</time>
      </trkpt>
      <trkpt lat="35.695045" lon="139.551978">
        <time>2024-03-01T02:02:45Z</time>
      </trkpt>
      <trkpt lat="35.696168" lon="139.551925">
        <time>2024-03-01T02:03:30Z</time>
      </trkpt>
      <trkpt lat="35.697205" lon="139.551576">
        <time>2024-03-01T02:04:15Z</time>
      </trkpt>
      <trkpt lat="35.697662" lon="139.550754">
        <time>2024-03-01T02:05:00Z</time>
      </trkpt>
      <trkpt lat="35.697172" lon="139.550100">
        <time>2024-03-01T02:05:45Z</time>
      </trkpt>
      <trkpt lat="35.697245" lon="139.550998">
        <time>2024-03-01T02:06:30Z</time>
      </trkpt>
      <trkpt lat="35.698128" lon="139.551556">
        <time>2024-03-01T02:07:15Z</time>
      </trkpt>
      <trkpt lat="35.698271" lon="139.552449">
        <time>2024-03-01T02:08:00Z</time>
      </trkpt>
      <trkpt lat="35.698743" lon="139.553266">
        <time>2024-03-01T02:08:45Z</time>
      </trkpt>
      <trkpt lat="35.698297" lon="139.554092">
        <time>2024-03-01T02:09:30Z</time>
      </trkpt>
      <trkpt lat="35.697387" lon="139.554622">
        <time>2024-03-01T02:10:15Z</time>
      </trkpt>
      <trkpt lat="35.696531" lon="139.555206">
        <time>2024-03-01T02:11:00Z</time>
      </trkpt>
      <trkpt lat="35.695418" lon="139.555339">
        <time>2024-03-01T02:11:45Z</time>
      </trkpt>
      <trkpt lat="35.694863" lon="139.556122">
        <time>2024-03-01T02:12:30Z</time>
      </trkpt>
      <trkpt lat="35.693888" lon="139.556571">
        <time>2024-03-01T02:13:15Z</time>
      </trkpt>
      <trkpt lat="35.692986" lon="139.556033">
        <time>2024-03-01T02:14:00Z</time>
      </trkpt>
      <trkpt lat="35.693286" lon="139.555165">
        <time>2024-03-01T02:14:45Z</time>
      </trkpt>
      <trkpt lat="35.693686" lon="139.554324">
        <time>2024-03-01T02:15:30Z</time>
      </trkpt>
      <trkpt lat="35.694775" lon="139.554099">
        <time>2024-03-01T02:16:15Z</time>
      </trkpt>
      <trkpt lat="35.695771" lon="139.554518">
        <time>2024-03-01T02:17:00Z</time>
      </trkpt>
      <trkpt lat="35.696207" lon="139.555348">
        <time>2024-03-01T02:17:45Z</time>
      </trkpt>
      <trkpt lat="35.695525" lon="139.556064">
        <time>2024-03-01T02:18:30Z</time>
      </trkpt>
      <trkpt lat="35.694649" lon="139.556629">
        <time>2024-03-01T02:19:15Z</time>
      </trkpt>
      <trkpt lat="35.693524" lon="139.556626">
        <time>2024-03-01T02:20:00Z</time>
      </trkpt>
      <trkpt lat="35.692951" lon="139.557401">
        <time>2024-03-01T02:20:45Z</time>
      </trkpt>
      <trkpt lat="35.692474" lon="139.558216">
        <time>2024-03-01T02:21:30Z</time>
      </trkpt>
      <trkpt lat="35.691504" lon="139.558672">
        <time>2024-03-01T02:22:15Z</time>
      </trkpt>
      <trkpt lat="35.690656" lon="139.559263">
        <time>2024-03-01T02:23:00Z</time>
      </trkpt>
      <trkpt lat="35.690100" lon="139.559928">
        <time>2024-03-01T02:23:45Z</time>
      </trkpt>
      <trkpt lat="35.691069" lon="139.560385">
        <time>2024-03-01T02:24:30Z</time>
      </trkpt>
      <trkpt lat="35.691623" lon="139.561168">
        <time>2024-03-01T02:25:15Z</time>
      </trkpt>
      <trkpt lat="35.692748" lon="139.561200">
        <time>2024-03-01T02:26:00Z</time>
      </trkpt>
      <trkpt lat="35.693840" lon="139.561415">
        <time>2024-03-01T02:26:45Z</time>
      </trkpt>
      <trkpt lat="35.694963" lon="139.561473">
        <time>2024-03-01T02:27:30Z</time>
      </trkpt>
      <trkpt lat="35.695966" lon="139.561065">
        <time>2024-03-01T02:28:15Z</time>
      </trkpt>
      <trkpt lat="35.696670" lon="139.560363">
        <time>2024-03-01T02:29:00Z</time>
      </trkpt>
      <trkpt lat="35.696535" lon="139.559469">
        <time>2024-03-01T02:29:45Z</time>
      </trkpt>
      <trkpt lat="35.697175" lon="139.558729">
        <time>2024-03-01T02:30:30Z</time>
      </trkpt>
      <trkpt lat="35.698290" lon="139.558847">
        <time>2024-03-01T02:31:15Z</time>
      </trkpt>
      <trkpt lat="35.698836" lon="139.559634">
        <time>2024-03-01T02:32:00Z</time>
      </trkpt>
      <trkpt lat="35.699497" lon="139.560362">
        <time>2024-03-01T02:32:45Z</time>
      </trkpt>
      <trkpt lat="35.699294" lon="139.561248">
        <time>2024-03-01T02:33:30Z</time>
      </trkpt>
      <trkpt lat="35.698296" lon="139.561664">
        <time>2024-03-01T02:34:15Z</time>
      </trkpt>
      <trkpt lat="35.697198" lon="139.561860">
        <time>2024-03-01T02:35:00Z</time>
      </trkpt>
      <trkpt lat="35.696254" lon="139.561370">
        <time>2024-03-01T02:35:45Z</time>
      </trkpt>
      <trkpt lat="35.695868" lon="139.560525">
        <time>2024-03-01T02:36:30Z</time>
      </trkpt>
      <trkpt lat="35.695324" lon="139.559737">
        <time>2024-03-01T02:37:15Z</time>
      </trkpt>
      <trkpt lat="35.695222" lon="139.558841">
        <time>2024-03-01T02:38:00Z</time>
      </trkpt>
      <trkpt lat="35.695494" lon="139.557967">
        <time>2024-03-01T02:38:45Z</time>
      </trkpt>
      <trkpt lat="35.695458" lon="139.557068">
        <time>2024-03-01T02:39:30Z</time>
      </trkpt>
      <trkpt lat="35.695504" lon="139.556169">
        <time>2024-03-01T02:40:15Z</time>
      </trkpt>
      <trkpt lat="35.695900" lon="139.555326">
        <time>2024-03-01T02:41:00Z</time>
      </trkpt>
      <trkpt lat="35.696666" lon="139.554667">
        <time>2024-03-01T02:41:45Z</time>
      </trkpt>
      <trkpt lat="35.696801" lon="139.553774">
        <time>2024-03-01T02:42:30Z</time>
      </trkpt>
      <trkpt lat="35.697618" lon="139.553155">
        <time>2024-03-01T02:43:15Z</time>
      </trkpt>
      <trkpt lat="35.698658" lon="139.552811">
        <time>2024-03-01T02:44:00Z</time>
      </trkpt>
      <trkpt lat="35.699774" lon="139.552701">
        <time>2024-03-01T02:44:45Z</time>
      </trkpt>
      <trkpt lat="35.700643" lon="139.552129">
        <time>2024-03-01T02:45:30Z</time>
      </trkpt>
      <trkpt lat="35.701065" lon="139.551295">
        <time>2024-03-01T02:46:15Z</time>
      </trkpt>
      <trkpt lat="35.700276" lon="139.550653">
        <time>2024-03-01T02:47:00Z</time>
      </trkpt>
      <trkpt lat="35.699714" lon="139.550100">
        <time>2024-03-01T02:47:45Z</time>
      </trkpt>
      <trkpt lat="35.699106" lon="139.550857">
        <time>2024-03-01T02:48:30Z</time>
      </trkpt>
    </trkseg>
  </trk>
</gpx>
