<?xml version="1.0" encoding="UTF-8"?>
<gpx version="1.1" creator="trajectory-viz demo" xmlns="http://www.topografix.com/GPX/1/1">
  <trk>
    <name>courier-05</name>
    <trkseg>
      <trkpt lat="35.694280" lon="139.568828">
        <time>2024-03-01T07:45:00+09:00</time>
      </trkpt>
      <trkpt lat="35.693182" lon="139.569024">
        <time>2024-03-01T07:46:00+09:00</time>
      </trkpt>
      <trkpt lat="35.692063" lon="139.568928">
        <time>2024-03-01T07:47:00+09:00</time>
      </trkpt>
      <trkpt lat="35.690961" lon="139.569108">
        <time>2024-03-01T07:48:00+09:00</time>
      </trkpt>
      <trkpt lat="35.690100" lon="139.569425">
        <time>2024-03-01T07:49:00+09:00</time>
      </trkpt>
      <trkpt lat="35.690266" lon="139.570315">
        <time>2024-03-01T07:50:00+09:00</time>
      </trkpt>
      <trkpt lat="35.690100" lon="139.570931">
        <time>2024-03-01T07:51:00+09:00</time>
      </trkpt>
      <trkpt lat="35.690100" lon="139.571823">
        <time>2024-03-01T07:52:00+09:00</time>
      </trkpt>
      <trkpt lat="35.691033" lon="139.572325">
        <time>2024-03-01T07:53:00+09:00</time>
      </trkpt>
      <trkpt lat="35.691550" lon="139.573125">
        <time>2024-03-01T07:54:00+09:00</time>
      </trkpt>
      <trkpt lat="35.692584" lon="139.573478">
        <time>2024-03-01T07:55:00+09:00</time>
      </trkpt>
      <trkpt lat="35.693696" lon="139.573619">
        <time>2024-03-01T07:56:00+09:00</time>
      </trkpt>
      <trkpt lat="35.694775" lon="139.573366">
        <time>2024-03-01T07:57:00+09:00</time>
      </trkpt>
      <trkpt lat="35.695900" lon="139.573367">
        <time>2024-03-01T07:58:00+09:00</time>
      </trkpt>
      <trkpt lat="35.696735" lon="139.573970">
        <time>2024-03-01T07:59:00+09:00</time>
      </trkpt>
      <trkpt lat="35.697860" lon="139.573964">
        <time>2024-03-01T08:00:00+09:00</time>
      </trkpt>
      <trkpt lat="35.698924" lon="139.574256">
        <time>2024-03-01T08:01:00+09:00</time>
      </trkpt>
      <trkpt lat="35.699898" lon="139.574707">
        <time>2024-03-01T08:02:00+09:00</time>
      </trkpt>
      <trkpt lat="35.700969" lon="139.574982">
        <time>2024-03-01T08:03:00+09:00</time>
      </trkpt>
      <trkpt lat="35.701891" lon="139.574466">
        <time>2024-03-01T08:04:00+09:00</time>
      </trkpt>
      <trkpt lat="35.702996" lon="139.574634">
        <time>2024-03-01T08:05:00+09:00</time>
      </trkpt>
      <trkpt lat="35.703479" lon="139.575447">
        <time>2024-03-01T08:06:00+09:00</time>
      </trkpt>
      <trkpt lat="35.704070" lon="139.576213">
        <time>2024-03-01T08:07:00+09:00</time>
      </trkpt>
      <trkpt lat="35.705173" lon="139.576388">
        <time>2024-03-01T08:08:00+09:00</time>
      </trkpt>
      <trkpt lat="35.705919" lon="139.577061">
        <time>2024-03-01T08:09:00+09:00</time>
      </trkpt>
      <trkpt lat="35.707044" lon="139.577058">
        <time>2024-03-01T08:10:00+09:00</time>
      </trkpt>
      <trkpt lat="35.708167" lon="139.576995">
        <time>2024-03-01T08:11:00+09:00</time>
      </trkpt>
      <trkpt lat="35.709217" lon="139.577318">
        <time>2024-03-01T08:12:00+09:00</time>
      </trkpt>
      <trkpt lat="35.709900" lon="139.576852">
        <time>2024-03-01T08:13:00+09:00</time>
      </trkpt>
      <trkpt lat="35.709520" lon="139.576005">
        <time>2024-03-01T08:14:00+09:00</time>
      </trkpt>
      <trkpt lat="35.708396" lon="139.575974">
        <time>2024-03-01T08:15:00+09:00</time>
      </trkpt>
      <trkpt lat="35.707275" lon="139.575891">
        <time>2024-03-01T08:16:00+09:00</time>
      </trkpt>
      <trkpt lat="35.706150" lon="139.575884">
        <time>2024-03-01T08:17:00+09:00</time>
      </trkpt>
      <trkpt lat="35.705375" lon="139.575232">
        <time>2024-03-01T08:18:00+09:00</time>
      </trkpt>
      <trkpt lat="35.705157" lon="139.574349">
        <time>2024-03-01T08:19:00+09:00</time>
      </trkpt>
      <trkpt lat="35.704222" lon="139.573848">
        <time>2024-03-01T08:20:00+09:00</time>
      </trkpt>
      <trkpt lat="35.703416" lon="139.573220">
        <time>2024-03-01T08:21:00+09:00</time>
      </trkpt>
      <trkpt lat="35.702326" lon="139.572998">
        <time>2024-03-01T08:22:00+09:00</time>
      </trkpt>
      <trkpt lat="35.701455" lon="139.572428">
        <time>2024-03-01T08:23:00+09:00</time>
      </trkpt>
      <trkpt lat="35.701270" lon="139.571540">
        <time>2024-03-01T08:24:00+09:00</time>
      </trkpt>
      <trkpt lat="35.702104" lon="139.570937">
        <time>2024-03-01T08:25:00+09:00</time>
      </trkpt>
      <trkpt lat="35.702529" lon="139.570103">
        <time>2024-03-01T08:26:00+09:00</time>
      </trkpt>
      <trkpt lat="35.703383" lon="139.569517">
        <time>2024-03-01T08:27:00+09:00</time>
      </trkpt>
      <trkpt lat="35.704456" lon="139.569788">
        <time>2024-03-01T08:28:00+09:00</time>
      </trkpt>
      <trkpt lat="35.705377" lon="139.570305">
        <time>2024-03-01T08:29:00+09:00</time>
      </trkpt>
      <trkpt lat="35.705946" lon="139.571081">
        <time>2024-03-01T08:30:00+09:00</time>
      </trkpt>
      <trkpt lat="35.706901" lon="139.571557">
        <time>2024-03-01T08:31:00+09:00</time>
      </trkpt>
      <trkpt lat="35.707409" lon="139.572360">
        <time>2024-03-01T08:32:00+09:00</time>
      </trkpt>
      <trkpt lat="35.708353" lon="139.572849">
        <time>2024-03-01T08:33:00+09:00</time>
      </trkpt>
      <trkpt lat="35.709420" lon="139.572565">
        <time>2024-03-01T08:34:00+09:00</time>
      </trkpt>
      <trkpt lat="35.709900" lon="139.572886">
        <time>2024-03-01T08:35:00+09:00</time>
      </trkpt>
      <trkpt lat="35.709569" lon="139.573747">
        <time>2024-03-01T08:36:00+09:00</time>
      </trkpt>
      <trkpt lat="35.708470" lon="139.573937">
        <time>2024-03-01T08:37:00+09:00</time>
      </trkpt>
      <trkpt lat="35.707351" lon="139.574032">
        <time>2024-03-01T08:38:00+09:00</time>
      </trkpt>
      <trkpt lat="35.706294" lon="139.573723">
        <time>2024-03-01T08:39:00+09:00</time>
      </trkpt>
      <trkpt lat="35.705562" lon="139.574406">
        <time>2024-03-01T08:40:00+09:00</time>
      </trkpt>
      <trkpt lat="35.704443" lon="139.574313">
        <time>2024-03-01T08:41:00+09:00</time>
      </trkpt>
      <trkpt lat="35.703846" lon="139.573550">
        <time>2024-03-01T08:42:00+09:00</time>
      </trkpt>
      <trkpt lat="35.702731" lon="139.573669">
        <time>2024-03-01T08:43:00+09:00</time>
      </trkpt>
      <trkpt lat="35.701870" lon="139.573090">
        <time>2024-03-01T08:44:00+09:00</time>
      </trkpt>
      <trkpt lat="35.701824" lon="139.572191">
        <time>2024-03-01T08:45:00+09:00</time>
      </trkpt>
      <trkpt lat="35.701154" lon="139.571468">
        <time>2024-03-01T08:46:00+09:00</time>
      </trkpt>
      <trkpt lat="35.700367" lon="139.570824">
        <time>2024-03-01T08:47:00+09:00</time>
      </trkpt>
      <trkpt lat="35.700468" lon="139.569928">
        <time>2024-03-01T08:48:00+09:00</time>
      </trkpt>
      <trkpt lat="35.699830" lon="139.569187">
        <time>2024-03-01T08:49:00+09:00</time>
      </trkpt>
      <trkpt lat="35.698709" lon="139.569110">
        <time>2024-03-01T08:50:00+09:00</time>
      </trkpt>
      <trkpt lat="35.698080" lon="139.569856">
        <time>2024-03-01T08:51:00+09:00</time>
      </trkpt>
      <trkpt lat="35.698157" lon="139.570754">
        <time>2024-03-01T08:52:00+09:00</time>
      </trkpt>
      <trkpt lat="35.698417" lon="139.571630">
        <time>2024-03-01T08:53:00+09:00</time>
      </trkpt>
      <trkpt lat="35.699169" lon="139.572299">
        <time>2024-03-01T08:54:00+09:00</time>
      </trkpt>
      <trkpt lat="35.700226" lon="139.571993">
        <time>2024-03-01T08:55:00+09:00</time>
      </trkpt>
      <trkpt lat="35.701228" lon="139.571583">
        <time>2024-03-01T08:56:00+09:00</time>
      </trkpt>
      <trkpt lat="35.701791" lon="139.570804">
        <time>2024-03-01T08:57:00+09:00</time>
      </trkpt>
      <trkpt lat="35.701774" lon="139.569904">
        <time>2024-03-01T08:58:00+09:00</time>
      </trkpt>
      <trkpt lat="35.702803" lon="139.569541">
        <time>2024-03-01T08:59:00+09:00</time>
      </trkpt>
      <trkpt lat="35.702890" lon="139.568644">
        <time>2024-03-01T09:00:00+09:00</time>
      </trkpt>
      <trkpt lat="35.702149" lon="139.567966">
        <time>2024-03-01T09:01:00+09:00</time>
      </trkpt>
      <trkpt lat="35.701097" lon="139.568285">
        <time>2024-03-01T09:02:00+09:00</time>
      </trkpt>
      <trkpt lat="35.701013" lon="139.569183">
        <time>2024-03-01T09:03:00+09:00</time>
      </trkpt>
      <trkpt lat="35.701210" lon="139.570069">
        <time>2024-03-01T09:04:00+09:00</time>
      </trkpt>
      <trkpt lat="35.702023" lon="139.570691">
        <time>2024-03-01T09:05:00+09:00</time>
      </trkpt>
      <trkpt lat="35.701740" lon="139.571562">
        <time>2024-03-01T09:06:00+09:00</time>
      </trkpt>
      <trkpt lat="35.701825" lon="139.572460">
        <time>2024-03-01T09:07:00+09:00</time>
      </trkpt>
      <trkpt lat="35.702329" lon="139.573264">
        <time>2024-03-01T09:08:00+09:00</time>
      </trkpt>
      <trkpt lat="35.701781" lon="139.574050">
        <time>2024-03-01T09:09:00+09:00</time>
      </trkpt>
      <trkpt lat="35.700690" lon="139.574272">
        <time>2024-03-01T09:10:00+09:00</time>
      </trkpt>
      <trkpt lat="35.699639" lon="139.574592">
        <time>2024-03-01T09:11:00+09:00</time>
      </trkpt>
      <trkpt lat="35.698683" lon="139.575067">
        <time>2024-03-01T09:12:00+09:00</time>
      </trkpt>
      <trkpt lat="35.697942" lon="139.575744">
        <time>2024-03-01T09:13:00+09:00</time>
      </trkpt>
      <trkpt lat="35.698418" lon="139.576560">
        <time>2024-03-01T09:14:00+09:00</time>
      </trkpt>
      <trkpt lat="35.699479" lon="139.576859">
        <time>2024-03-01T09:15:00+09:00</time>
      </trkpt>
      <trkpt lat="35.699624" lon="139.577751">
        <time>2024-03-01T09:16:00+09:00</time>
      </trkpt>
      <trkpt lat="35.698901" lon="139.578440">
        <time>2024-03-01T09:17:00+09:00</time>
      </trkpt>
      <trkpt lat="35.698989" lon="139.579338">
        <time>2024-03-01T09:18:00+09:00</time>
      </trkpt>
      <trkpt lat="35.699662" lon="139.580059">
        <time>2024-03-01T09:19:00+09:00</time>
      </trkpt>
      <trkpt lat="35.700043" lon="139.580906">
        <time>2024-03-01T09:20:00+09:00</time>
      </trkpt>
      <trkpt lat="35.700477" lon="139.581736">
        <time>2024-03-01T09:21:00+09:00</time>
      </trkpt>
      <trkpt lat="35.701162" lon="139.582450">
        <time>2024-03-01T09:22:00+09:00</time>
      </trkpt>
      <trkpt lat="35.702211" lon="139.582775">
        <time>2024-03-01T09:23:00+09:00</time>
      </trkpt>
      <trkpt lat="35.703183" lon="139.582321">
        <time>2024-03-01T09:24:00+09:00</time>
      </trkpt>
      <trkpt lat="35.703331" lon="139.581429">
        <time>2024-03-01T09:25:00+09:00</time>
      </trkpt>
      <trkpt lat="35.703994" lon="139.580702">
        <time>2024-03-01T09:26:00+09:00</time>
      </trkpt>
      <trkpt lat="35.704024" lon="139.579802">
        <time>2024-03-01T09:27:00+09:00</time>
      </trkpt>
      <trkpt lat="35.704334" lon="139.578937">
        <time>2024-03-01T09:28:00+09:00</time>
      </trkpt>
      <trkpt lat="35.703566" lon="139.578279">
        <time>2024-03-01T09:29:00+09:00</time>
      </trkpt>
      <trkpt lat="35.702442" lon="139.578295">
        <time>2024-03-01T09:30:00+09:00</time>
      </trkpt>
      <trkpt lat="35.701317" lon="139.578300">
        <time>2024-03-01T09:31:00+09:00</time>
      </trkpt>
      <trkpt lat="35.700577" lon="139.578978">
        <time>2024-03-01T09:32:00+09:00</time>
      </trkpt>
      <trkpt lat="35.700605" lon="139.579878">
        <time>2024-03-01T09:33:00+09:00</time>
      </trkpt>
      <trkpt lat="35.701387" lon="139.580525">
        <time>2024-03-01T09:34:00+09:00</time>
      </trkpt>
      <trkpt lat="35.702495" lon="139.580366">
        <time>2024-03-01T09:35:00+09:00</time>
      </trkpt>
      <trkpt lat="35.702825" lon="139.579506">
        <time>2024-03-01T09:36:00+09:00</time>
      </trkpt>
      <trkpt lat="35.702984" lon="139.578615">
        <time>2024-03-01T09:37:00+09:00</time>
      </trkpt>
      <trkpt lat="35.702686" lon="139.577747">
        <time>2024-03-01T09:38:00+09:00</time>
      </trkpt>
      <trkpt lat="35.703162" lon="139.576932">
        <time>2024-03-01T09:39:00+09:00</time>
      </trkpt>
      <trkpt lat="35.703865" lon="139.576229">
        <time>2024-03-01T09:40:00+09:00</time>
      </trkpt>
      <trkpt lat="35.704982" lon="139.576125">
        <time>2024-03-01T09:41:00+09:00</time>
      </trkpt>
      <trkpt lat="35.705861" lon="139.576687">
        <time>2024-03-01T09:42:00+09:00</time>
      </trkpt>
      <trkpt lat="35.706959" lon="139.576884">
        <time>2024-03-01T09:43:00+09:00</time>
      </trkpt>
      <trkpt lat="35.708054" lon="139.576676">
        <time>2024-03-01T09:44:00+09:00</time>
      </trkpt>
      <trkpt lat="35.708500" lon="139.575850">
        <time>2024-03-01T09:45:00+09:00</time>
      </trkpt>
      <trkpt lat="35.709240" lon="139.575172">
        <time>2024-03-01T09:46:00+09:00</time>
      </trkpt>
      <trkpt lat="35.709900" lon="139.574858">
        <time>2024-03-01T09:47:00+09:00</time>
      </trkpt>
      <trkpt lat="35.709165" lon="139.575539">
        <time>2024-03-01T09:48:00+09:00</time>
      </trkpt>
      <trkpt lat="35.708040" lon="139.575542">
        <time>2024-03-01T09:49:00+09:00</time>
      </trkpt>
      <trkpt lat="35.707048" lon="139.575117">
        <time>2024-03-01T09:50:00+09:00</time>
      </trkpt>
      <trkpt lat="35.705923" lon="139.575098">
        <time>2024-03-01T09:51:00+09:00</time>
      </trkpt>
      <trkpt lat="35.705109" lon="139.574477">
        <time>2024-03-01T09:52:00+09:00</time>
      </trkpt>
      <trkpt lat="35.706152" lon="139.574142">
        <time>2024-03-01T10:40:00+09:00</time>
      </trkpt>
      <trkpt lat="35.706485" lon="139.573282">
        <time>2024-03-01T10:41:00+09:00</time>
      </trkpt>
      <trkpt lat="35.705775" lon="139.572584">
        <time>2024-03-01T10:42:00+09:00</time>
      </trkpt>
      <trkpt lat="35.704959" lon="139.571964">
        <time>2024-03-01T10:43:00+09:00</time>
      </trkpt>
      <trkpt lat="35.704789" lon="139.571075">
        <time>2024-03-01T10:44:00+09:00</time>
      </trkpt>
      <trkpt lat="35.705640" lon="139.570486">
        <time>2024-03-01T10:45:00+09:00</time>
      </trkpt>
      <trkpt lat="35.706599" lon="139.570017">
        <time>2024-03-01T10:46:00+09:00</time>
      </trkpt>
      <trkpt lat="35.706425" lon="139.569128">
        <time>2024-03-01T10:47:00+09:00</time>
      </trkpt>
      <trkpt lat="35.705688" lon="139.568447">
        <time>2024-03-01T10:48:00+09:00</time>
      </trkpt>
      <trkpt lat="35.704617" lon="139.568723">
        <time>2024-03-01T10:49:00+09:00</time>
      </trkpt>
      <trkpt lat="35.703562" lon="139.568412">
        <time>2024-03-01T10:50:00+09:00</time>
      </trkpt>
      <trkpt lat="35.702713" lon="139.567821">
        <time>2024-03-01T10:51:00+09:00</time>
      </trkpt>
      <trkpt lat="35.702794" lon="139.566924">
        <time>2024-03-01T10:52:00+09:00</time>
      </trkpt>
      <trkpt lat="35.703357" lon="139.566145">
        <time>2024-03-01T10:53:00+09:00</time>
      </trkpt>
      <trkpt lat="35.704324" lon="139.565684">
        <time>2024-03-01T10:54:00+09:00</time>
      </trkpt>
      <trkpt lat="35.705442" lon="139.565583">
        <time>2024-03-01T10:55:00+09:00</time>
      </trkpt>
      <trkpt lat="35.706560" lon="139.565678">
        <time>2024-03-01T10:56:00+09:00</time>
      </trkpt>
      <trkpt lat="35.707173" lon="139.564924">
        <time>2024-03-01T10:57:00+09:00</time>
      </trkpt>
      <trkpt lat="35.706640" lon="139.564131">
        <time>2024-03-01T10:58:00+09:00</time>
      </trkpt>
      <trkpt lat="35.706105" lon="139.563340">
        <time>2024-03-01T10:59:00+09:00</time>
      </trkpt>
      <trkpt lat="35.704986" lon="139.563247">
        <time>2024-03-01T11:00:00+09:00</time>
      </trkpt>
      <trkpt lat="35.704379" lon="139.564005">
        <time>2024-03-01T11:01:00+09:00</time>
      </trkpt>
      <trkpt lat="35.704274" lon="139.564901">
        <time>2024-03-01T11:02:00+09:00</time>
      </trkpt>
      <trkpt lat="35.703384" lon="139.565452">
        <time>2024-03-01T11:03:00+09:00</time>
      </trkpt>
      <trkpt lat="35.702259" lon="139.565455">
        <time>2024-03-01T11:04:00+09:00</time>
      </trkpt>
      <trkpt lat="35.701752" lon="139.564651">
        <time>2024-03-01T11:05:00+09:00</time>
      </trkpt>
      <trkpt lat="35.700870" lon="139.564092">
        <time>2024-03-01T11:06:00+09:00</time>
      </trkpt>
      <trkpt lat="35.699857" lon="139.563701">
        <time>2024-03-01T11:07:00+09:00</time>
      </trkpt>
      <trkpt lat="35.699140" lon="139.563008">
        <time>2024-03-01T11:08:00+09:00</time>
      </trkpt>
      <trkpt lat="35.698905" lon="139.562128">
        <time>2024-03-01T11:09:00+09:00</time>
      </trkpt>
      <trkpt lat="35.698280" lon="139.561379">
        <time>2024-03-01T11:10:00+09:00</time>
      </trkpt>
      <trkpt lat="35.697253" lon="139.561013">
        <time>2024-03-01T11:11:00+09:00</time>
      </trkpt>
      <trkpt lat="35.696256" lon="139.561429">
        <time>2024-03-01T11:12:00+09:00</time>
      </trkpt>
      <trkpt lat="35.695712" lon="139.562217">
        <time>2024-03-01T11:13:00+09:00</time>
      </trkpt>
      <trkpt lat="35.695717" lon="139.563117">
        <time>2024-03-01T11:14:00+09:00</time>
      </trkpt>
      <trkpt lat="35.696456" lon="139.563796">
        <time>2024-03-01T11:15:00+09:00</time>
      </trkpt>
      <trkpt lat="35.696371" lon="139.564694">
        <time>2024-03-01T11:16:00+09:00</time>
      </trkpt>
      <trkpt lat="35.696349" lon="139.565593">
        <time>2024-03-01T11:17:00+09:00</time>
      </trkpt>
      <trkpt lat="35.696535" lon="139.566481">
        <time>2024-03-01T11:18:00+09:00</time>
      </trkpt>
      <trkpt lat="35.696226" lon="139.567347">
        <time>2024-03-01T11:19:00+09:00</time>
      </trkpt>
      <trkpt lat="35.695141" lon="139.567585">
        <time>2024-03-01T11:20:00+09:00</time>
      </trkpt>
      <trkpt lat="35.694243" lon="139.567044">
        <time>2024-03-01T11:21:00+09:00</time>
      </trkpt>
      <trkpt lat="35.693216" lon="139.566676">
        <time>2024-03-01T11:22:00+09:00</time>
      </trkpt>
      <trkpt lat="35.692758" lon="139.565854">
        <time>2024-03-01T11:23:00+09:00</time>
      </trkpt>
      <trkpt lat="35.693050" lon="139.564985">
        <time>2024-03-01T11:24:00+09:00</time>
      </trkpt>
      <trkpt lat="35.694105" lon="139.564672">
        <time>2024-03-01T11:25:00+09:00</time>
      </trkpt>
      <trkpt lat="35.694590" lon="139.563860">
        <time>2024-03-01T11:26:00+09:00</time>
      </trkpt>
      <trkpt lat="35.694030" lon="139.563080">
        <time>2024-03-01T11:27:00+09:00</time>
      </trkpt>
      <trkpt lat="35.694414" lon="139.562234">
        <time>2024-03-01T11:28:00+09:00</time>
      </trkpt>
      <trkpt lat="35.695033" lon="139.561483">
        <time>2024-03-01T11:29:00+09:00</time>
      </trkpt>
      <trkpt lat="35.694628" lon="139.560643">
        <time>2024-03-01T11:30:00+09:00</time>
      </trkpt>
      <trkpt lat="35.695125" lon="139.559836">
        <time>2024-03-01T11:31:00+09:00</time>
      </trkpt>
      <trkpt lat="35.695833" lon="139.559136">
        <time>2024-03-01T11:32:00+09:00</time>
      </trkpt>
      <trkpt lat="35.696955" lon="139.559198">
        <time>2024-03-01T11:33:00+09:00</time>
      </trkpt>
      <trkpt lat="35.698030" lon="139.558934">
        <time>2024-03-01T11:34:00+09:00</time>
      </trkpt>
      <trkpt lat="35.698942" lon="139.559462">
        <time>2024-03-01T11:35:00+09:00</time>
      </trkpt>
      <trkpt lat="35.699031" lon="139.560359">
        <time>2024-03-01T11:36:00+09:00</time>
      </trkpt>
      <trkpt lat="35.699401" lon="139.561209">
        <time>2024-03-01T11:37:00+09:00</time>
      </trkpt>
      <trkpt lat="35.700457" lon="139.561520">
        <time>2024-03-01T11:38:00+09:00</time>
      </trkpt>
      <trkpt lat="35.701539" lon="139.561273">
        <time>2024-03-01T11:39:00+09:00</time>
      </trkpt>
      <trkpt lat="35.702537" lon="139.560858">
        <time>2024-03-01T11:40:00+09:00</time>
      </trkpt>
      <trkpt lat="35.702434" lon="139.559962">
        <time>2024-03-01T11:41:00+09:00</time>
      </trkpt>
      <trkpt lat="35.703064" lon="139.559216">
        <time>2024-03-01T11:42:00+09:00</time>
      </trkpt>
      <trkpt lat="35.702439" lon="139.558468">
        <time>2024-03-01T11:43:00+09:00</time>
      </trkpt>
      <trkpt lat="35.701330" lon="139.558621">
        <time>2024-03-01T11:44:00+09:00</time>
      </trkpt>
      <trkpt lat="35.700757" lon="139.559396">
        <time>2024-03-01T11:45:00+09:00</time>
      </trkpt>
      <trkpt lat="35.700209" lon="139.560182">
        <time>2024-03-01T11:46:00+09:00</time>
      </trkpt>
      <trkpt lat="35.700879" lon="139.560905">
        <time>2024-03-01T11:47:00+09:00</time>
      </trkpt>
      <trkpt lat="35.701771" lon="139.561454">
        <time>2024-03-01T11:48:00+09:00</time>
      </trkpt>
      <trkpt lat="35.702766" lon="139.561874">
        <time>2024-03-01T11:49:00+09:00</time>
      </trkpt>
      <trkpt lat="35.703626" lon="139.562454">
        <time>2024-03-01T11:50:00+09:00</time>
      </trkpt>
      <trkpt lat="35.703593" lon="139.563354">
        <time>2024-03-01T11:51:00+09:00</time>
      </trkpt>
      <trkpt lat="35.704312" lon="139.564046">
        <time>2024-03-01T11:52:00+09:00</time>
      </trkpt>
      <trkpt lat="35.705171" lon="139.564627">
        <time>2024-03-01T11:53:00+09:00</time>
      </trkpt>
      <trkpt lat="35.705393" lon="139.565509">
        <time>2024-03-01T11:54:00+09:00</time>
      </trkpt>
      <trkpt lat="35.705744" lon="139.566365">
        <time>2024-03-01T11:55:00+09:00</time>
      </trkpt>
      <trkpt lat="35.706260" lon="139.567164">
        <time>2024-03-01T11:56:00+09:00</time>
      </trkpt>
      <trkpt lat="35.707344" lon="139.567406">
        <time>2024-03-01T11:57:00+09:00</time>
      </trkpt>
      <trkpt lat="35.708153" lon="139.566781">
        <time>2024-03-01T11:58:00+09:00</time>
      </trkpt>
      <trkpt lat="35.707894" lon="139.565906">
        <time>2024-03-01T11:59:00+09:00</time>
      </trkpt>
      <trkpt lat="35.708207" lon="139.565041">
        <time>2024-03-01T12:00:00+09:00</time>
      </trkpt>
      <trkpt lat="35.709327" lon="139.564960">
        <time>2024-03-01T12:01:00+09:00</time>
      </trkpt>
      <trkpt lat="35.709900" lon="139.565006">
        <time>2024-03-01T12:02:00+09:00</time>
      </trkpt>
      <trkpt lat="35.708963" lon="139.564507">
        <time>2024-03-01T12:03:00+09:00</time>
      </trkpt>
      <trkpt lat="35.707889" lon="139.564242">
        <time>2024-03-01T12:04:00+09:00</time>
      </trkpt>
      <trkpt lat="35.707158" lon="139.564926">
        <time>2024-03-01T12:05:00+09:00</time>
      </trkpt>
      <trkpt lat="35.707117" lon="139.565825">
        <time>2024-03-01T12:06:00+09:00</time>
      </trkpt>
      <trkpt lat="35.706230" lon="139.566379">
        <time>2024-03-01T12:07:00+09:00</time>
      </trkpt>
      <trkpt lat="35.705156" lon="139.566111">
        <time>2024-03-01T12:08:00+09:00</time>
      </trkpt>
      <trkpt lat="35.704117" lon="139.565765">
        <time>2024-03-01T12:09:00+09:00</time>
      </trkpt>
      <trkpt lat="35.703708" lon="139.564926">
        <time>2024-03-01T12:10:00+09:00</time>
      </trkpt>
      <trkpt lat="35.702922" lon="139.564282">
        <time>2024-03-01T12:11:00+09:00</time>
      </trkpt>
      <trkpt lat="35.701864" lon="139.564587">
        <time>2024-03-01T12:12:00+09:00</time>
      </trkpt>
      <trkpt lat="35.700965" lon="139.565128">
        <time>2024-03-01T12:13:00+09:00</time>
      </trkpt>
      <trkpt lat="35.699895" lon="139.565406">
        <time>2024-03-01T12:14:00+09:00</time>
      </trkpt>
      <trkpt lat="35.698924" lon="139.565860">
        <time>2024-03-01T12:15:00+09:00</time>
      </trkpt>
      <trkpt lat="35.697964" lon="139.565391">
        <time>2024-03-01T12:16:00+09:00</time>
      </trkpt>
      <trkpt lat="35.696849" lon="139.565510">
        <time>2024-03-01T12:17:00+09:00</time>
      </trkpt>
      <trkpt lat="35.695999" lon="139.566100">
        <time>2024-03-01T12:18:00+09:00</time>
      </trkpt>
      <trkpt lat="35.695173" lon="139.566710">
        <time>2024-03-01T12:19:00+09:00</time>
      </trkpt>
      <trkpt lat="35.694060" lon="139.566841">
        <time>2024-03-01T12:20:00+09:00</time>
      </trkpt>
      <trkpt lat="35.692937" lon="139.566897">
        <time>2024-03-01T12:21:00+09:00</time>
      </trkpt>
      <trkpt lat="35.692070" lon="139.567471">
        <time>2024-03-01T12:22:00+09:00</time>
      </trkpt>
      <trkpt lat="35.691041" lon="139.567107">
        <time>2024-03-01T12:23:00+09:00</time>
      </trkpt>
      <trkpt lat="35.690061" lon="139.566665">
        <time>2024-03-01T12:24:00+09:00</time>
      </trkpt>
      <trkpt lat="35.690100" lon="139.566559">
        <time>2024-03-01T12:25:00+09:00</time>
      </trkpt>
      <trkpt lat="35.691145" lon="139.566225">
        <time>2024-03-01T12:26:00+09:00</time>
      </trkpt>
      <trkpt lat="35.692180" lon="139.566578">
        <time>2024-03-01T12:27:00+09:00</time>
      </trkpt>
      <trkpt lat="35.692672" lon="139.567387">
        <time>2024-03-01T12:28:00+09:00</time>
      </trkpt>
      <trkpt lat="35.693795" lon="139.567441">
        <time>2024-03-01T12:29:00+09:00</time>
      </trkpt>
      <trkpt lat="35.694633" lon="139.568041">
        <time>2024-03-01T12:30:00+09:00</time>
      </trkpt>
      <trkpt lat="35.695356" lon="139.568731">
        <time>2024-03-01T12:31:00+09:00</time>
      </trkpt>
      <trkpt lat="35.695346" lon="139.569631">
        <time>2024-03-01T12:32:00+09:00</time>
      </trkpt>
      <trkpt lat="35.694520" lon="139.570242">
        <time>2024-03-01T12:33:00+09:00</time>
      </trkpt>
      <trkpt lat="35.693403" lon="139.570348">
        <time>2024-03-01T12:34:00+09:00</time>
      </trkpt>
      <trkpt lat="35.692524" lon="139.570910">
        <time>2024-03-01T12:35:00+09:00</time>
      </trkpt>
      <trkpt lat="35.692299" lon="139.571792">
        <time>2024-03-01T12:36:00+09:00</time>
      </trkpt>
      <trkpt lat="35.691478" lon="139.572408">
        <time>2024-03-01T12:37:00+09:00</time>
      </trkpt>
      <trkpt lat="35.690357" lon="139.572482">
        <time>2024-03-01T12:38:00+09:00</time>
      </trkpt>
      <trkpt lat="35.690029" lon="139.573343">
        <time>2024-03-01T12:39:00+09:00</time>
      </trkpt>
      <trkpt lat="35.690100" lon="139.574160">
        <time>2024-03-01T12:40:00+09:00</time>
      </trkpt>
      <trkpt lat="35.690315" lon="139.575044">
        <time>2024-03-01T12:41:00+09:00</time>
      </trkpt>
      <trkpt lat="35.690100" lon="139.575601">
        <time>2024-03-01T12:42:00+09:00</time>
      </trkpt>
      <trkpt lat="35.691167" lon="139.575887">
        <time>2024-03-01T12:43:00+09:00</time>
      </trkpt>
      <trkpt lat="35.691583" lon="139.576723">
        <time>2024-03-01T12:44:00+09:00</time>
      </trkpt>
    </trkseg>
  </trk>
</gpx>
