{
 "type": "FeatureCollection",
 "features": [
  {
   "type": "Feature",
   "geometry": {
    "type": "LineString",
    "coordinates": [
     [
      139.55501,
      35.703531
     ],
     [
      139.555501,
      35.702805
     ],
     [
      139.556213,
      35.702134
     ],
     [
      139.557124,
      35.701537
     ],
     [
      139.558209,
      35.701032
     ],
     [
      139.559437,
      35.700634
     ],
     [
      139.560771,
      35.700353
     ],
     [
      139.562175,
      35.700198
     ],
     [
      139.563606,
      35.700173
     ],
     [
      139.565025,
      35.700279
     ],
     [
      139.56639,
      35.700513
     ],
     [
      139.567662,
      35.700869
     ],
     [
      139.568805,
      35.701335
     ],
     [
      139.569785,
      35.701899
     ],
     [
      139.570575,
      35.702544
     ],
     [
      139.571151,
      35.703252
     ],
     [
      139.571498,
      35.704002
     ],
     [
      139.571604,
      35.704773
     ],
     [
      139.571468,
      35.705543
     ],
     [
      139.571093,
      35.706289
     ],
     [
      139.570489,
      35.706991
     ],
     [
      139.569675,
      35.707627
     ],
     [
      139.568673,
      35.708179
     ],
     [
      139.567513,
      35.708633
     ],
     [
      139.566227,
      35.708974
     ],
     [
      139.564853,
      35.709192
     ],
     [
      139.563431,
      35.709282
     ],
     [
      139.562,
      35.709242
     ],
     [
      139.560603,
      35.709071
     ],
     [
      139.55928,
      35.708775
     ],
     [
      139.558068,
      35.708363
     ],
     [
      139.557003,
      35.707846
     ],
     [
      139.556114,
      35.707239
     ],
     [
      139.555429,
      35.70656
     ],
     [
      139.554966,
      35.705829
     ],
     [
      139.554738,
      35.705065
     ],
     [
      139.554753,
      35.704292
     ]
    ]
   },
   "properties": {
    "bus_id": "bus-01",
    "coordTimes": [
     "2024-03-01T06:30:00+09:00",
     "2024-03-01T06:31:00+09:00",
     "2024-03-01T06:32:00+09:00",
     "2024-03-01T06:33:00+09:00",
     "2024-03-01T06:34:00+09:00",
     "2024-03-01T06:35:00+09:00",
     "2024-03-01T06:36:00+09:00",
     "2024-03-01T06:37:00+09:00",
     "2024-03-01T06:38:00+09:00",
     "2024-03-01T06:39:00+09:00",
     "2024-03-01T06:40:00+09:00",
     "2024-03-01T06:41:00+09:00",
     "2024-03-01T06:42:00+09:00",
     "2024-03-01T06:43:00+09:00",
     "2024-03-01T06:44:00+09:00",
     "2024-03-01T06:45:00+09:00",
     "2024-03-01T06:46:00+09:00",
     "2024-03-01T06:47:00+09:00",
     "2024-03-01T06:48:00+09:00",
     "2024-03-01T06:49:00+09:00",
     "2024-03-01T06:50:00+09:00",
     "2024-03-01T06:51:00+09:00",
     "2024-03-01T06:52:00+09:00",
     "2024-03-01T06:53:00+09:00",
     "2024-03-01T06:54:00+09:00",
     "2024-03-01T06:55:00+09:00",
     "2024-03-01T06:56:00+09:00",
     "2024-03-01T06:57:00+09:00",
     "2024-03-01T06:58:00+09:00",
     "2024-03-01T06:59:00+09:00",
     "2024-03-01T07:00:00+09:00",
     "2024-03-01T07:01:00+09:00",
     "2024-03-01T07:02:00+09:00",
     "2024-03-01T07:03:00+09:00",
     "2024-03-01T07:04:00+09:00",
     "2024-03-01T07:05:00+09:00",
     "2024-03-01T07:06:00+09:00"
    ]
   }
  },
  {
   "type": "Feature",
   "geometry": {
    "type": "LineString",
    "coordinates": [
     [
      139.586032,
      35.70511
     ],
     [
      139.584548,
      35.705156
     ],
     [
      139.583065,
      35.705104
     ],
     [
      139.581616,
      35.704956
     ],
     [
      139.580234,
      35.704714
     ],
     [
      139.578949,
      35.704385
     ],
     [
      139.577791,
      35.703976
     ],
     [
      139.576784,
      35.703496
     ],
     [
      139.575952,
      35.702956
     ],
     [
      139.575314,
      35.702367
     ],
     [
      139.574882,
      35.701743
     ],
     [
      139.574668,
      35.701098
     ],
     [
      139.574675,
      35.700446
     ],
     [
      139.574905,
      35.699801
     ],
     [
      139.57535,
      35.699179
     ],
     [
      139.576002,
      35.698593
     ],
     [
      139.576846,
      35.698056
     ],
     [
      139.577864,
      35.697581
     ],
     [
      139.579032,
      35.697177
     ],
     [
      139.580324,
      35.696853
     ],
     [
      139.581711,
      35.696618
     ],
     [
      139.583163,
      35.696476
     ],
     [
      139.584647,
      35.696431
     ],
     [
      139.58613,
      35.696483
     ],
     [
      139.587579,
      35.696631
     ],
     [
      139.588961,
      35.696872
     ],
     [
      139.590246,
      35.697201
     ],
     [
      139.591404,
      35.69761
     ],
     [
      139.59241,
      35.69809
     ],
     [
      139.593242,
      35.698631
     ],
     [
      139.593881,
      35.69922
     ],
     [
      139.594312,
      35.699844
     ],
     [
      139.594527,
      35.700489
     ],
     [
      139.594519,
      35.701141
     ],
     [
      139.59429,
      35.701785
     ],
     [
      139.593845,
      35.702407
     ],
     [
      139.593193,
      35.702993
     ],
     [
      139.592348,
      35.70353
     ],
     [
      139.591331,
      35.704006
     ],
     [
      139.590163,
      35.70441
     ],
     [
      139.588871,
      35.704733
     ],
     [
      139.587484,
      35.704968
     ]
    ]
   },
   "properties": {
    "bus_id": "bus-02",
    "coordTimes": [
     "2024-03-01T06:42:00+09:00",
     "2024-03-01T06:43:00+09:00",
     "2024-03-01T06:44:00+09:00",
     "2024-03-01T06:45:00+09:00",
     "2024-03-01T06:46:00+09:00",
     "2024-03-01T06:47:00+09:00",
     "2024-03-01T06:48:00+09:00",
     "2024-03-01T06:49:00+09:00",
     "2024-03-01T06:50:00+09:00",
     "2024-03-01T06:51:00+09:00",
     "2024-03-01T06:52:00+09:00",
     "2024-03-01T06:53:00+09:00",
     "2024-03-01T06:54:00+09:00",
     "2024-03-01T06:55:00+09:00",
     "2024-03-01T06:56:00+09:00",
     "2024-03-01T06:57:00+09:00",
     "2024-03-01T06:58:00+09:00",
     "2024-03-01T06:59:00+09:00",
     "2024-03-01T07:00:00+09:00",
     "2024-03-01T07:01:00+09:00",
     "2024-03-01T07:02:00+09:00",
     "2024-03-01T07:03:00+09:00",
     "2024-03-01T07:04:00+09:00",
     "2024-03-01T07:05:00+09:00",
     "2024-03-01T07:06:00+09:00",
     "2024-03-01T07:07:00+09:00",
     "2024-03-01T07:08:00+09:00",
     "2024-03-01T07:09:00+09:00",
     "2024-03-01T07:10:00+09:00",
     "2024-03-01T07:11:00+09:00",
     "2024-03-01T07:12:00+09:00",
     "2024-03-01T07:13:00+09:00",
     "2024-03-01T07:14:00+09:00",
     "2024-03-01T07:15:00+09:00",
     "2024-03-01T07:16:00+09:00",
     "2024-03-01T07:17:00+09:00",
     "2024-03-01T07:18:00+09:00",
     "2024-03-01T07:19:00+09:00",
     "2024-03-01T07:20:00+09:00",
     "2024-03-01T07:21:00+09:00",
     "2024-03-01T07:22:00+09:00",
     "2024-03-01T07:23:00+09:00"
    ]
   }
  },
  {
   "type": "Feature",
   "geometry": {
    "type": "LineString",
    "coordinates": [
     [
      139.571429,
      35.7003
     ],
     [
      139.572017,
      35.699682
     ],
     [
      139.572715,
      35.699143
     ],
     [
      139.573509,
      35.698696
     ],
     [
      139.574379,
      35.69835
     ],
     [
      139.575304,
      35.698114
     ],
     [
      139.576264,
      35.697994
     ],
     [
      139.577236,
      35.697993
     ],
     [
      139.578196,
      35.69811
     ],
     [
      139.579123,
      35.698342
     ],
     [
      139.579995,
      35.698685
     ],
     [
      139.58079,
      35.69913
     ],
     [
      139.581492,
      35.699667
     ],
     [
      139.582082,
      35.700283
     ],
     [
      139.582548,
      35.700964
     ],
     [
      139.582878,
      35.701694
     ],
     [
      139.583065,
      35.702455
     ],
     [
      139.583104,
      35.70323
     ],
     [
      139.582995,
      35.704001
     ],
     [
      139.582739,
      35.70475
     ],
     [
      139.582344,
      35.705459
     ],
     [
      139.581817,
      35.706111
     ],
     [
      139.581172,
      35.706691
     ],
     [
      139.580424,
      35.707186
     ],
     [
      139.57959,
      35.707584
     ],
     [
      139.57869,
      35.707875
     ],
     [
      139.577744,
      35.708053
     ],
     [
      139.576776,
      35.708114
     ],
     [
      139.575807,
      35.708057
     ],
     [
      139.57486,
      35.707881
     ],
     [
      139.573958,
      35.707593
     ],
     [
      139.573122,
      35.707198
     ],
     [
      139.572372,
      35.706705
     ],
     [
      139.571724,
      35.706127
     ],
     [
      139.571194,
      35.705477
     ],
     [
      139.570795,
      35.704769
     ],
     [
      139.570535,
      35.704021
     ],
     [
      139.570422,
      35.703251
     ],
     [
      139.570457,
      35.702476
     ],
     [
      139.57064,
      35.701714
     ],
     [
      139.570967,
      35.700983
     ]
    ]
   },
   "properties": {
    "bus_id": "bus-03",
    "coordTimes": [
     "2024-03-01T06:54:00+09:00",
     "2024-03-01T06:55:00+09:00",
     "2024-03-01T06:56:00+09:00",
     "2024-03-01T06:57:00+09:00",
     "2024-03-01T06:58:00+09:00",
     "2024-03-01T06:59:00+09:00",
     "2024-03-01T07:00:00+09:00",
     "2024-03-01T07:01:00+09:00",
     "2024-03-01T07:02:00+09:00",
     "2024-03-01T07:03:00+09:00",
     "2024-03-01T07:04:00+09:00",
     "2024-03-01T07:05:00+09:00",
     "2024-03-01T07:06:00+09:00",
     "2024-03-01T07:07:00+09:00",
     "2024-03-01T07:08:00+09:00",
     "2024-03-01T07:09:00+09:00",
     "2024-03-01T07:10:00+09:00",
     "2024-03-01T07:11:00+09:00",
     "2024-03-01T07:12:00+09:00",
     "2024-03-01T07:13:00+09:00",
     "2024-03-01T07:14:00+09:00",
     "2024-03-01T07:15:00+09:00",
     "2024-03-01T07:16:00+09:00",
     "2024-03-01T07:17:00+09:00",
     "2024-03-01T07:18:00+09:00",
     "2024-03-01T07:19:00+09:00",
     "2024-03-01T07:20:00+09:00",
     "2024-03-01T07:21:00+09:00",
     "2024-03-01T07:22:00+09:00",
     "2024-03-01T07:23:00+09:00",
     "2024-03-01T07:24:00+09:00",
     "2024-03-01T07:25:00+09:00",
     "2024-03-01T07:26:00+09:00",
     "2024-03-01T07:27:00+09:00",
     "2024-03-01T07:28:00+09:00",
     "2024-03-01T07:29:00+09:00",
     "2024-03-01T07:30:00+09:00",
     "2024-03-01T07:31:00+09:00",
     "2024-03-01T07:32:00+09:00",
     "2024-03-01T07:33:00+09:00",
     "2024-03-01T07:34:00+09:00"
    ]
   }
  },
  {
   "type": "Feature",
   "geometry": {
    "type": "LineString",
    "coordinates": [
     [
      139.580635,
      35.697028
     ],
     [
      139.580272,
      35.696438
     ],
     [
      139.580044,
      35.69582
     ],
     [
      139.579956,
      35.695187
     ],
     [
      139.580011,
      35.694554
     ],
     [
      139.580206,
      35.693931
     ],
     [
      139.580538,
      35.693333
     ],
     [
      139.581,
      35.692771
     ],
     [
      139.581583,
      35.692256
     ],
     [
      139.582274,
      35.6918
     ],
     [
      139.583061,
      35.691411
     ],
     [
      139.583926,
      35.691098
     ],
     [
      139.584852,
      35.690866
     ],
     [
      139.58582,
      35.690721
     ],
     [
      139.586811,
      35.690665
     ],
     [
      139.587804,
      35.6907
     ],
     [
      139.588779,
      35.690824
     ],
     [
      139.589717,
      35.691036
     ],
     [
      139.590598,
      35.691331
     ],
     [
      139.591404,
      35.691703
     ],
     [
      139.592119,
      35.692144
     ],
     [
      139.592729,
      35.692646
     ],
     [
      139.59322,
      35.693198
     ],
     [
      139.593583,
      35.693789
     ],
     [
      139.593811,
      35.694407
     ],
     [
      139.593898,
      35.695039
     ],
     [
      139.593844,
      35.695673
     ],
     [
      139.593649,
      35.696295
     ],
     [
      139.593317,
      35.696893
     ],
     [
      139.592854,
      35.697455
     ],
     [
      139.592272,
      35.69797
     ],
     [
      139.59158,
      35.698426
     ],
     [
      139.590794,
      35.698815
     ],
     [
      139.589929,
      35.699128
     ],
     [
      139.589003,
      35.69936
     ],
     [
      139.588035,
      35.699505
     ],
     [
      139.587044,
      35.699561
     ],
     [
      139.58605,
      35.699526
     ],
     [
      139.585075,
      35.699402
     ],
     [
      139.584137,
      35.69919
     ],
     [
      139.583256,
      35.698895
     ],
     [
      139.58245,
      35.698523
     ],
     [
      139.581735,
      35.698082
     ],
     [
      139.581126,
      35.69758
     ]
    ]
   },
   "properties": {
    "bus_id": "bus-04",
    "coordTimes": [
     "2024-03-01T07:06:00+09:00",
     "2024-03-01T07:07:00+09:00",
     "2024-03-01T07:08:00+09:00",
     "2024-03-01T07:09:00+09:00",
     "2024-03-01T07:10:00+09:00",
     "2024-03-01T07:11:00+09:00",
     "2024-03-01T07:12:00+09:00",
     "2024-03-01T07:13:00+09:00",
     "2024-03-01T07:14:00+09:00",
     "2024-03-01T07:15:00+09:00",
     "2024-03-01T07:16:00+09:00",
     "2024-03-01T07:17:00+09:00",
     "2024-03-01T07:18:00+09:00",
     "2024-03-01T07:19:00+09:00",
     "2024-03-01T07:20:00+09:00",
     "2024-03-01T07:21:00+09:00",
     "2024-03-01T07:22:00+09:00",
     "2024-03-01T07:23:00+09:00",
     "2024-03-01T07:24:00+09:00",
     "2024-03-01T07:25:00+09:00",
     "2024-03-01T07:26:00+09:00",
     "2024-03-01T07:27:00+09:00",
     "2024-03-01T07:28:00+09:00",
     "2024-03-01T07:29:00+09:00",
     "2024-03-01T07:30:00+09:00",
     "2024-03-01T07:31:00+09:00",
     "2024-03-01T07:32:00+09:00",
     "2024-03-01T07:33:00+09:00",
     "2024-03-01T07:34:00+09:00",
     "2024-03-01T07:35:00+09:00",
     "2024-03-01T07:36:00+09:00",
     "2024-03-01T07:37:00+09:00",
     "2024-03-01T07:38:00+09:00",
     "2024-03-01T07:39:00+09:00",
     "2024-03-01T07:40:00+09:00",
     "2024-03-01T07:41:00+09:00",
     "2024-03-01T07:42:00+09:00",
     "2024-03-01T07:43:00+09:00",
     "2024-03-01T07:44:00+09:00",
     "2024-03-01T07:45:00+09:00",
     "2024-03-01T07:46:00+09:00",
     "2024-03-01T07:47:00+09:00",
     "2024-03-01T07:48:00+09:00",
     "2024-03-01T07:49:00+09:00"
    ]
   }
  },
  {
   "type": "Feature",
   "geometry": {
    "type": "LineString",
    "coordinates": [
     [
      139.562114,
      35.704618
     ],
     [
      139.560998,
      35.704305
     ],
     [
      139.559974,
      35.703892
     ],
     [
      139.559066,
      35.703389
     ],
     [
      139.558296,
      35.702808
     ],
     [
      139.55768,
      35.702163
     ],
     [
      139.557235,
      35.701469
     ],
     [
      139.556969,
      35.700741
     ],
     [
      139.55689,
      35.699998
     ],
     [
      139.557,
      35.699256
     ],
     [
      139.557295,
      35.698533
     ],
     [
      139.557769,
      35.697845
     ],
     [
      139.558411,
      35.697209
     ],
     [
      139.559205,
      35.696641
     ],
     [
      139.560134,
      35.696152
     ],
     [
      139.561174,
      35.695755
     ],
     [
      139.562303,
      35.695458
     ],
     [
      139.563493,
      35.69527
     ],
     [
      139.564717,
      35.695194
     ],
     [
      139.565945,
      35.695232
     ],
     [
      139.56715,
      35.695382
     ],
     [
      139.568302,
      35.695643
     ],
     [
      139.569376,
      35.696007
     ],
     [
      139.570344,
      35.696466
     ],
     [
      139.571186,
      35.697009
     ],
     [
      139.571881,
      35.697624
     ],
     [
      139.572413,
      35.698296
     ],
     [
      139.57277,
      35.699009
     ],
     [
      139.572943,
      35.699747
     ],
     [
      139.572927,
      35.700492
     ],
     [
      139.572724,
      35.701226
     ],
     [
      139.572339,
      35.701934
     ],
     [
      139.571779,
      35.702597
     ],
     [
      139.571059,
      35.703201
     ],
     [
      139.570195,
      35.703732
     ],
     [
      139.569207,
      35.704176
     ],
     [
      139.568119,
      35.704524
     ],
     [
      139.566957,
      35.704767
     ],
     [
      139.565746,
      35.7049
     ],
     [
      139.564517,
      35.704919
     ],
     [
      139.563296,
      35.704824
     ]
    ]
   },
   "properties": {
    "bus_id": "bus-05",
    "coordTimes": [
     "2024-03-01T07:18:00+09:00",
     "2024-03-01T07:19:00+09:00",
     "2024-03-01T07:20:00+09:00",
     "2024-03-01T07:21:00+09:00",
     "2024-03-01T07:22:00+09:00",
     "2024-03-01T07:23:00+09:00",
     "2024-03-01T07:24:00+09:00",
     "2024-03-01T07:25:00+09:00",
     "2024-03-01T07:26:00+09:00",
     "2024-03-01T07:27:00+09:00",
     "2024-03-01T07:28:00+09:00",
     "2024-03-01T07:29:00+09:00",
     "2024-03-01T07:30:00+09:00",
     "2024-03-01T07:31:00+09:00",
     "2024-03-01T07:32:00+09:00",
     "2024-03-01T07:33:00+09:00",
     "2024-03-01T07:34:00+09:00",
     "2024-03-01T07:35:00+09:00",
     "2024-03-01T07:36:00+09:00",
     "2024-03-01T07:37:00+09:00",
     "2024-03-01T07:38:00+09:00",
     "2024-03-01T07:39:00+09:00",
     "2024-03-01T07:40:00+09:00",
     "2024-03-01T07:41:00+09:00",
     "2024-03-01T07:42:00+09:00",
     "2024-03-01T07:43:00+09:00",
     "2024-03-01T07:44:00+09:00",
     "2024-03-01T07:45:00+09:00",
     "2024-03-01T07:46:00+09:00",
     "2024-03-01T07:47:00+09:00",
     "2024-03-01T07:48:00+09:00",
     "2024-03-01T07:49:00+09:00",
     "2024-03-01T07:50:00+09:00",
     "2024-03-01T07:51:00+09:00",
     "2024-03-01T07:52:00+09:00",
     "2024-03-01T07:53:00+09:00",
     "2024-03-01T07:54:00+09:00",
     "2024-03-01T07:55:00+09:00",
     "2024-03-01T07:56:00+09:00",
     "2024-03-01T07:57:00+09:00",
     "2024-03-01T07:58:00+09:00"
    ]
   }
  },
  {
   "type": "Feature",
   "geometry": {
    "type": "LineString",
    "coordinates": [
     [
      139.577731,
      35.69844
     ],
     [
      139.578322,
      35.697933
     ],
     [
      139.579057,
      35.697472
     ],
     [
      139.579921,
      35.697066
     ],
     [
      139.580898,
      35.696723
     ],
     [
      139.581966,
      35.696449
     ],
     [
      139.583105,
      35.696252
     ],
     [
      139.584291,
      35.696134
     ],
     [
      139.5855,
      35.696098
     ],
     [
      139.586708,
      35.696145
     ],
     [
      139.587889,
      35.696273
     ],
     [
      139.58902,
      35.696481
     ],
     [
      139.590077,
      35.696764
     ],
     [
      139.59104,
      35.697116
     ],
     [
      139.591889,
      35.69753
     ],
     [
      139.592606,
      35.697998
     ],
     [
      139.593176,
      35.69851
     ],
     [
      139.593589,
      35.699055
     ],
     [
      139.593835,
      35.699623
     ],
     [
      139.59391,
      35.700202
     ],
     [
      139.593812,
      35.70078
     ],
     [
      139.593544,
      35.701346
     ],
     [
      139.59311,
      35.701887
     ],
     [
      139.592519,
      35.702394
     ],
     [
      139.591784,
      35.702855
     ],
     [
      139.590919,
      35.703261
     ],
     [
      139.589943,
      35.703604
     ],
     [
      139.588874,
      35.703878
     ],
     [
      139.587735,
      35.704075
     ],
     [
      139.586549,
      35.704193
     ],
     [
      139.58534,
      35.704229
     ],
     [
      139.584133,
      35.704182
     ],
     [
      139.582952,
      35.704054
     ],
     [
      139.581821,
      35.703846
     ],
     [
      139.580763,
      35.703563
     ],
     [
      139.5798,
      35.703211
     ],
     [
      139.578952,
      35.702797
     ],
     [
      139.578235,
      35.702329
     ],
     [
      139.577665,
      35.701818
     ],
     [
      139.577252,
      35.701272
     ],
     [
      139.577006,
      35.700704
     ],
     [
      139.576931,
      35.700125
     ],
     [
      139.577028,
      35.699547
     ],
     [
      139.577297,
      35.698981
     ]
    ]
   },
   "properties": {
    "bus_id": "bus-06",
    "coordTimes": [
     "2024-03-01T07:30:00+09:00",
     "2024-03-01T07:31:00+09:00",
     "2024-03-01T07:32:00+09:00",
     "2024-03-01T07:33:00+09:00",
     "2024-03-01T07:34:00+09:00",
     "2024-03-01T07:35:00+09:00",
     "2024-03-01T07:36:00+09:00",
     "2024-03-01T07:37:00+09:00",
     "2024-03-01T07:38:00+09:00",
     "2024-03-01T07:39:00+09:00",
     "2024-03-01T07:40:00+09:00",
     "2024-03-01T07:41:00+09:00",
     "2024-03-01T07:42:00+09:00",
     "2024-03-01T07:43:00+09:00",
     "2024-03-01T07:44:00+09:00",
     "2024-03-01T07:45:00+09:00",
     "2024-03-01T07:46:00+09:00",
     "2024-03-01T07:47:00+09:00",
     "2024-03-01T07:48:00+09:00",
     "2024-03-01T07:49:00+09:00",
     "2024-03-01T07:50:00+09:00",
     "2024-03-01T07:51:00+09:00",
     "2024-03-01T07:52:00+09:00",
     "2024-03-01T07:53:00+09:00",
     "2024-03-01T07:54:00+09:00",
     "2024-03-01T07:55:00+09:00",
     "2024-03-01T07:56:00+09:00",
     "2024-03-01T07:57:00+09:00",
     "2024-03-01T07:58:00+09:00",
     "2024-03-01T07:59:00+09:00",
     "2024-03-01T08:00:00+09:00",
     "2024-03-01T08:01:00+09:00",
     "2024-03-01T08:02:00+09:00",
     "2024-03-01T08:03:00+09:00",
     "2024-03-01T08:04:00+09:00",
     "2024-03-01T08:05:00+09:00",
     "2024-03-01T08:06:00+09:00",
     "2024-03-01T08:07:00+09:00",
     "2024-03-01T08:08:00+09:00",
     "2024-03-01T08:09:00+09:00",
     "2024-03-01T08:10:00+09:00",
     "2024-03-01T08:11:00+09:00",
     "2024-03-01T08:12:00+09:00",
     "2024-03-01T08:13:00+09:00"
    ]
   }
  }
 ]
}
